{
"type": "FeatureCollection",
"name": "SULTENG_PAKET_3",
"crs": { "type": "name", "properties": { "name": "urn:ogc:def:crs:ESRI::54034" } },
"features": [
{ "type": "Feature", "properties": { "WADMPR": "SULAWESI TENGAH", "WADMKK": "SIGI", "WADMKC": "LINDU", "WADMKD": "OLU", "POKTAN": "KT CAHAYA OLU", "LUAS_HA": 33.500182885000001, "PAKET": "Paket Sulawesi Tengah 3" }, "geometry": { "type": "MultiPolygon", "coordinates": [ [ [ [ 13371767.238140542060137, -147787.714928716421127, 0.0 ], [ 13371776.854588095098734, -147716.050771890208125, 0.0 ], [ 13371858.90597166121006, -147717.445344158448279, 0.0 ], [ 13371861.518594767898321, -147870.59199582785368, 0.0 ], [ 13371944.002022963017225, -147852.695450343191624, 0.0 ], [ 13371946.39061276614666, -147907.756071696057916, 0.0 ], [ 13371912.544183354824781, -147910.297131119295955, 0.0 ], [ 13371900.29133777320385, -147946.187092201784253, 0.0 ], [ 13371864.320701058954, -148051.439405129291117, 0.0 ], [ 13371864.317893225699663, -148051.447492591105402, 0.0 ], [ 13371864.341571040451527, -148051.454312652349472, 0.0 ], [ 13371864.336254019290209, -148051.471486799418926, 0.0 ], [ 13371858.776874423027039, -148069.468653318472207, 0.0 ], [ 13371833.346495594829321, -148151.949149967171252, 0.0 ], [ 13371832.560747895389795, -148154.497627638280392, 0.0 ], [ 13371798.66702264174819, -148264.427581466734409, 0.0 ], [ 13371798.655585881322622, -148264.460943016223609, 0.0 ], [ 13371798.667078837752342, -148264.46473906096071, 0.0 ], [ 13371798.659064672887325, -148264.480811263434589, 0.0 ], [ 13371844.0539870262146, -148289.449027573689818, 0.0 ], [ 13371872.97429896146059, -148305.355840522795916, 0.0 ], [ 13371874.766540370881557, -148306.341613021679223, 0.0 ], [ 13371892.919662863016129, -148316.339905994012952, 0.0 ], [ 13371870.905726086348295, -148362.420787165872753, 0.0 ], [ 13371851.351694103330374, -148403.352367032319307, 0.0 ], [ 13371820.470396526157856, -148467.994758859276772, 0.0 ], [ 13371802.557506989687681, -148457.367106019519269, 0.0 ], [ 13371771.11179830878973, -148438.636146510019898, 0.0 ], [ 13371700.10195567458868, -148585.259294106625021, 0.0 ], [ 13371741.376748137176037, -148611.538642685860395, 0.0 ], [ 13371686.708254374563694, -148764.354009510949254, 0.0 ], [ 13371684.110236380249262, -148771.062577392905951, 0.0 ], [ 13371680.490170303732157, -148780.410261694341898, 0.0 ], [ 13371367.015973158180714, -148602.245935659855604, 0.0 ], [ 13371367.174305483698845, -148601.589302250184119, 0.0 ], [ 13371367.152033057063818, -148601.577289711683989, 0.0 ], [ 13371367.141302663832903, -148601.6084412811324, 0.0 ], [ 13371367.125120773911476, -148601.601330317556858, 0.0 ], [ 13371361.547383274883032, -148599.137839205563068, 0.0 ], [ 13371300.781424913555384, -148572.299644595943391, 0.0 ], [ 13371300.796955950558186, -148572.265502142719924, 0.0 ], [ 13371300.802444711327553, -148572.253512352705002, 0.0 ], [ 13371304.800563365221024, -148563.480700323358178, 0.0 ], [ 13371365.760388322174549, -148429.720395259559155, 0.0 ], [ 13371365.690374493598938, -148429.683055427856743, 0.0 ], [ 13371389.351811196655035, -148387.721501763910055, 0.0 ], [ 13371429.975092582404613, -148315.465351175516844, 0.0 ], [ 13371429.99422125145793, -148315.431312741711736, 0.0 ], [ 13371430.06261919811368, -148315.309703272767365, 0.0 ], [ 13371430.149144195020199, -148315.326971268281341, 0.0 ], [ 13371430.154066521674395, -148315.318438320420682, 0.0 ], [ 13371430.196822635829449, -148315.326971263624728, 0.0 ], [ 13371456.816390696913004, -148269.18144363258034, 0.0 ], [ 13371457.297338839620352, -148268.34771029651165, 0.0 ], [ 13371493.714432399719954, -148205.217878621071577, 0.0 ], [ 13371517.247157216072083, -148164.358381299301982, 0.0 ], [ 13371517.216088518500328, -148164.347656990401447, 0.0 ], [ 13371517.221405919641256, -148164.330183257348835, 0.0 ], [ 13371517.197227664291859, -148164.324061778374016, 0.0 ], [ 13371535.339204411953688, -148104.425880491733551, 0.0 ], [ 13371569.159752715379, -147992.602507273666561, 0.0 ], [ 13371569.169484686106443, -147992.570355492644012, 0.0 ], [ 13371569.209647573530674, -147992.581390119157732, 0.0 ], [ 13371569.217926867306232, -147992.509781755506992, 0.0 ], [ 13371569.169471818953753, -147992.496340130455792, 0.0 ], [ 13371579.951542787253857, -147898.780441370792687, 0.0 ], [ 13371580.033512577414513, -147898.067973276600242, 0.0 ], [ 13371583.882778644561768, -147864.61075921729207, 0.0 ], [ 13371587.296846657991409, -147834.83460654783994, 0.0 ], [ 13371592.122911103069782, -147792.743678259663284, 0.0 ], [ 13371767.238140542060137, -147787.714928716421127, 0.0 ] ] ] ] } },
{ "type": "Feature", "properties": { "WADMPR": "SULAWESI TENGAH", "WADMKK": "SIGI", "WADMKC": "LINDU", "WADMKD": "OLU", "POKTAN": "KT CAHAYA KASIH", "LUAS_HA": 34.000453835199998, "PAKET": "Paket Sulawesi Tengah 3" }, "geometry": { "type": "MultiPolygon", "coordinates": [ [ [ [ 13370905.038464905694127, -148527.535355772386538, 0.0 ], [ 13370905.080865675583482, -148527.555466664402047, 0.0 ], [ 13370935.712322514504194, -148410.83218115082127, 0.0 ], [ 13371164.679707571864128, -148503.621790629869793, 0.0 ], [ 13371142.10664039477706, -148591.841736334463349, 0.0 ], [ 13371123.875669781118631, -148656.807161695935065, 0.0 ], [ 13371062.907284734770656, -148784.117983272532001, 0.0 ], [ 13370903.927368590608239, -148826.944213055860018, 0.0 ], [ 13370857.490765357390046, -148793.921884840354323, 0.0 ], [ 13370850.342863369733095, -148801.048963578563416, 0.0 ], [ 13370734.280870404094458, -148927.144720127340406, 0.0 ], [ 13370697.908780571073294, -148907.108566621696809, 0.0 ], [ 13370644.96529789082706, -148986.432151168846758, 0.0 ], [ 13370609.191881649196148, -149040.030317310534883, 0.0 ], [ 13370597.321434428915381, -149057.815419234422734, 0.0 ], [ 13370585.924548905342817, -149074.890993421606254, 0.0 ], [ 13370509.149308262392879, -149021.45146022370318, 0.0 ], [ 13370502.006107956171036, -149016.133742956415517, 0.0 ], [ 13370438.04371334053576, -148966.125328366062604, 0.0 ], [ 13370430.757337309420109, -148960.197216438391479, 0.0 ], [ 13370421.295511022210121, -148953.073858543328242, 0.0 ], [ 13370379.242692230269313, -148919.123139339819318, 0.0 ], [ 13370372.858628176152706, -148913.687968278565677, 0.0 ], [ 13370340.950122330337763, -148884.624045730888611, 0.0 ], [ 13370304.751471662893891, -148847.181034306326183, 0.0 ], [ 13370285.110662749037147, -148825.332679213752272, 0.0 ], [ 13370265.149246474727988, -148802.953120806108927, 0.0 ], [ 13370265.2013886179775, -148802.890954659815179, 0.0 ], [ 13370248.650587787851691, -148784.310007918713382, 0.0 ], [ 13370223.771043507382274, -148756.378702993737534, 0.0 ], [ 13370588.37130712904036, -148440.491472694382537, 0.0 ], [ 13370588.371809050440788, -148440.48766326639452, 0.0 ], [ 13370594.299186343327165, -148418.804378596367314, 0.0 ], [ 13370594.300122072920203, -148418.800669650518103, 0.0 ], [ 13370601.858540244400501, -148386.169268834404647, 0.0 ], [ 13370601.949508972465992, -148385.777501681062859, 0.0 ], [ 13370616.327977072447538, -148392.787264650338329, 0.0 ], [ 13370640.406700532883406, -148403.638001188082853, 0.0 ], [ 13370756.881520921364427, -148455.980988492636243, 0.0 ], [ 13370756.89930066652596, -148455.989000298635801, 0.0 ], [ 13370756.903595812618732, -148455.990903186204378, 0.0 ], [ 13370756.873521855100989, -148456.068777909968048, 0.0 ], [ 13370778.760872878134251, -148467.663900412881048, 0.0 ], [ 13370905.033187229186296, -148527.555466664402047, 0.0 ], [ 13370905.038464905694127, -148527.535355772386538, 0.0 ] ] ] ] } },
{ "type": "Feature", "properties": { "WADMPR": "SULAWESI TENGAH", "WADMKK": "SIGI", "WADMKC": "LINDU", "WADMKD": "OLU", "POKTAN": "KT LANGKASA", "LUAS_HA": 26.500807908700001, "PAKET": "Paket Sulawesi Tengah 3" }, "geometry": { "type": "MultiPolygon", "coordinates": [ [ [ [ 13370595.504162281751633, -149060.538177625276148, 0.0 ], [ 13370595.526760134845972, -149060.504320013336837, 0.0 ], [ 13370597.321434434503317, -149057.815419231541455, 0.0 ], [ 13370600.480135448276997, -149053.082841062918305, 0.0 ], [ 13370609.191881667822599, -149040.0303173083812, 0.0 ], [ 13370644.965297907590866, -148986.432151170447469, 0.0 ], [ 13370697.908780574798584, -148907.108566623181105, 0.0 ], [ 13370734.280870400369167, -148927.1447201250121, 0.0 ], [ 13370850.342863388359547, -148801.048963580280542, 0.0 ], [ 13370857.490765359252691, -148793.921884837560356, 0.0 ], [ 13370903.927368588745594, -148826.944213048554957, 0.0 ], [ 13371062.907284744083881, -148784.117983265779912, 0.0 ], [ 13371123.875669781118631, -148656.807161693461239, 0.0 ], [ 13371142.106640391051769, -148591.841736336238682, 0.0 ], [ 13371164.679707571864128, -148503.621790623292327, 0.0 ], [ 13371178.351937368512154, -148509.162496191449463, 0.0 ], [ 13371178.426748495548964, -148509.199542064219713, 0.0 ], [ 13371178.421732868999243, -148509.215318012982607, 0.0 ], [ 13371304.752886883914471, -148563.480701226741076, 0.0 ], [ 13371304.760692484676838, -148563.463573899120092, 0.0 ], [ 13371304.800563365221024, -148563.480700323358178, 0.0 ], [ 13371300.802444711327553, -148572.253512352705002, 0.0 ], [ 13371300.744134910404682, -148572.225585537962615, 0.0 ], [ 13371300.710898343473673, -148572.20899928547442, 0.0 ], [ 13371300.796955950558186, -148572.265502142719924, 0.0 ], [ 13371300.781424913555384, -148572.299644595943391, 0.0 ], [ 13371361.547383274883032, -148599.137839205563068, 0.0 ], [ 13371367.125120773911476, -148601.601330317556858, 0.0 ], [ 13371367.141302671283484, -148601.608441276475787, 0.0 ], [ 13371367.152033057063818, -148601.577289715409279, 0.0 ], [ 13371367.174305483698845, -148601.589302250184119, 0.0 ], [ 13371367.015973158180714, -148602.24593566916883, 0.0 ], [ 13371364.410738408565521, -148613.050321020185947, 0.0 ], [ 13371364.382233988493681, -148613.168534018099308, 0.0 ], [ 13371359.937124215066433, -148631.603190783411264, 0.0 ], [ 13371351.190245773643255, -148667.878011903725564, 0.0 ], [ 13371343.213734894990921, -148700.957963620312512, 0.0 ], [ 13371343.162991784512997, -148701.16840389650315, 0.0 ], [ 13371336.461942985653877, -148728.958785257302225, 0.0 ], [ 13371336.427276827394962, -148728.947756904177368, 0.0 ], [ 13371336.423939131200314, -148728.958471909165382, 0.0 ], [ 13371336.42227503657341, -148728.963011844083667, 0.0 ], [ 13371336.407214023172855, -148729.001866845414042, 0.0 ], [ 13371336.387243807315826, -148728.995954196900129, 0.0 ], [ 13371319.16948277503252, -148771.56130141671747, 0.0 ], [ 13371276.771976392716169, -148876.375160426832736, 0.0 ], [ 13371276.656855471432209, -148876.6597586767748, 0.0 ], [ 13371275.754838533699512, -148878.889695305377245, 0.0 ], [ 13371275.310378268361092, -148879.988474386744201, 0.0 ], [ 13371258.463597681373358, -148921.636477724649012, 0.0 ], [ 13371258.432124465703964, -148921.714151149615645, 0.0 ], [ 13371258.419996120035648, -148921.744202230125666, 0.0 ], [ 13371209.111665111035109, -148982.309221400879323, 0.0 ], [ 13371201.407363772392273, -148991.772302841767669, 0.0 ], [ 13371170.636890344321728, -149029.56753259152174, 0.0 ], [ 13371170.537944480776787, -149029.487707087770104, 0.0 ], [ 13371112.588787507265806, -149093.761738490313292, 0.0 ], [ 13371112.45264395326376, -149093.912741423584521, 0.0 ], [ 13371112.427826147526503, -149093.940280271694064, 0.0 ], [ 13371156.208461921662092, -149118.204931922256947, 0.0 ], [ 13371082.223159175366163, -149212.491424187086523, 0.0 ], [ 13371020.176500119268894, -149302.680429860018194, 0.0 ], [ 13370595.504162281751633, -149060.538177625276148, 0.0 ] ], [ [ 13370703.751143392175436, -148932.947280928492546, 0.0 ], [ 13370703.803683344274759, -148932.971115795895457, 0.0 ], [ 13370703.826718330383301, -148932.93185056373477, 0.0 ], [ 13370703.777579456567764, -148932.903462881222367, 0.0 ], [ 13370703.751143392175436, -148932.947280928492546, 0.0 ] ] ] ] } },
{ "type": "Feature", "properties": { "WADMPR": "SULAWESI TENGAH", "WADMKK": "SIGI", "WADMKC": "LINDU", "WADMKD": "OLU", "POKTAN": "KT CINTA DAMAI", "LUAS_HA": 38.500255340899997, "PAKET": "Paket Sulawesi Tengah 3" }, "geometry": { "type": "MultiPolygon", "coordinates": [ [ [ [ 13371097.014205895364285, -148058.06525010894984, 0.0 ], [ 13371098.669414687901735, -148058.614800832234323, 0.0 ], [ 13371160.933625426143408, -148077.075547609478235, 0.0 ], [ 13371176.215569317340851, -148080.417383774183691, 0.0 ], [ 13371258.984590247273445, -148102.769059080630541, 0.0 ], [ 13371264.1768394485116, -148103.948319090530276, 0.0 ], [ 13371419.085642501711845, -148140.436897718347609, 0.0 ], [ 13371517.247157216072083, -148164.358381299301982, 0.0 ], [ 13371493.714432399719954, -148205.217878621071577, 0.0 ], [ 13371457.297338839620352, -148268.34771029651165, 0.0 ], [ 13371456.816390696913004, -148269.18144363258034, 0.0 ], [ 13371430.196822635829449, -148315.326971263624728, 0.0 ], [ 13371430.154066521674395, -148315.318438320420682, 0.0 ], [ 13371430.14914421364665, -148315.326971268281341, 0.0 ], [ 13371430.06261920556426, -148315.309703272767365, 0.0 ], [ 13371429.99422125145793, -148315.431312741711736, 0.0 ], [ 13371429.975092582404613, -148315.465351175516844, 0.0 ], [ 13371389.351811196655035, -148387.721501763910055, 0.0 ], [ 13371365.690374493598938, -148429.683055427856743, 0.0 ], [ 13371365.760388322174549, -148429.720395259559155, 0.0 ], [ 13371304.800563380122185, -148563.480700323358178, 0.0 ], [ 13371304.760692484676838, -148563.463573899120092, 0.0 ], [ 13371304.752886883914471, -148563.480701222084463, 0.0 ], [ 13371178.421732868999243, -148509.215318012982607, 0.0 ], [ 13371178.426748495548964, -148509.199542064219713, 0.0 ], [ 13371178.351937368512154, -148509.162496191449463, 0.0 ], [ 13371164.679707571864128, -148503.621790623292327, 0.0 ], [ 13371007.426518049091101, -148439.894539508968592, 0.0 ], [ 13370935.712322514504194, -148410.832181138917804, 0.0 ], [ 13370905.080865677446127, -148527.555466662161052, 0.0 ], [ 13370905.038464911282063, -148527.535355770029128, 0.0 ], [ 13370778.808551337569952, -148467.663900414481759, 0.0 ], [ 13370756.921200297772884, -148456.068777907639742, 0.0 ], [ 13370756.951274272054434, -148455.990903188474476, 0.0 ], [ 13370756.946979116648436, -148455.989000300876796, 0.0 ], [ 13370756.929199386388063, -148455.980988490395248, 0.0 ], [ 13370649.084440778940916, -148407.516292651183903, 0.0 ], [ 13370647.035985141992569, -148406.595730537548661, 0.0 ], [ 13370640.454378988593817, -148403.638001185841858, 0.0 ], [ 13370616.375655528157949, -148392.78726465255022, 0.0 ], [ 13370601.95437241718173, -148385.756517671979964, 0.0 ], [ 13370600.311898030340672, -148384.067633887752891, 0.0 ], [ 13370547.265534549951553, -148311.986264145001769, 0.0 ], [ 13370618.922956760972738, -148066.060612037777901, 0.0 ], [ 13370620.993179902434349, -148048.342624281533062, 0.0 ], [ 13370622.112375266849995, -148038.763999626971781, 0.0 ], [ 13370624.594719730317593, -148017.518874567933381, 0.0 ], [ 13370632.432283591479063, -147950.441147679463029, 0.0 ], [ 13370632.432327292859554, -147950.404090380296111, 0.0 ], [ 13370645.387966882437468, -147875.708024248480797, 0.0 ], [ 13370645.383173123002052, -147875.705221822485328, 0.0 ], [ 13370645.310277905315161, -147875.653994834981859, 0.0 ], [ 13370651.852522522211075, -147819.237609324976802, 0.0 ], [ 13370651.897077620029449, -147819.264543291181326, 0.0 ], [ 13370651.900200992822647, -147819.237609324976802, 0.0 ], [ 13370754.901175186038017, -147881.502652011811733, 0.0 ], [ 13370797.241309396922588, -147907.097655212506652, 0.0 ], [ 13370802.682872861623764, -147910.387110628187656, 0.0 ], [ 13370794.320919454097748, -147950.418386658653617, 0.0 ], [ 13370793.577602408826351, -147953.9768578838557, 0.0 ], [ 13370969.932228334248066, -148015.09522348549217, 0.0 ], [ 13370999.287304542958736, -148025.268669568933547, 0.0 ], [ 13371023.337937142699957, -148033.603775913827121, 0.0 ], [ 13371037.456498093903065, -148038.291320767253637, 0.0 ], [ 13371040.802332829684019, -148039.40218117274344, 0.0 ], [ 13371097.014205895364285, -148058.06525010894984, 0.0 ] ] ] ] } },
{ "type": "Feature", "properties": { "WADMPR": "SULAWESI TENGAH", "WADMKK": "SIGI", "WADMKC": "LINDU", "WADMKD": "OLU", "POKTAN": "KT MEKAR JAYA", "LUAS_HA": 32.500713259500003, "PAKET": "Paket Sulawesi Tengah 3" }, "geometry": { "type": "MultiPolygon", "coordinates": [ [ [ [ 13371281.579452984035015, -147650.856662476435304, 0.0 ], [ 13371286.897357575595379, -147628.376340484246612, 0.0 ], [ 13371442.795203067362309, -147646.216219387948513, 0.0 ], [ 13371436.198293186724186, -147773.268272146582603, 0.0 ], [ 13371592.122911103069782, -147792.743678259663284, 0.0 ], [ 13371587.296846657991409, -147834.834606552496552, 0.0 ], [ 13371583.882778644561768, -147864.61075921729207, 0.0 ], [ 13371580.033512577414513, -147898.067973276600242, 0.0 ], [ 13371579.951542787253857, -147898.780441370792687, 0.0 ], [ 13371569.169471818953753, -147992.496340130455792, 0.0 ], [ 13371569.217926867306232, -147992.509781755506992, 0.0 ], [ 13371569.209647573530674, -147992.581390119157732, 0.0 ], [ 13371569.169484686106443, -147992.570355492644012, 0.0 ], [ 13371569.159752715379, -147992.602507273666561, 0.0 ], [ 13371554.41082001850009, -148041.367991203442216, 0.0 ], [ 13371535.339204423129559, -148104.425880487076938, 0.0 ], [ 13371517.210467308759689, -148164.280349316075444, 0.0 ], [ 13371517.247157216072083, -148164.358381299301982, 0.0 ], [ 13371419.085642501711845, -148140.436897713690996, 0.0 ], [ 13371264.1768394485116, -148103.948319090530276, 0.0 ], [ 13371258.984590247273445, -148102.769059080630541, 0.0 ], [ 13371176.215569317340851, -148080.417383774183691, 0.0 ], [ 13371160.933625426143408, -148077.075547609478235, 0.0 ], [ 13371098.669414695352316, -148058.614800832234323, 0.0 ], [ 13371097.014205895364285, -148058.06525010894984, 0.0 ], [ 13371040.802332829684019, -148039.40218117274344, 0.0 ], [ 13371037.456498093903065, -148038.291320767253637, 0.0 ], [ 13371023.337937142699957, -148033.603775913827121, 0.0 ], [ 13370999.287304542958736, -148025.268669565208256, 0.0 ], [ 13370969.932228334248066, -148015.09522348549217, 0.0 ], [ 13370793.577602408826351, -147953.976857888512313, 0.0 ], [ 13370794.320919454097748, -147950.418386658653617, 0.0 ], [ 13370802.682872861623764, -147910.387110628187656, 0.0 ], [ 13370816.802831403911114, -147842.790470201522112, 0.0 ], [ 13370837.419287465512753, -147744.093072268180549, 0.0 ], [ 13370837.437240056693554, -147744.039155322127044, 0.0 ], [ 13370885.807720046490431, -147598.606330878101289, 0.0 ], [ 13370885.828093998134136, -147598.617941506206989, 0.0 ], [ 13370885.901500146836042, -147598.659779796376824, 0.0 ], [ 13370893.23847807943821, -147568.19126970693469, 0.0 ], [ 13370897.919434905052185, -147548.97162470407784, 0.0 ], [ 13370935.427633449435234, -147556.202810741961002, 0.0 ], [ 13371019.962730187922716, -147572.500156231224537, 0.0 ], [ 13371073.97092692181468, -147582.912284155376256, 0.0 ], [ 13371073.981765549629927, -147582.87384095042944, 0.0 ], [ 13371162.210660923272371, -147608.507626981474459, 0.0 ], [ 13371162.237067051231861, -147608.44691807962954, 0.0 ], [ 13371162.284171715378761, -147608.460567248985171, 0.0 ], [ 13371162.276554733514786, -147608.478937264531851, 0.0 ], [ 13371243.403147239238024, -147642.426965838298202, 0.0 ], [ 13371279.929593253880739, -147657.711677345447242, 0.0 ], [ 13371279.955265138298273, -147657.722395237535238, 0.0 ], [ 13371281.579452984035015, -147650.856662476435304, 0.0 ] ] ] ] } },
{ "type": "Feature", "properties": { "WADMPR": "SULAWESI TENGAH", "WADMKK": "SIGI", "WADMKC": "LINDU", "WADMKD": "OLU", "POKTAN": "KT BUNGA PADI", "LUAS_HA": 34.007989895800002, "PAKET": "Paket Sulawesi Tengah 3" }, "geometry": { "type": "MultiPolygon", "coordinates": [ [ [ [ 13370278.475316427648067, -148066.365948878228664, 0.0 ], [ 13370284.98237007111311, -148065.116701800376177, 0.0 ], [ 13370320.768572792410851, -148056.023121606558561, 0.0 ], [ 13370336.551060378551483, -148051.147992059588432, 0.0 ], [ 13370397.012016676366329, -148035.26340451464057, 0.0 ], [ 13370405.209791995584965, -148032.392146492376924, 0.0 ], [ 13370421.169261500239372, -148025.884236015379429, 0.0 ], [ 13370422.443222604691982, -148023.078611240722239, 0.0 ], [ 13370426.212225817143917, -148014.779331418685615, 0.0 ], [ 13370427.894530452787876, -148011.073277422226965, 0.0 ], [ 13370427.948537983000278, -148010.954378255642951, 0.0 ], [ 13370427.950434617698193, -148010.952225753106177, 0.0 ], [ 13370427.951715476810932, -148010.948870867490768, 0.0 ], [ 13370433.618656523525715, -147993.222781207412481, 0.0 ], [ 13370433.619801238179207, -147993.219200530089438, 0.0 ], [ 13370437.318460360169411, -147981.649791041389108, 0.0 ], [ 13370437.474931307137012, -147981.160349724814296, 0.0 ], [ 13370442.803384833037853, -147964.492937009781599, 0.0 ], [ 13370442.804759636521339, -147964.488650495186448, 0.0 ], [ 13370442.80556208640337, -147964.48418100271374, 0.0 ], [ 13370449.372283689677715, -147968.271366924978793, 0.0 ], [ 13370506.71736728399992, -148001.344132383354008, 0.0 ], [ 13370506.716917932033539, -148001.347845573909581, 0.0 ], [ 13370543.744337417185307, -148022.702708643861115, 0.0 ], [ 13370618.922956757247448, -148066.060612037777901, 0.0 ], [ 13370609.259330816566944, -148099.225822819396853, 0.0 ], [ 13370573.996030434966087, -148220.248180005699396, 0.0 ], [ 13370547.265534549951553, -148311.986264144070446, 0.0 ], [ 13370600.311898030340672, -148384.067633889615536, 0.0 ], [ 13370601.915316425263882, -148385.716358125209808, 0.0 ], [ 13370601.906071811914444, -148385.75626936648041, 0.0 ], [ 13370601.949508987367153, -148385.777501678094268, 0.0 ], [ 13370601.858540244400501, -148386.169268824160099, 0.0 ], [ 13370594.300122074782848, -148418.800669647753239, 0.0 ], [ 13370594.299186363816261, -148418.804378590546548, 0.0 ], [ 13370588.371809057891369, -148440.487663265317678, 0.0 ], [ 13370223.768405951559544, -148756.377057456411421, 0.0 ], [ 13370145.417804531753063, -148668.418500373139977, 0.0 ], [ 13370071.705391384661198, -148585.383239859715104, 0.0 ], [ 13369922.600933395326138, -148418.01568653434515, 0.0 ], [ 13369997.992851309478283, -148177.913042768836021, 0.0 ], [ 13370003.285183429718018, -148161.067754711024463, 0.0 ], [ 13370029.066083796322346, -148078.802281185984612, 0.0 ], [ 13370110.141175210475922, -148080.477910866029561, 0.0 ], [ 13370152.049987457692623, -148080.145467759110034, 0.0 ], [ 13370226.913959085941315, -148072.542733008041978, 0.0 ], [ 13370251.983596310019493, -148070.333260711282492, 0.0 ], [ 13370278.475316427648067, -148066.365948878228664, 0.0 ] ] ] ] } },
{ "type": "Feature", "properties": { "WADMPR": "SULAWESI TENGAH", "WADMKK": "SIGI", "WADMKC": "LINDU", "WADMKD": "OLU", "POKTAN": "KT SIPATUO", "LUAS_HA": 32.005184328799999, "PAKET": "Paket Sulawesi Tengah 3" }, "geometry": { "type": "MultiPolygon", "coordinates": [ [ [ [ 13370220.092427413910627, -147337.002552040852606, 0.0 ], [ 13370400.175252940505743, -147301.95920439157635, 0.0 ], [ 13370474.393101967871189, -147279.032183236442506, 0.0 ], [ 13370527.561321675777435, -147251.526211214251816, 0.0 ], [ 13370544.745999291539192, -147242.339857431128621, 0.0 ], [ 13370620.157272279262543, -147202.027513597160578, 0.0 ], [ 13370620.49243500828743, -147203.449278458021581, 0.0 ], [ 13370621.048125725239515, -147205.806638438254595, 0.0 ], [ 13370622.128150075674057, -147210.388149666599929, 0.0 ], [ 13370622.137452736496925, -147210.382680574432015, 0.0 ], [ 13370622.139728598296642, -147210.402060991153121, 0.0 ], [ 13370622.141509670764208, -147210.417245640419424, 0.0 ], [ 13370622.009134080260992, -147211.998274724930525, 0.0 ], [ 13370618.670437470078468, -147251.879754747264087, 0.0 ], [ 13370618.745182510465384, -147251.887633444741368, 0.0 ], [ 13370618.739199843257666, -147251.961141990497708, 0.0 ], [ 13370618.670450415462255, -147251.953869625926018, 0.0 ], [ 13370610.83264097198844, -147347.69928059540689, 0.0 ], [ 13370610.869911219924688, -147347.705217558890581, 0.0 ], [ 13370610.904283851385117, -147347.710651701316237, 0.0 ], [ 13370610.842331048101187, -147348.468408307991922, 0.0 ], [ 13370610.458367235958576, -147353.146282647736371, 0.0 ], [ 13370609.516138266772032, -147381.326596593484282, 0.0 ], [ 13370598.159632291644812, -147442.225812806747854, 0.0 ], [ 13370595.968091856688261, -147460.729253836907446, 0.0 ], [ 13370583.412780478596687, -147517.387525986880064, 0.0 ], [ 13370574.967101894319057, -147547.004172690212727, 0.0 ], [ 13370564.61266677826643, -147573.235394012182951, 0.0 ], [ 13370556.361489944159985, -147594.138363871723413, 0.0 ], [ 13370544.003619816154242, -147626.358188244514167, 0.0 ], [ 13370496.774352587759495, -147771.252824070863426, 0.0 ], [ 13370568.212356794625521, -147821.455555181019008, 0.0 ], [ 13370568.210071317851543, -147821.459721942432225, 0.0 ], [ 13370533.195189323276281, -147923.887752642855048, 0.0 ], [ 13370506.73952642083168, -148001.277745069935918, 0.0 ], [ 13370506.71736728399992, -148001.344132383354008, 0.0 ], [ 13370449.372283693403006, -147968.271366924978793, 0.0 ], [ 13370442.80556208640337, -147964.484181001782417, 0.0 ], [ 13370442.804759636521339, -147964.488650495186448, 0.0 ], [ 13370442.803384833037853, -147964.492937008850276, 0.0 ], [ 13370437.474931310862303, -147981.160349727608263, 0.0 ], [ 13370437.318460360169411, -147981.649791039526463, 0.0 ], [ 13370433.619801238179207, -147993.219200529158115, 0.0 ], [ 13370433.618656519800425, -147993.222781207412481, 0.0 ], [ 13370427.951715480536222, -148010.948870867490768, 0.0 ], [ 13370427.950434617698193, -148010.952225754037499, 0.0 ], [ 13370427.948537983000278, -148010.954378254711628, 0.0 ], [ 13370427.894530452787876, -148011.073277422226965, 0.0 ], [ 13370426.211796801537275, -148014.779136607423425, 0.0 ], [ 13370422.443222604691982, -148023.078611241653562, 0.0 ], [ 13370421.169261500239372, -148025.884236017242074, 0.0 ], [ 13370405.209791995584965, -148032.392146491445601, 0.0 ], [ 13370397.012016676366329, -148035.263404510915279, 0.0 ], [ 13370336.551060378551483, -148051.147992059588432, 0.0 ], [ 13370320.768572803586721, -148056.023121608421206, 0.0 ], [ 13370284.98237007111311, -148065.116701802238822, 0.0 ], [ 13370278.475316431373358, -148066.365948872640729, 0.0 ], [ 13370251.983596317470074, -148070.333260710351169, 0.0 ], [ 13370226.913959085941315, -148072.542733007110655, 0.0 ], [ 13370152.049987461417913, -148080.145467758178711, 0.0 ], [ 13370110.141175210475922, -148080.477910865098238, 0.0 ], [ 13370029.066083796322346, -148078.802281186915934, 0.0 ], [ 13370073.227866671979427, -147925.400344330817461, 0.0 ], [ 13370177.730454005300999, -147520.472362079657614, 0.0 ], [ 13370188.570396553725004, -147476.485483813099563, 0.0 ], [ 13370220.092427413910627, -147337.002552040852606, 0.0 ] ] ] ] } },
{ "type": "Feature", "properties": { "WADMPR": "SULAWESI TENGAH", "WADMKK": "SIGI", "WADMKC": "LINDU", "WADMKD": "OLU", "POKTAN": "KT BERINGIN JAYA", "LUAS_HA": 28.0031860464, "PAKET": "Paket Sulawesi Tengah 3" }, "geometry": { "type": "MultiPolygon", "coordinates": [ [ [ [ 13370556.361489936709404, -147594.138363871723413, 0.0 ], [ 13370574.967101894319057, -147547.004172689281404, 0.0 ], [ 13370583.412780478596687, -147517.387525985948741, 0.0 ], [ 13370595.968091852962971, -147460.729253835976124, 0.0 ], [ 13370598.159632287919521, -147442.225812805816531, 0.0 ], [ 13370609.516138263046741, -147381.326596579514444, 0.0 ], [ 13370610.458367235958576, -147353.146282647736371, 0.0 ], [ 13370610.842331044375896, -147348.468408308923244, 0.0 ], [ 13370610.904283851385117, -147347.710651700384915, 0.0 ], [ 13370610.869911223649979, -147347.705217557959259, 0.0 ], [ 13370610.832640968263149, -147347.699280596338212, 0.0 ], [ 13370618.670450411736965, -147251.95386962313205, 0.0 ], [ 13370618.739199839532375, -147251.961141990497708, 0.0 ], [ 13370618.745182506740093, -147251.887633445672691, 0.0 ], [ 13370618.670437470078468, -147251.879754747264087, 0.0 ], [ 13370622.009134076535702, -147211.998274724930525, 0.0 ], [ 13370622.141509674489498, -147210.417245640419424, 0.0 ], [ 13370622.139728598296642, -147210.402060991153121, 0.0 ], [ 13370622.137452736496925, -147210.382680573500693, 0.0 ], [ 13370622.128150075674057, -147210.388149665668607, 0.0 ], [ 13370621.048125721514225, -147205.80663844011724, 0.0 ], [ 13370620.49243500828743, -147203.449278458021581, 0.0 ], [ 13370620.157272279262543, -147202.027513595297933, 0.0 ], [ 13370619.752006776630878, -147200.308222120627761, 0.0 ], [ 13370611.641161717474461, -147165.900275624357164, 0.0 ], [ 13370605.757416419684887, -147072.579284386709332, 0.0 ], [ 13370608.336277164518833, -147073.284365625120699, 0.0 ], [ 13370610.126414842903614, -147073.773803569376469, 0.0 ], [ 13370688.973813086748123, -147095.331308535300195, 0.0 ], [ 13370692.58637996762991, -147094.221970653161407, 0.0 ], [ 13370784.995929598808289, -147117.255636064335704, 0.0 ], [ 13370785.442026294767857, -147080.033972241915762, 0.0 ], [ 13370785.689825817942619, -147059.351375724188983, 0.0 ], [ 13370785.727207638323307, -147059.3474240610376, 0.0 ], [ 13370869.450334556400776, -147050.537113974802196, 0.0 ], [ 13370973.011521257460117, -147039.680140317417681, 0.0 ], [ 13370969.467269100248814, -147150.094748656265438, 0.0 ], [ 13370969.239579491317272, -147153.445044556632638, 0.0 ], [ 13370961.009915173053741, -147274.563141123391688, 0.0 ], [ 13370961.00259318202734, -147274.67090904712677, 0.0 ], [ 13370959.689309813082218, -147293.998221229761839, 0.0 ], [ 13370959.763251945376396, -147294.009195389226079, 0.0 ], [ 13370943.922322399914265, -147358.718942842446268, 0.0 ], [ 13370943.914489775896072, -147358.750797136686742, 0.0 ], [ 13370927.392667435109615, -147426.242222907021642, 0.0 ], [ 13370923.970725066959858, -147440.220775002613664, 0.0 ], [ 13370923.965005055069923, -147440.238359837792814, 0.0 ], [ 13370924.045435979962349, -147440.257920144125819, 0.0 ], [ 13370924.043628066778183, -147440.265609199181199, 0.0 ], [ 13370913.188554652035236, -147485.343959481455386, 0.0 ], [ 13370897.919434912502766, -147548.971624702215195, 0.0 ], [ 13370893.23847807943821, -147568.19126970693469, 0.0 ], [ 13370885.901500143110752, -147598.659779795445502, 0.0 ], [ 13370885.828093998134136, -147598.617941505275667, 0.0 ], [ 13370885.807720042765141, -147598.606330876238644, 0.0 ], [ 13370837.437240056693554, -147744.039155323989689, 0.0 ], [ 13370837.419287465512753, -147744.093072270043194, 0.0 ], [ 13370802.682872861623764, -147910.387110628187656, 0.0 ], [ 13370797.241309396922588, -147907.097655211575329, 0.0 ], [ 13370651.900200992822647, -147819.237609324976802, 0.0 ], [ 13370651.897077620029449, -147819.264543293043971, 0.0 ], [ 13370651.852522522211075, -147819.237609324976802, 0.0 ], [ 13370645.310277909040451, -147875.653994834981859, 0.0 ], [ 13370645.383173123002052, -147875.70522182341665, 0.0 ], [ 13370645.387966878712177, -147875.708024248480797, 0.0 ], [ 13370632.432327292859554, -147950.404090380296111, 0.0 ], [ 13370632.432283587753773, -147950.441147680394351, 0.0 ], [ 13370622.112375266849995, -148038.763999625109136, 0.0 ], [ 13370620.993179902434349, -148048.342624282464385, 0.0 ], [ 13370618.922956757247448, -148066.060612037777901, 0.0 ], [ 13370600.73083883523941, -148055.568638415075839, 0.0 ], [ 13370506.715947009623051, -148001.347304409369826, 0.0 ], [ 13370506.71736728399992, -148001.344132383354008, 0.0 ], [ 13370506.73952642083168, -148001.277745069935918, 0.0 ], [ 13370514.768762268126011, -147977.790051547810435, 0.0 ], [ 13370568.210071317851543, -147821.459721943363547, 0.0 ], [ 13370568.212356798350811, -147821.455555182881653, 0.0 ], [ 13370496.774352587759495, -147771.252824072726071, 0.0 ], [ 13370544.003619812428951, -147626.358188244514167, 0.0 ], [ 13370556.361489936709404, -147594.138363871723413, 0.0 ] ] ] ] } },
{ "type": "Feature", "properties": { "WADMPR": "SULAWESI TENGAH", "WADMKK": "SIGI", "WADMKC": "LINDU", "WADMKD": "OLU", "POKTAN": "KT SIKAMPOTTA", "LUAS_HA": 32.500031887, "PAKET": "Paket Sulawesi Tengah 3" }, "geometry": { "type": "MultiPolygon", "coordinates": [ [ [ [ 13370331.322428703308105, -146290.791720373556018, 0.0 ], [ 13370337.434481471776962, -146186.744551720097661, 0.0 ], [ 13370610.875484529882669, -146304.396599289961159, 0.0 ], [ 13370611.1313591375947, -146375.0140564981848, 0.0 ], [ 13370611.094895225018263, -146375.002327385358512, 0.0 ], [ 13370611.355207234621048, -146385.388934163376689, 0.0 ], [ 13370610.241955500096083, -146522.071435735560954, 0.0 ], [ 13370605.757416419684887, -147072.579284386709332, 0.0 ], [ 13370611.641161724925041, -147165.900275622494519, 0.0 ], [ 13370619.752006780356169, -147200.308222119696438, 0.0 ], [ 13370620.157272279262543, -147202.027513597160578, 0.0 ], [ 13370601.81878449395299, -147211.830655697733164, 0.0 ], [ 13370544.745999298989773, -147242.339857426472008, 0.0 ], [ 13370527.561321675777435, -147251.526211214251816, 0.0 ], [ 13370474.393101967871189, -147279.032183232717216, 0.0 ], [ 13370400.175252955406904, -147301.959204386919737, 0.0 ], [ 13370220.092427413910627, -147337.002552040852606, 0.0 ], [ 13370239.471214018762112, -147251.879826887510717, 0.0 ], [ 13370263.547957893460989, -147128.59048948250711, 0.0 ], [ 13370279.409491240978241, -147029.122765044681728, 0.0 ], [ 13370295.231338411569595, -146909.693434732966125, 0.0 ], [ 13370303.293132912367582, -146771.818279101513326, 0.0 ], [ 13370303.332508381456137, -146771.818524941802025, 0.0 ], [ 13370307.435958284884691, -146701.935735546983778, 0.0 ], [ 13370315.086520507931709, -146571.619187426753342, 0.0 ], [ 13370315.088162757456303, -146571.582231788896024, 0.0 ], [ 13370318.782046675682068, -146506.145894308574498, 0.0 ], [ 13370326.76917552947998, -146369.678382262587547, 0.0 ], [ 13370331.426130384206772, -146290.821107717230916, 0.0 ], [ 13370331.322428703308105, -146290.791720373556018, 0.0 ] ] ] ] } },
{ "type": "Feature", "properties": { "WADMPR": "SULAWESI TENGAH", "WADMKK": "SIGI", "WADMKC": "LINDU", "WADMKD": "OLU", "POKTAN": "KT MAJU BERSAMA", "LUAS_HA": 31.5001334757, "PAKET": "Paket Sulawesi Tengah 3" }, "geometry": { "type": "MultiPolygon", "coordinates": [ [ [ [ 13371028.654545925557613, -146475.52822978515178, 0.0 ], [ 13371082.569496601819992, -146680.559833843261003, 0.0 ], [ 13371148.765731655061245, -146694.969756291247904, 0.0 ], [ 13371137.34502912312746, -146812.243327114731073, 0.0 ], [ 13371136.504379373043776, -146826.92077102791518, 0.0 ], [ 13371136.075992971658707, -146834.401221220381558, 0.0 ], [ 13371136.091473843902349, -146834.409529814496636, 0.0 ], [ 13371133.513873778283596, -146881.152790352702141, 0.0 ], [ 13371130.368083201348782, -146936.884500192478299, 0.0 ], [ 13371130.365634318441153, -146936.927548112347722, 0.0 ], [ 13371127.556222807615995, -147065.273675911128521, 0.0 ], [ 13371023.352264668792486, -147049.515527456998825, 0.0 ], [ 13371017.102328222244978, -147048.492430035956204, 0.0 ], [ 13370974.412016440182924, -147039.913128199987113, 0.0 ], [ 13370973.049945887178183, -147039.639132264070213, 0.0 ], [ 13370973.011521257460117, -147039.680140317417681, 0.0 ], [ 13370869.450334556400776, -147050.537113974802196, 0.0 ], [ 13370785.727207638323307, -147059.34742406476289, 0.0 ], [ 13370785.689825817942619, -147059.351375722326338, 0.0 ], [ 13370785.442026294767857, -147080.033972245641053, 0.0 ], [ 13370784.995929598808289, -147117.255636066198349, 0.0 ], [ 13370692.586379963904619, -147094.221970651298761, 0.0 ], [ 13370688.973813086748123, -147095.331308531574905, 0.0 ], [ 13370610.126414846628904, -147073.773803571239114, 0.0 ], [ 13370608.336277171969414, -147073.284365626983345, 0.0 ], [ 13370605.757416419684887, -147072.579284386709332, 0.0 ], [ 13370610.241955500096083, -146522.071435735560954, 0.0 ], [ 13370611.355207234621048, -146385.388934163376689, 0.0 ], [ 13370772.253734428435564, -146455.716294383630157, 0.0 ], [ 13370772.332654550671577, -146455.743255641311407, 0.0 ], [ 13370800.487114809453487, -146388.924995658919215, 0.0 ], [ 13371028.654545925557613, -146475.52822978515178, 0.0 ] ] ] ] } },
{ "type": "Feature", "properties": { "WADMPR": "SULAWESI TENGAH", "WADMKK": "SIGI", "WADMKC": "LINDU", "WADMKD": "OLU", "POKTAN": "KT LESTARI JAYA", "LUAS_HA": 31.500813075100002, "PAKET": "Paket Sulawesi Tengah 3" }, "geometry": { "type": "MultiPolygon", "coordinates": [ [ [ [ 13371381.062680009752512, -146977.019183212891221, 0.0 ], [ 13371386.063988510519266, -146956.121082115918398, 0.0 ], [ 13371453.790537808090448, -146955.18155416380614, 0.0 ], [ 13371442.495888344943523, -147022.816933217458427, 0.0 ], [ 13371441.712196595966816, -147055.868498747237027, 0.0 ], [ 13371439.965659089386463, -147123.369111843407154, 0.0 ], [ 13371438.20434857159853, -147191.334958046674728, 0.0 ], [ 13371438.203944500535727, -147191.338653360493481, 0.0 ], [ 13371438.203905452042818, -147191.372015230357647, 0.0 ], [ 13371438.269468382000923, -147191.369794500991702, 0.0 ], [ 13371458.810440070927143, -147190.688913691788912, 0.0 ], [ 13371495.972007092088461, -147189.459474438801408, 0.0 ], [ 13371495.981503322720528, -147189.459131493233144, 0.0 ], [ 13371559.100256960839033, -147187.370903563685715, 0.0 ], [ 13371552.061446588486433, -147328.34742789529264, 0.0 ], [ 13371549.313759744167328, -147328.468597549945116, 0.0 ], [ 13371482.953902311623096, -147331.395829048939049, 0.0 ], [ 13371444.586059216409922, -147333.211407559923828, 0.0 ], [ 13371419.990355204790831, -147334.211847722530365, 0.0 ], [ 13371400.28389734774828, -147338.028296751901507, 0.0 ], [ 13371324.620188347995281, -147352.632461976259947, 0.0 ], [ 13371321.339462775737047, -147354.015188896097243, 0.0 ], [ 13371319.103081561625004, -147358.805029922164977, 0.0 ], [ 13371316.713609151542187, -147370.181923924013972, 0.0 ], [ 13371313.881711777299643, -147441.740046225488186, 0.0 ], [ 13371315.808589048683643, -147470.974505712278187, 0.0 ], [ 13371315.503146667033434, -147479.67442259658128, 0.0 ], [ 13371312.787701558321714, -147489.406196198426187, 0.0 ], [ 13371310.10656001418829, -147497.196672240272164, 0.0 ], [ 13371302.15142547339201, -147515.16627702396363, 0.0 ], [ 13371299.092939309775829, -147521.171072096563876, 0.0 ], [ 13371296.754163838922977, -147525.284009741619229, 0.0 ], [ 13371273.90052780136466, -147557.622630443423986, 0.0 ], [ 13371270.062653627246618, -147567.092460820451379, 0.0 ], [ 13371269.947767592966557, -147575.086000006645918, 0.0 ], [ 13371286.897357575595379, -147628.376340480521321, 0.0 ], [ 13371281.579452984035015, -147650.856662476435304, 0.0 ], [ 13371279.955265138298273, -147657.722395242191851, 0.0 ], [ 13371279.929593253880739, -147657.711677345447242, 0.0 ], [ 13371162.284171715378761, -147608.460567244328558, 0.0 ], [ 13371162.265592150390148, -147608.452754369936883, 0.0 ], [ 13371162.239321015775204, -147608.441736130043864, 0.0 ], [ 13371162.237067051231861, -147608.44691807962954, 0.0 ], [ 13371073.981765549629927, -147582.87384095042944, 0.0 ], [ 13370897.919434893876314, -147548.971624708734453, 0.0 ], [ 13370913.188554655760527, -147485.343959486111999, 0.0 ], [ 13370924.043628055602312, -147440.265609198249876, 0.0 ], [ 13370924.045435979962349, -147440.257920146919787, 0.0 ], [ 13370923.965005055069923, -147440.238359837792814, 0.0 ], [ 13370923.970725070685148, -147440.220775005407631, 0.0 ], [ 13370927.392667416483164, -147426.242222914472222, 0.0 ], [ 13370943.914489764720201, -147358.750797132961452, 0.0 ], [ 13370943.922322411090136, -147358.718942842446268, 0.0 ], [ 13370959.763251945376396, -147294.009195385500789, 0.0 ], [ 13370959.689309809356928, -147293.998221228830516, 0.0 ], [ 13370961.002593170851469, -147274.670909046195447, 0.0 ], [ 13370961.009915173053741, -147274.563141119666398, 0.0 ], [ 13370969.239579483866692, -147153.445044560357928, 0.0 ], [ 13370969.467269092798233, -147150.094748655334115, 0.0 ], [ 13370973.011521257460117, -147039.680140317417681, 0.0 ], [ 13370973.050102490931749, -147039.676090135239065, 0.0 ], [ 13370973.049945887178183, -147039.639132264070213, 0.0 ], [ 13370974.412016432732344, -147039.913128204643726, 0.0 ], [ 13371017.102328211069107, -147048.492430035956204, 0.0 ], [ 13371023.352264661341906, -147049.515527460724115, 0.0 ], [ 13371127.556222807615995, -147065.273675911128521, 0.0 ], [ 13371130.365634318441153, -146936.927548112347722, 0.0 ], [ 13371130.368083193898201, -146936.884500196203589, 0.0 ], [ 13371133.513873778283596, -146881.152790352702141, 0.0 ], [ 13371136.091473832726479, -146834.409529814496636, 0.0 ], [ 13371136.075992971658707, -146834.401221220381558, 0.0 ], [ 13371136.504379365593195, -146826.920771032571793, 0.0 ], [ 13371137.34502912312746, -146812.243327119387686, 0.0 ], [ 13371148.765731636434793, -146694.969756291247904, 0.0 ], [ 13371286.337485637515783, -146716.312391912564635, 0.0 ], [ 13371240.446143954992294, -146902.798962730914354, 0.0 ], [ 13371323.286961108446121, -146916.363095544278622, 0.0 ], [ 13371315.897192250937223, -146953.86094331368804, 0.0 ], [ 13371335.864739440381527, -146958.937189595773816, 0.0 ], [ 13371335.976729184389114, -146970.942513265646994, 0.0 ], [ 13371357.959872022271156, -146973.869571212679148, 0.0 ], [ 13371381.062680009752512, -146977.019183212891221, 0.0 ] ] ] ] } },
{ "type": "Feature", "properties": { "WADMPR": "SULAWESI TENGAH", "WADMKK": "SIGI", "WADMKC": "LINDU", "WADMKD": "OLU", "POKTAN": "KT JAMBU-JAMBU", "LUAS_HA": 34.500758167500003, "PAKET": "Paket Sulawesi Tengah 3" }, "geometry": { "type": "MultiPolygon", "coordinates": [ [ [ [ 13372242.173589289188385, -147349.551915528252721, 0.0 ], [ 13372277.070404920727015, -147352.219670337624848, 0.0 ], [ 13372276.025295034050941, -147380.639371019788086, 0.0 ], [ 13372228.550773207098246, -147385.345127014443278, 0.0 ], [ 13372225.788831323385239, -147370.635011578910053, 0.0 ], [ 13372203.13397654145956, -147370.042200526222587, 0.0 ], [ 13372176.970624044537544, -147284.968290228396654, 0.0 ], [ 13372176.971537388861179, -147284.938424615189433, 0.0 ], [ 13372011.556102346628904, -147265.885858308523893, 0.0 ], [ 13372011.576036043465137, -147265.84682600852102, 0.0 ], [ 13371981.959143236279488, -147262.402921513654292, 0.0 ], [ 13371925.863059137016535, -147246.655259727500379, 0.0 ], [ 13371892.011405777186155, -147255.28865263517946, 0.0 ], [ 13371888.764292947947979, -147317.982576124370098, 0.0 ], [ 13371807.621184654533863, -147324.130835769698024, 0.0 ], [ 13371807.624636143445969, -147324.17049462441355, 0.0 ], [ 13371694.088759656995535, -147332.989058867096901, 0.0 ], [ 13371650.159852117300034, -147336.472056706435978, 0.0 ], [ 13371580.403603620827198, -147327.097571386955678, 0.0 ], [ 13371552.061446588486433, -147328.34742789529264, 0.0 ], [ 13371559.100256960839033, -147187.370903563685715, 0.0 ], [ 13371495.981503322720528, -147189.459131493233144, 0.0 ], [ 13371495.972007092088461, -147189.459474438801408, 0.0 ], [ 13371458.810440070927143, -147190.688913691788912, 0.0 ], [ 13371438.269468382000923, -147191.369794500991702, 0.0 ], [ 13371438.203905452042818, -147191.372015230357647, 0.0 ], [ 13371438.203944500535727, -147191.338653360493481, 0.0 ], [ 13371438.20434857159853, -147191.334958046674728, 0.0 ], [ 13371439.965659089386463, -147123.369111843407154, 0.0 ], [ 13371441.712196595966816, -147055.868498747237027, 0.0 ], [ 13371442.495888344943523, -147022.816933217458427, 0.0 ], [ 13371454.215260393917561, -146952.63820172380656, 0.0 ], [ 13371454.221696317195892, -146952.604148086160421, 0.0 ], [ 13371455.794518928974867, -146944.274333789013326, 0.0 ], [ 13371461.96216406673193, -146911.609913736581802, 0.0 ], [ 13371465.582700002938509, -146900.64710000064224, 0.0 ], [ 13371470.865600012242794, -146884.650599993765354, 0.0 ], [ 13371477.449100002646446, -146864.715800000354648, 0.0 ], [ 13371482.161119729280472, -146850.447826435789466, 0.0 ], [ 13371484.879028983414173, -146842.218010121025145, 0.0 ], [ 13371587.815169658511877, -146855.180378291755915, 0.0 ], [ 13371588.689208686351776, -146861.45011695753783, 0.0 ], [ 13371576.333666112273932, -146915.923198864795268, 0.0 ], [ 13371567.863133475184441, -146953.268059751950204, 0.0 ], [ 13371566.295583121478558, -146964.902766134589911, 0.0 ], [ 13371559.241582117974758, -146987.801620103418827, 0.0 ], [ 13371557.00220450386405, -147027.856134894303977, 0.0 ], [ 13371556.106506507843733, -147033.191903930157423, 0.0 ], [ 13371556.923382446169853, -147040.638370129279792, 0.0 ], [ 13371685.504484713077545, -147030.153573141433299, 0.0 ], [ 13371690.506862189620733, -147030.92613722011447, 0.0 ], [ 13371702.67292058840394, -146970.683065953664482, 0.0 ], [ 13371786.761100545525551, -146980.428055277094245, 0.0 ], [ 13371786.761457044631243, -146980.465113510377705, 0.0 ], [ 13371943.964610479772091, -146996.694453489035368, 0.0 ], [ 13371952.698223046958447, -146997.065024806186557, 0.0 ], [ 13372010.959062617272139, -146999.139953563921154, 0.0 ], [ 13372011.220297839492559, -146982.614239792339504, 0.0 ], [ 13372039.17503971233964, -146983.68883269187063, 0.0 ], [ 13372043.98958457633853, -146981.428517596796155, 0.0 ], [ 13372047.684697613120079, -146965.977382971905172, 0.0 ], [ 13372083.925026718527079, -146955.861742671579123, 0.0 ], [ 13372083.477607507258654, -147014.392038299702108, 0.0 ], [ 13372100.060622707009315, -147016.663729359395802, 0.0 ], [ 13372102.493489991873503, -147017.612440892495215, 0.0 ], [ 13372108.862105593085289, -147021.465800021775067, 0.0 ], [ 13372139.487376555800438, -147046.568355810828507, 0.0 ], [ 13372211.419607315212488, -147056.387109722010791, 0.0 ], [ 13372223.026942010968924, -146983.207003877498209, 0.0 ], [ 13372287.707363542169333, -146986.393595782108605, 0.0 ], [ 13372287.684746522456408, -146986.505542442202568, 0.0 ], [ 13372411.469646919518709, -146992.43339706864208, 0.0 ], [ 13372444.350941739976406, -146967.681756905280054, 0.0 ], [ 13372498.124096278101206, -146990.053802772425115, 0.0 ], [ 13372501.580616232007742, -146991.222106614150107, 0.0 ], [ 13372507.688170753419399, -146992.497419630177319, 0.0 ], [ 13372515.065821658819914, -146993.27809174824506, 0.0 ], [ 13372526.786892995238304, -146993.93389871250838, 0.0 ], [ 13372530.134515229612589, -146993.990445456467569, 0.0 ], [ 13372534.036662012338638, -146993.872013056650758, 0.0 ], [ 13372538.318799804896116, -146994.183363625779748, 0.0 ], [ 13372549.078664116561413, -146995.06414404977113, 0.0 ], [ 13372579.683392789214849, -146997.472565888427198, 0.0 ], [ 13372590.805595919489861, -146999.58452973421663, 0.0 ], [ 13372608.795145787298679, -146917.882140083238482, 0.0 ], [ 13372681.201288834214211, -146936.149453207850456, 0.0 ], [ 13372628.501545049250126, -147090.327829637564719, 0.0 ], [ 13372676.349298398941755, -147111.892879552207887, 0.0 ], [ 13372666.794645141810179, -147119.56286473851651, 0.0 ], [ 13372612.900569759309292, -147163.100354704074562, 0.0 ], [ 13372604.335618823766708, -147179.41144604422152, 0.0 ], [ 13372601.032071195542812, -147185.702719522640109, 0.0 ], [ 13372593.903343796730042, -147213.789094518870115, 0.0 ], [ 13372593.666154485195875, -147219.288161119446158, 0.0 ], [ 13372593.322530191391706, -147227.25483725219965, 0.0 ], [ 13372593.300872594118118, -147227.756952566094697, 0.0 ], [ 13372593.293245311826468, -147227.933785313740373, 0.0 ], [ 13372593.268853463232517, -147228.499291927553713, 0.0 ], [ 13372593.049095712602139, -147230.579036052338779, 0.0 ], [ 13372593.044211693108082, -147230.671600525267422, 0.0 ], [ 13372592.564993169158697, -147239.75395021867007, 0.0 ], [ 13372591.514623701572418, -147259.660945168696344, 0.0 ], [ 13372591.828077014535666, -147273.067643247544765, 0.0 ], [ 13372591.831873223185539, -147273.230011075735092, 0.0 ], [ 13372591.957249391824007, -147278.592486778274179, 0.0 ], [ 13372592.303140353411436, -147293.386675580404699, 0.0 ], [ 13372592.373139943927526, -147296.380645982921124, 0.0 ], [ 13372592.218692984431982, -147296.344114928506315, 0.0 ], [ 13372588.730700001120567, -147294.61219999846071, 0.0 ], [ 13372585.822405584156513, -147294.831212766468525, 0.0 ], [ 13372581.383686605840921, -147293.781330692581832, 0.0 ], [ 13372557.438996274024248, -147288.11773691046983, 0.0 ], [ 13372554.714445412158966, -147289.636935305781662, 0.0 ], [ 13372458.123097360134125, -147294.972629508934915, 0.0 ], [ 13372458.763181518763304, -147278.437201104126871, 0.0 ], [ 13372461.309455763548613, -147212.658180278725922, 0.0 ], [ 13372461.556841008365154, -147206.267318685539067, 0.0 ], [ 13372461.519393101334572, -147206.156200962141156, 0.0 ], [ 13372461.572531551122665, -147204.913375255651772, 0.0 ], [ 13372462.452513370662928, -147184.331931065768003, 0.0 ], [ 13372462.463357780128717, -147184.26411612238735, 0.0 ], [ 13372415.391815394163132, -147169.951835637912154, 0.0 ], [ 13372355.933337327092886, -147151.87325925193727, 0.0 ], [ 13372314.542439099401236, -147146.093019871972501, 0.0 ], [ 13372312.762803219258785, -147169.832212294451892, 0.0 ], [ 13372311.70086245983839, -147183.997784171253443, 0.0 ], [ 13372306.501591373234987, -147253.352196938358247, 0.0 ], [ 13372252.951080620288849, -147248.795281317085028, 0.0 ], [ 13372242.173589289188385, -147349.551915528252721, 0.0 ] ] ] ] } }
]
}
