{
"type": "FeatureCollection",
"name": "SULTENG_PAKET_4",
"crs": { "type": "name", "properties": { "name": "urn:ogc:def:crs:ESRI::54034" } },
"features": [
{ "type": "Feature", "properties": { "WADMPR": "SULAWESI TENGAH", "WADMKK": "TOLI - TOLI", "WADMKC": "TOLI - TOLI UTARA", "WADMKD": "LAULALANG", "POKTAN": "KT ANUTE KASEMON", "LUAS_HA": 25.00893587, "PAKET": "Paket Sulawesi Tengah 4" }, "geometry": { "type": "MultiPolygon", "coordinates": [ [ [ [ 13463845.395945528522134, 148515.099511219945271, 0.0 ], [ 13463849.79582935757935, 148513.464838517509634, 0.0 ], [ 13463855.57371642626822, 148514.05448302460718, 0.0 ], [ 13463861.923729112371802, 148517.469194929668447, 0.0 ], [ 13463867.21540636382997, 148519.833226215327159, 0.0 ], [ 13463873.0362513307482, 148522.459927592455642, 0.0 ], [ 13463878.063344737514853, 148522.722597710584523, 0.0 ], [ 13463881.767518812790513, 148523.510608109470922, 0.0 ], [ 13463886.265444461256266, 148523.510608109470922, 0.0 ], [ 13463892.666325813159347, 148521.670890027773567, 0.0 ], [ 13463895.862546496093273, 148518.472082347027026, 0.0 ], [ 13463897.470571057870984, 148515.013229061703896, 0.0 ], [ 13463903.820583738386631, 148503.981082369282376, 0.0 ], [ 13463912.551851190626621, 148496.100977036636323, 0.0 ], [ 13463922.076870268210769, 148488.220871254598023, 0.0 ], [ 13463928.426882954314351, 148484.280818201194052, 0.0 ], [ 13463941.126908343285322, 148480.340765027649468, 0.0 ], [ 13463949.858175836503506, 148476.400711751775816, 0.0 ], [ 13463952.203767577186227, 148470.81200697159511, 0.0 ], [ 13463953.063536053523421, 148462.057700251665665, 0.0 ], [ 13463951.814869068562984, 148454.064370158594102, 0.0 ], [ 13463946.188056331127882, 148443.674141983734444, 0.0 ], [ 13463942.432188741862774, 148440.655667580256704, 0.0 ], [ 13463930.922790730372071, 148435.533596806228161, 0.0 ], [ 13463919.016516922041774, 148429.229509414930362, 0.0 ], [ 13463906.713367320597172, 148419.773377807432553, 0.0 ], [ 13463892.763073394075036, 148411.311114088777686, 0.0 ], [ 13463886.075826033949852, 148408.741223444492789, 0.0 ], [ 13463874.16955223120749, 148405.195173632848309, 0.0 ], [ 13463862.263278422877192, 148404.013157015608158, 0.0 ], [ 13463849.166377235203981, 148402.831140385038452, 0.0 ], [ 13463832.434310458600521, 148399.886245484551182, 0.0 ], [ 13463819.246130792424083, 148393.363345723773818, 0.0 ], [ 13463800.74753038212657, 148379.978816819872009, 0.0 ], [ 13463796.778772430494428, 148372.886715617089067, 0.0 ], [ 13463794.79439346678555, 148363.036574463243596, 0.0 ], [ 13463793.206890294328332, 148353.580438281904208, 0.0 ], [ 13463791.619387123733759, 148344.518307166552404, 0.0 ], [ 13463788.444380780681968, 148339.396232797473203, 0.0 ], [ 13463785.666250208392739, 148335.456175450526644, 0.0 ], [ 13463780.109989108517766, 148331.51611799679813, 0.0 ], [ 13463774.950603792443871, 148327.182054676231928, 0.0 ], [ 13463771.775597440078855, 148321.665973861934617, 0.0 ], [ 13463767.806839494034648, 148314.573869655898307, 0.0 ], [ 13463767.806839494034648, 148308.269776707515121, 0.0 ], [ 13463768.203715290874243, 148302.753695145715028, 0.0 ], [ 13463768.571244910359383, 148296.915744813450146, 0.0 ], [ 13463790.10469501465559, 148284.111967425182229, 0.0 ], [ 13463807.97487866692245, 148277.371416330133798, 0.0 ], [ 13463833.701450427994132, 148267.66747117479099, 0.0 ], [ 13463865.034844871610403, 148307.594716286985204, 0.0 ], [ 13463869.016832012683153, 148320.544373624812579, 0.0 ], [ 13463869.175582341849804, 148328.266886754136067, 0.0 ], [ 13463869.969333918765187, 148333.782967297040159, 0.0 ], [ 13463872.826839622110128, 148339.29904759969213, 0.0 ], [ 13463877.589349145069718, 148344.027116257639136, 0.0 ], [ 13463885.526865029707551, 148350.331207550916588, 0.0 ], [ 13463891.400626773014665, 148355.216878107108641, 0.0 ], [ 13463899.496892968192697, 148360.732957555504981, 0.0 ], [ 13463904.735653446987271, 148363.727400598669192, 0.0 ], [ 13463915.286666179075837, 148368.451289182761684, 0.0 ], [ 13463925.799876192584634, 148374.821469221787993, 0.0 ], [ 13463940.803725585341454, 148384.467856888863025, 0.0 ], [ 13463944.423232821747661, 148386.264522400684655, 0.0 ], [ 13463947.065394120290875, 148387.475725761672948, 0.0 ], [ 13463969.325441813096404, 148401.559260370937409, 0.0 ], [ 13463982.997701136395335, 148412.43795486385352, 0.0 ], [ 13463986.272286942228675, 148416.591814812301891, 0.0 ], [ 13464045.871520780026913, 148412.473881422687555, 0.0 ], [ 13464084.633100913837552, 148410.513053405011306, 0.0 ], [ 13464092.400126669555902, 148487.14180634720833, 0.0 ], [ 13464055.479698281735182, 148491.350297966215294, 0.0 ], [ 13464050.0779161863029, 148431.027144567982759, 0.0 ], [ 13463996.478024104610085, 148434.992341230739839, 0.0 ], [ 13463996.938934214413166, 148443.425863127486082, 0.0 ], [ 13463995.793148089200258, 148455.198704048991203, 0.0 ], [ 13463991.892534857615829, 148465.68059022212401, 0.0 ], [ 13463984.480426086112857, 148479.6273524746357, 0.0 ], [ 13463981.386199347674847, 148492.39562490733806, 0.0 ], [ 13463980.64476359449327, 148497.662991945457179, 0.0 ], [ 13463980.64476359449327, 148507.644458503491478, 0.0 ], [ 13463981.542795212939382, 148518.496494088147301, 0.0 ], [ 13463982.115032076835632, 148521.759935458743712, 0.0 ], [ 13463991.803477764129639, 148548.587945144972764, 0.0 ], [ 13464019.02334906719625, 148547.538508806552272, 0.0 ], [ 13464030.545574676245451, 148548.060349368082825, 0.0 ], [ 13464038.586289525032043, 148549.411243299749913, 0.0 ], [ 13464054.315399993211031, 148554.174638408818282, 0.0 ], [ 13464082.754180498421192, 148567.631524927885039, 0.0 ], [ 13464110.450338065624237, 148581.430983146245126, 0.0 ], [ 13464128.192379886284471, 148591.559122512524482, 0.0 ], [ 13464139.542229922488332, 148599.781535298272502, 0.0 ], [ 13464142.510579099878669, 148602.291370633553015, 0.0 ], [ 13464146.26756682433188, 148606.25937321523088, 0.0 ], [ 13464149.147217644378543, 148610.098793488054071, 0.0 ], [ 13464151.656897976994514, 148614.799354082526406, 0.0 ], [ 13464152.699104957282543, 148617.228574633103563, 0.0 ], [ 13464154.857893479987979, 148624.564571415947285, 0.0 ], [ 13464156.176202330738306, 148630.672321886231657, 0.0 ], [ 13464162.129339249804616, 148655.297625301784137, 0.0 ], [ 13464147.52031016536057, 148658.352515224774834, 0.0 ], [ 13464154.345676047727466, 148696.15816367129446, 0.0 ], [ 13464187.190763188526034, 148692.023077273159288, 0.0 ], [ 13464229.3128043692559, 148686.720053265977185, 0.0 ], [ 13464232.276143608614802, 148700.168747352290666, 0.0 ], [ 13464275.879564153030515, 148695.335623070335714, 0.0 ], [ 13464296.411271881312132, 148693.024128777731676, 0.0 ], [ 13464307.417960556223989, 148679.785569858679082, 0.0 ], [ 13464307.071186527609825, 148665.159633597126231, 0.0 ], [ 13464284.681277057155967, 148665.845681139384396, 0.0 ], [ 13464257.693723075091839, 148664.269661978934892, 0.0 ], [ 13464251.161966254934669, 148663.80231019097846, 0.0 ], [ 13464246.709574211388826, 148663.483738409035141, 0.0 ], [ 13464236.160319684073329, 148661.061903515219456, 0.0 ], [ 13464227.106660667806864, 148656.209254544985015, 0.0 ], [ 13464223.670112518593669, 148653.163104180654045, 0.0 ], [ 13464211.392004411667585, 148666.396072667237604, 0.0 ], [ 13464184.139409299939871, 148673.200437007995788, 0.0 ], [ 13464181.228986818343401, 148651.924177901237272, 0.0 ], [ 13464174.576576823368669, 148629.102540739579126, 0.0 ], [ 13464218.100622205063701, 148621.616447529435391, 0.0 ], [ 13464216.116243241354823, 148606.381589918746613, 0.0 ], [ 13464215.587075503543019, 148596.925470546731958, 0.0 ], [ 13464216.116243241354823, 148585.105320418486372, 0.0 ], [ 13464192.965155271813273, 148584.842650393780787, 0.0 ], [ 13464191.642235960811377, 148606.77559487792314, 0.0 ], [ 13464165.76794308796525, 148611.3732910437393, 0.0 ], [ 13464164.30459089204669, 148611.667428130807821, 0.0 ], [ 13464158.35494021140039, 148587.619072422327008, 0.0 ], [ 13464155.973685448989272, 148580.264311966544483, 0.0 ], [ 13464110.585095519199967, 148550.533564330864465, 0.0 ], [ 13464110.055927800014615, 148543.966812160564587, 0.0 ], [ 13464109.095031902194023, 148532.280977915303083, 0.0 ], [ 13464105.58721661567688, 148504.545278884063009, 0.0 ], [ 13464119.874745193868876, 148500.447624185995664, 0.0 ], [ 13464114.385183112695813, 148465.600075430178549, 0.0 ], [ 13464130.650584427639842, 148460.954829076654278, 0.0 ], [ 13464131.285585707053542, 148450.237882354354952, 0.0 ], [ 13464128.90433095395565, 148435.73848251477466, 0.0 ], [ 13464126.205575548112392, 148428.331179833592614, 0.0 ], [ 13464115.431558545678854, 148409.823781570710707, 0.0 ], [ 13464116.896509138867259, 148408.440321924601449, 0.0 ], [ 13464129.638500664383173, 148397.820703110221075, 0.0 ], [ 13464109.478421540930867, 148368.589317326259334, 0.0 ], [ 13464127.013107556849718, 148356.906177465803921, 0.0 ], [ 13464117.19704625941813, 148346.793364685523557, 0.0 ], [ 13464106.084524024277925, 148335.498533966543619, 0.0 ], [ 13464099.734511328861117, 148326.699072150659049, 0.0 ], [ 13464094.310542145743966, 148314.090887103637215, 0.0 ], [ 13464080.684473222121596, 148294.521930916409474, 0.0 ], [ 13464066.52923659235239, 148276.528995575907174, 0.0 ], [ 13464053.808700019493699, 148262.088700010936009, 0.0 ], [ 13464035.290000023320317, 148276.585799990774831, 0.0 ], [ 13464002.179500015452504, 148302.505900008924073, 0.0 ], [ 13464001.129600020125508, 148318.884999996895203, 0.0 ], [ 13463975.003100026398897, 148331.206800028216094, 0.0 ], [ 13463964.67140000872314, 148318.152500024763867, 0.0 ], [ 13463963.361400024965405, 148316.497299988113809, 0.0 ], [ 13463959.128200002014637, 148307.041200010455213, 0.0 ], [ 13463954.894800005480647, 148298.635700004786486, 0.0 ], [ 13463956.601700009778142, 148283.51070001887274, 0.0 ], [ 13463957.997900009155273, 148279.212500006426126, 0.0 ], [ 13463961.244800010696054, 148269.216600016399752, 0.0 ], [ 13463961.244800010696054, 148252.405800008360529, 0.0 ], [ 13463958.069900009781122, 148235.59470001765294, 0.0 ], [ 13463955.007600016891956, 148221.981600001803599, 0.0 ], [ 13463952.947700016200542, 148212.824800005037105, 0.0 ], [ 13463951.215199997648597, 148213.681800006947014, 0.0 ], [ 13463864.10120002925396, 148256.772999995067948, 0.0 ], [ 13463846.643100013956428, 148251.20500003019697, 0.0 ], [ 13463845.476300001144409, 148247.646500005561393, 0.0 ], [ 13463834.498900001868606, 148214.167800009454368, 0.0 ], [ 13463834.093989849090576, 148212.932969294604845, 0.0 ], [ 13463826.219510311260819, 148215.652114071737742, 0.0 ], [ 13463822.832836866378784, 148216.49266036474728, 0.0 ], [ 13463821.856986664235592, 148216.140371621499071, 0.0 ], [ 13463821.091651001945138, 148215.244755485589849, 0.0 ], [ 13463819.04921555519104, 148211.055148652900243, 0.0 ], [ 13463818.176160885021091, 148208.297333638765849, 0.0 ], [ 13463813.942819094285369, 148198.000640366051812, 0.0 ], [ 13463805.427011039108038, 148167.759363922174089, 0.0 ], [ 13463802.889600003138185, 148167.960100007650908, 0.0 ], [ 13463799.086200017482042, 148168.261000005877577, 0.0 ], [ 13463798.739300003275275, 148163.881300014443696, 0.0 ], [ 13463797.515300013124943, 148148.426300007122336, 0.0 ], [ 13463775.289600010961294, 148148.407600012025796, 0.0 ], [ 13463767.375100018456578, 148120.634099996299483, 0.0 ], [ 13463779.297400005161762, 148102.000400019052904, 0.0 ], [ 13463775.747000014409423, 148076.21400001240545, 0.0 ], [ 13463776.688900006935, 148069.499300017399946, 0.0 ], [ 13463779.510500023141503, 148049.384000019490486, 0.0 ], [ 13463782.534599998965859, 148027.825800007965881, 0.0 ], [ 13463781.194200010970235, 148025.268900001974544, 0.0 ], [ 13463765.8921, 147996.078200002375524, 0.0 ], [ 13463755.173300009220839, 147999.639199996803654, 0.0 ], [ 13463726.015818413347006, 148037.725415059685474, 0.0 ], [ 13463695.853258075192571, 148062.153821761283325, 0.0 ], [ 13463683.153232673183084, 148075.550042950635543, 0.0 ], [ 13463669.659455679357052, 148088.15824991025147, 0.0 ], [ 13463665.690697755664587, 148094.462352976290276, 0.0 ], [ 13463660.134436646476388, 148105.494532655575313, 0.0 ], [ 13463657.75318188406527, 148114.950685922056437, 0.0 ], [ 13463656.364654771983624, 148122.762117749574827, 0.0 ], [ 13463655.498031828552485, 148129.473638590337941, 0.0 ], [ 13463654.510162595659494, 148137.124145178066101, 0.0 ], [ 13463656.658995181322098, 148151.485324581444729, 0.0 ], [ 13463659.478384906426072, 148159.595738721371163, 0.0 ], [ 13463661.923325732350349, 148163.394702369114384, 0.0 ], [ 13463682.148284481838346, 148181.829907270264812, 0.0 ], [ 13463688.960898965597153, 148186.714553058787715, 0.0 ], [ 13463705.82014344073832, 148197.153108854457969, 0.0 ], [ 13463706.497478129342198, 148198.497983146604383, 0.0 ], [ 13463707.407983617857099, 148203.547462812595768, 0.0 ], [ 13463707.468489650636911, 148204.628696077299537, 0.0 ], [ 13463706.674738051369786, 148212.771488884667633, 0.0 ], [ 13463704.284835198894143, 148217.88175189710455, 0.0 ], [ 13463700.119193281978369, 148221.631782793090679, 0.0 ], [ 13463680.873452248051763, 148232.133825351978885, 0.0 ], [ 13463670.819265471771359, 148237.518574413028546, 0.0 ], [ 13463663.940085040405393, 148242.509317255724454, 0.0 ], [ 13463659.574451288208365, 148248.813413216295885, 0.0 ], [ 13463657.590072324499488, 148255.248844222573098, 0.0 ], [ 13463657.325488479807973, 148261.158933648897801, 0.0 ], [ 13463658.824531644582748, 148267.552696553582791, 0.0 ], [ 13463660.897370615974069, 148276.393829656764865, 0.0 ], [ 13463670.847046796232462, 148302.779417862271657, 0.0 ], [ 13463685.399159232154489, 148318.211312142928364, 0.0 ], [ 13463700.612731322646141, 148328.061456522496883, 0.0 ], [ 13463714.503384090960026, 148336.598247735295445, 0.0 ], [ 13463726.409657917916775, 148346.776728890486993, 0.0 ], [ 13463739.969580870121717, 148355.641857012349647, 0.0 ], [ 13463749.891475712880492, 148365.820336748234695, 0.0 ], [ 13463756.83680209890008, 148378.297181833098875, 0.0 ], [ 13463758.490451242774725, 148387.818983911070973, 0.0 ], [ 13463758.490451242774725, 148396.355771413189359, 0.0 ], [ 13463758.490451242774725, 148402.265854752913583, 0.0 ], [ 13463760.14410038664937, 148413.101006874319864, 0.0 ], [ 13463763.451398674398661, 148423.936158150376286, 0.0 ], [ 13463767.750886432826519, 148432.47294340559165, 0.0 ], [ 13463771.388914540410042, 148439.696376650827006, 0.0 ], [ 13463768.743075920268893, 148456.113269009510987, 0.0 ], [ 13463765.105047803372145, 148464.650052258104552, 0.0 ], [ 13463762.459209185093641, 148472.858497178298421, 0.0 ], [ 13463758.821181077510118, 148477.455226109887008, 0.0 ], [ 13463753.860233651474118, 148481.723617140232818, 0.0 ], [ 13463743.276879152283072, 148484.350319238117663, 0.0 ], [ 13463738.64666155539453, 148485.33533251483459, 0.0 ], [ 13463735.008633451536298, 148487.305359037069138, 0.0 ], [ 13463729.055496532469988, 148494.528789408097509, 0.0 ], [ 13463710.42746969871223, 148510.696795207913965, 0.0 ], [ 13463708.364465469494462, 148525.853007277793949, 0.0 ], [ 13463707.510968327522278, 148532.123369005013956, 0.0 ], [ 13463705.404047263786197, 148547.602221174107399, 0.0 ], [ 13463704.897666934877634, 148551.278343459620373, 0.0 ], [ 13463702.268362738192081, 148567.276869425782934, 0.0 ], [ 13463699.976407105103135, 148581.222729211964179, 0.0 ], [ 13463698.547654239460826, 148615.579963746131398, 0.0 ], [ 13463697.67611875757575, 148648.718469128536526, 0.0 ], [ 13463692.463989295065403, 148669.707256371417316, 0.0 ], [ 13463688.653981672599912, 148689.670163641712861, 0.0 ], [ 13463689.288982938975096, 148708.582388904469553, 0.0 ], [ 13463689.50065004080534, 148723.291895636270056, 0.0 ], [ 13463691.828988038003445, 148735.269635667529656, 0.0 ], [ 13463693.098990565165877, 148746.827103112911573, 0.0 ], [ 13463693.522324742749333, 148760.065655536018312, 0.0 ], [ 13463696.062329841777682, 148774.565021005051676, 0.0 ], [ 13463696.697331108152866, 148780.869092467968585, 0.0 ], [ 13463695.003994381055236, 148789.064384934637928, 0.0 ], [ 13463687.807313313707709, 148814.280666368198581, 0.0 ], [ 13463681.325008688494563, 148831.7744588808564, 0.0 ], [ 13463678.414586206898093, 148837.421853878273396, 0.0 ], [ 13463675.371871795505285, 148841.755901048018131, 0.0 ], [ 13463673.916660528630018, 148844.382596227311296, 0.0 ], [ 13463673.652076680213213, 148845.564609040418873, 0.0 ], [ 13463673.38749280385673, 148847.271960879617836, 0.0 ], [ 13463673.916660528630018, 148849.373316943849204, 0.0 ], [ 13463675.636455656960607, 148851.737342489970615, 0.0 ], [ 13463682.383344130590558, 148856.596728187461849, 0.0 ], [ 13463686.748977866023779, 148860.142766279750504, 0.0 ], [ 13463688.20242521353066, 148862.593472584703704, 0.0 ], [ 13463689.789928399026394, 148867.715527368127368, 0.0 ], [ 13463686.429713370278478, 148881.741529164748499, 0.0 ], [ 13463677.963029766455293, 148896.451017236337066, 0.0 ], [ 13463665.315921131521463, 148912.99918944761157, 0.0 ], [ 13463656.002569174394011, 148923.505964407435386, 0.0 ], [ 13463648.382553938776255, 148931.280977365153376, 0.0 ], [ 13463643.302543776109815, 148940.106667191517772, 0.0 ], [ 13463649.652556475251913, 148951.87425276794238, 0.0 ], [ 13463656.267153032124043, 148961.593016861705109, 0.0 ], [ 13463658.9659084379673, 148967.109071852464695, 0.0 ], [ 13463660.235910974442959, 148976.565165605628863, 0.0 ], [ 13463659.600909708067775, 148981.766016888897866, 0.0 ], [ 13463659.283409068360925, 148995.634952678781701, 0.0 ], [ 13463675.475941453129053, 148994.689343456062488, 0.0 ], [ 13463675.952192403376102, 148987.124469518690603, 0.0 ], [ 13463677.53969557210803, 148977.668376499670558, 0.0 ], [ 13463680.079700661823153, 148971.994720371469157, 0.0 ], [ 13463688.969718441367149, 148955.446555327944225, 0.0 ], [ 13463692.144724799320102, 148949.772898265393451, 0.0 ], [ 13463694.049728600308299, 148943.784037793433527, 0.0 ], [ 13463694.525979550555348, 148939.686396260745823, 0.0 ], [ 13463694.843480199575424, 148934.327941771131009, 0.0 ], [ 13463695.002230506390333, 148929.599893513077404, 0.0 ], [ 13463697.065984655171633, 148923.926235387159977, 0.0 ], [ 13463699.129738762974739, 148918.252577029867098, 0.0 ], [ 13463704.634666787460446, 148908.924224550224608, 0.0 ], [ 13463718.919225661084056, 148884.953085675224429, 0.0 ], [ 13463721.831034168601036, 148881.531393610377563, 0.0 ], [ 13463724.820806974545121, 148876.508387256064452, 0.0 ], [ 13463726.254493245854974, 148872.172992039675592, 0.0 ], [ 13463726.593543704599142, 148869.396064721659059, 0.0 ], [ 13463727.636426314711571, 148841.62038847344229, 0.0 ], [ 13463728.974843697622418, 148825.553172958083451, 0.0 ], [ 13463733.166258612647653, 148801.034439611219568, 0.0 ], [ 13463739.036733331158757, 148769.745916088868398, 0.0 ], [ 13463740.278888119384646, 148763.125464270735392, 0.0 ], [ 13463754.315847579389811, 148707.939979339513229, 0.0 ], [ 13463763.113109715282917, 148681.693895289441571, 0.0 ], [ 13463772.949743492528796, 148654.952734980208334, 0.0 ], [ 13463788.269459826871753, 148621.065890400001081, 0.0 ], [ 13463805.646028848364949, 148590.880272080597933, 0.0 ], [ 13463816.988620294257998, 148573.989453302288894, 0.0 ], [ 13463833.286103874444962, 148551.202322628145339, 0.0 ], [ 13463835.173417491838336, 148548.563481721183052, 0.0 ], [ 13463837.188429130241275, 148545.168271354894387, 0.0 ], [ 13463838.772641137242317, 148540.899369780527195, 0.0 ], [ 13463840.36014430783689, 148528.291204465989722, 0.0 ], [ 13463841.947647493332624, 148520.805105725419708, 0.0 ], [ 13463845.395945528522134, 148515.099511219945271, 0.0 ] ] ], [ [ [ 13464102.35633378662169, 148866.134878744866, 0.0 ], [ 13464151.407784305512905, 148847.352701596246334, 0.0 ], [ 13464138.895568823441863, 148815.304749354545493, 0.0 ], [ 13464182.816489988937974, 148797.705886895710137, 0.0 ], [ 13464177.260228889063001, 148784.04706670079031, 0.0 ], [ 13464214.301969619467854, 148766.448200224258471, 0.0 ], [ 13464255.553935935720801, 148747.604555276804604, 0.0 ], [ 13464246.684727558866143, 148726.258078748331172, 0.0 ], [ 13464198.624208183959126, 148733.09869516492472, 0.0 ], [ 13464140.991921069100499, 148741.30169321259018, 0.0 ], [ 13464140.667178278788924, 148769.112436733470531, 0.0 ], [ 13464116.854630652815104, 148794.591391453024698, 0.0 ], [ 13464120.294220853596926, 148814.55428049468901, 0.0 ], [ 13464097.275424828752875, 148820.858350120077375, 0.0 ], [ 13464082.987896248698235, 148771.739133309805766, 0.0 ], [ 13464058.011410875245929, 148772.301367049949476, 0.0 ], [ 13464050.735123405233026, 148717.261435843858635, 0.0 ], [ 13464028.906954739242792, 148719.625463676900836, 0.0 ], [ 13464017.79443253017962, 148653.432669148402056, 0.0 ], [ 13464007.475661884993315, 148654.61468361664447, 0.0 ], [ 13463946.302077896893024, 148657.171780800650595, 0.0 ], [ 13463931.978527398779988, 148657.602938117372105, 0.0 ], [ 13463924.90127251110971, 148657.815972606971627, 0.0 ], [ 13463922.093457268550992, 148633.146563129412243, 0.0 ], [ 13463901.384821485728025, 148632.933350228820927, 0.0 ], [ 13463897.321861328557134, 148587.723750090342946, 0.0 ], [ 13463895.740904552862048, 148570.132034313865006, 0.0 ], [ 13463889.751578016206622, 148569.325714160309872, 0.0 ], [ 13463881.407588317990303, 148569.01327600798686, 0.0 ], [ 13463873.378887606784701, 148572.768775439995807, 0.0 ], [ 13463862.346496501937509, 148580.243791733402759, 0.0 ], [ 13463858.933886429294944, 148582.91427401592955, 0.0 ], [ 13463847.053296716883779, 148594.569321095186751, 0.0 ], [ 13463840.877066792920232, 148602.206870845664525, 0.0 ], [ 13463820.885720117017627, 148632.866381881554844, 0.0 ], [ 13463807.656526986509562, 148652.894962016056525, 0.0 ], [ 13463798.065361976623535, 148671.610189975937828, 0.0 ], [ 13463791.120035585016012, 148689.012066304014297, 0.0 ], [ 13463788.804926790297031, 148696.56382327072788, 0.0 ], [ 13463773.260624870657921, 148763.54460592957912, 0.0 ], [ 13463769.622596757486463, 148792.109929714235477, 0.0 ], [ 13463911.813492260873318, 148781.166237488301704, 0.0 ], [ 13463909.82911330088973, 148754.570934085902991, 0.0 ], [ 13463891.535590197890997, 148755.899800596525893, 0.0 ], [ 13463882.709267383441329, 148756.540956732875202, 0.0 ], [ 13463877.086860302835703, 148726.662276804854628, 0.0 ], [ 13463823.839357975870371, 148725.020590902364347, 0.0 ], [ 13463820.982706369832158, 148669.434578102926025, 0.0 ], [ 13463851.951393362134695, 148616.340940479771234, 0.0 ], [ 13463879.071239279583097, 148614.042578360968037, 0.0 ], [ 13463884.987462602555752, 148693.582433400209993, 0.0 ], [ 13463995.121800364926457, 148687.08199038769817, 0.0 ], [ 13464001.405667118728161, 148731.079177904379321, 0.0 ], [ 13463964.840137073770165, 148754.814443243056303, 0.0 ], [ 13463977.199089409783483, 148767.58497558554518, 0.0 ], [ 13463985.332197451964021, 148779.042662893800298, 0.0 ], [ 13464004.646819416433573, 148849.175439243030269, 0.0 ], [ 13464046.980237411335111, 148841.032684281090042, 0.0 ], [ 13464060.214912349358201, 148838.451825322088553, 0.0 ], [ 13464067.61777869798243, 148859.944888596714009, 0.0 ], [ 13464096.894310237839818, 148852.288349818089046, 0.0 ], [ 13464098.243360782042146, 148854.800944390590303, 0.0 ], [ 13464102.35633378662169, 148866.134878744866, 0.0 ] ] ], [ [ [ 13464261.488428564742208, 148361.43866382894339, 0.0 ], [ 13464339.197757655754685, 148358.544639458879828, 0.0 ], [ 13464340.891457179561257, 148390.468999800999882, 0.0 ], [ 13464372.218186507001519, 148389.208181923197117, 0.0 ], [ 13464371.338775876909494, 148376.010854770982405, 0.0 ], [ 13464409.703435942530632, 148375.222843526717043, 0.0 ], [ 13464411.026355253532529, 148396.761816029611509, 0.0 ], [ 13464430.870144940912724, 148395.711134524841327, 0.0 ], [ 13464430.786801017820835, 148367.623788156110095, 0.0 ], [ 13464480.533435186371207, 148365.28132771255332, 0.0 ], [ 13464508.616174280643463, 148363.95897279647761, 0.0 ], [ 13464507.881388856098056, 148343.063548598525813, 0.0 ], [ 13464506.896809520199895, 148334.383359622268472, 0.0 ], [ 13464507.359859988093376, 148331.559897224855376, 0.0 ], [ 13464508.601720908656716, 148328.288544832961634, 0.0 ], [ 13464510.316592637449503, 148325.70078961836407, 0.0 ], [ 13464514.586577042937279, 148320.364975796226645, 0.0 ], [ 13464516.251938657835126, 148318.589189199381508, 0.0 ], [ 13464519.893196998164058, 148312.519195612461772, 0.0 ], [ 13464520.490532394498587, 148309.451926161942538, 0.0 ], [ 13464520.481017107143998, 148305.748978169751354, 0.0 ], [ 13464516.905127910897136, 148272.99348304324667, 0.0 ], [ 13464510.536345951259136, 148225.535209075984312, 0.0 ], [ 13464498.223894106224179, 148224.513459697016515, 0.0 ], [ 13464494.409527977928519, 148223.304794338095235, 0.0 ], [ 13464487.676741806790233, 148220.303398453601403, 0.0 ], [ 13464474.359005998820066, 148212.406446243985556, 0.0 ], [ 13464469.461580894887447, 148208.501522236765595, 0.0 ], [ 13464466.995224511250854, 148206.402985003223876, 0.0 ], [ 13464455.931898111477494, 148196.989583273942117, 0.0 ], [ 13464450.651757426559925, 148193.140465142379981, 0.0 ], [ 13464436.04672821611166, 148186.100888443586882, 0.0 ], [ 13464430.464846599847078, 148184.257780036656186, 0.0 ], [ 13464417.943082852289081, 148181.256603345100302, 0.0 ], [ 13464399.904572600498796, 148178.483435627771541, 0.0 ], [ 13464395.390718128532171, 148177.203087882779073, 0.0 ], [ 13464391.909520976245403, 148175.467620967130642, 0.0 ], [ 13464389.744552284479141, 148174.070566219190368, 0.0 ], [ 13464381.91286994703114, 148168.817150072660297, 0.0 ], [ 13464373.022852165624499, 148161.042093814729014, 0.0 ], [ 13464366.037838201969862, 148154.317720467515755, 0.0 ], [ 13464362.016163485124707, 148149.904850280319806, 0.0 ], [ 13464357.452844738960266, 148145.786373212991748, 0.0 ], [ 13464347.24763054586947, 148139.624704017594922, 0.0 ], [ 13464341.696122847497463, 148137.716922371357214, 0.0 ], [ 13464340.939717290922999, 148170.476528314466123, 0.0 ], [ 13464340.351979475468397, 148195.931199329352239, 0.0 ], [ 13464354.93249536305666, 148202.519195983855752, 0.0 ], [ 13464358.335791638121009, 148204.429942436690908, 0.0 ], [ 13464369.643034145236015, 148212.401947682956234, 0.0 ], [ 13464371.202622465789318, 148213.694728426751681, 0.0 ], [ 13464379.529502918943763, 148223.135318010463379, 0.0 ], [ 13464397.469374518841505, 148251.66704371367814, 0.0 ], [ 13464410.537235761061311, 148275.186082176398486, 0.0 ], [ 13464412.184149334207177, 148278.150134135881672, 0.0 ], [ 13464422.284398600459099, 148296.74740728805773, 0.0 ], [ 13464456.552100611850619, 148296.934985692118062, 0.0 ], [ 13464458.204447112977505, 148332.398055771831423, 0.0 ], [ 13464398.47185099311173, 148334.65952060490963, 0.0 ], [ 13464398.207267127931118, 148329.581224280380411, 0.0 ], [ 13464396.227338271215558, 148313.856336591328727, 0.0 ], [ 13464395.032260775566101, 148304.364853536768351, 0.0 ], [ 13464378.437601888552308, 148304.370021560607711, 0.0 ], [ 13464299.44208000227809, 148304.394622862600954, 0.0 ], [ 13464254.83324078284204, 148304.237020528351422, 0.0 ], [ 13464240.545712208375335, 148304.867429852078203, 0.0 ], [ 13464226.734434580430388, 148305.025032186356839, 0.0 ], [ 13464211.494404101744294, 148305.813043848844245, 0.0 ], [ 13464201.334383783861995, 148306.285850833897712, 0.0 ], [ 13464188.475608061999083, 148307.546669459174154, 0.0 ], [ 13464168.77648283354938, 148312.004332447715569, 0.0 ], [ 13464160.025388864800334, 148313.294056044949684, 0.0 ], [ 13464157.644384410232306, 148313.293785778922029, 0.0 ], [ 13464151.645534407347441, 148312.432341541454662, 0.0 ], [ 13464146.565524253994226, 148311.171522960677976, 0.0 ], [ 13464139.898010918870568, 148307.861874118825654, 0.0 ], [ 13464133.787143783643842, 148303.613708175311331, 0.0 ], [ 13464129.334998643025756, 148299.045000538608292, 0.0 ], [ 13464125.110769437626004, 148294.023244649724802, 0.0 ], [ 13464123.51288354024291, 148291.4299698927789, 0.0 ], [ 13464121.793088424950838, 148287.227240585722029, 0.0 ], [ 13464120.205585258081555, 148282.499169965623878, 0.0 ], [ 13464119.676417548209429, 148278.690446285123471, 0.0 ], [ 13464119.676417548209429, 148273.174363535421435, 0.0 ], [ 13464119.941001391038299, 148270.022316155780572, 0.0 ], [ 13464121.131628770381212, 148265.556915569293778, 0.0 ], [ 13464123.366219582036138, 148261.348715328087565, 0.0 ], [ 13464126.477779116481543, 148257.787509435118409, 0.0 ], [ 13464169.08431819267571, 148244.14545986126177, 0.0 ], [ 13464179.61112179979682, 148239.501567943545524, 0.0 ], [ 13464191.357374969869852, 148232.740434103179723, 0.0 ], [ 13464222.831161161884665, 148210.14533167911577, 0.0 ], [ 13464212.578536497429013, 148193.071732964803232, 0.0 ], [ 13464205.63321010582149, 148192.415056049940176, 0.0 ], [ 13464197.695694223046303, 148191.758379130624235, 0.0 ], [ 13464187.52843489125371, 148189.991973898606375, 0.0 ], [ 13464181.553939903154969, 148187.807723158242879, 0.0 ], [ 13464179.836283512413502, 148186.833302126731724, 0.0 ], [ 13464174.234517924487591, 148182.430636471428443, 0.0 ], [ 13464171.299563571810722, 148179.999999484600266, 0.0 ], [ 13464163.592998269945383, 148173.617664022982353, 0.0 ], [ 13464157.899513529613614, 148168.020882437529508, 0.0 ], [ 13464152.373570781201124, 148160.041263380728196, 0.0 ], [ 13464146.668668968603015, 148149.956737921223976, 0.0 ], [ 13464129.695271223783493, 148107.519843933492666, 0.0 ], [ 13464127.411298146471381, 148094.084849048405886, 0.0 ], [ 13464122.033088052645326, 148044.870180099562276, 0.0 ], [ 13464122.033088052645326, 148033.347024668822996, 0.0 ], [ 13464124.62255815602839, 148019.844123669725377, 0.0 ], [ 13464133.873215897008777, 147993.780651466950076, 0.0 ], [ 13464140.487812453880906, 147985.900516818102915, 0.0 ], [ 13464148.756058158352971, 147979.990415543376002, 0.0 ], [ 13464154.378465238958597, 147976.707025834592059, 0.0 ], [ 13464163.308170594274998, 147972.766958071908448, 0.0 ], [ 13464169.592037331312895, 147967.513534237048589, 0.0 ], [ 13464173.230065451934934, 147958.320042021106929, 0.0 ], [ 13464173.230065451934934, 147945.843158730422147, 0.0 ], [ 13464169.261307500302792, 147935.664647854137002, 0.0 ], [ 13464164.961819738149643, 147927.784509877237724, 0.0 ], [ 13464159.008682835847139, 147921.874406097573228, 0.0 ], [ 13464146.771679194644094, 147914.650945573928766, 0.0 ], [ 13464133.211756246164441, 147913.009249949798686, 0.0 ], [ 13464125.604970183223486, 147913.665928199450718, 0.0 ], [ 13464118.659643806517124, 147916.949319416540675, 0.0 ], [ 13464112.70650690048933, 147920.561049660580466, 0.0 ], [ 13464108.076289294287562, 147925.81447530182777, 0.0 ], [ 13464100.138773428276181, 147934.351291550614405, 0.0 ], [ 13464091.209068072959781, 147942.888107265491271, 0.0 ], [ 13464080.625713570043445, 147946.828175877977628, 0.0 ], [ 13464063.447826769202948, 147949.123046891327249, 0.0 ], [ 13464054.346141926944256, 147950.22626606101403, 0.0 ], [ 13464044.450705440714955, 147951.171882500406355, 0.0 ], [ 13464034.184851577505469, 147951.907361935009249, 0.0 ], [ 13464027.146920839324594, 147950.961745517823147, 0.0 ], [ 13464027.094004070386291, 147954.42900568593177, 0.0 ], [ 13464039.211944971233606, 147954.954348133469466, 0.0 ], [ 13464052.10599853657186, 147955.162296189810149, 0.0 ], [ 13464051.915395639836788, 147969.586161093029659, 0.0 ], [ 13464055.795100012794137, 147969.229000001738314, 0.0 ], [ 13464071.378000007942319, 147967.794399999605957, 0.0 ], [ 13464085.331600012257695, 147966.509900001983624, 0.0 ], [ 13464079.810899995267391, 148015.793100008362671, 0.0 ], [ 13464078.213100014254451, 148030.056500001461245, 0.0 ], [ 13464072.990799995139241, 148105.023000001790933, 0.0 ], [ 13464080.653300017118454, 148135.082599998160731, 0.0 ], [ 13464083.28578644618392, 148145.409652462200029, 0.0 ], [ 13464102.538063390180469, 148220.93490802674205, 0.0 ], [ 13464104.242300009354949, 148227.620499998796731, 0.0 ], [ 13464092.108700003474951, 148239.727200005698251, 0.0 ], [ 13464081.321999996900558, 148250.489799999049865, 0.0 ], [ 13464068.799600014463067, 148262.984399997658329, 0.0 ], [ 13464067.300800010561943, 148264.479900001431815, 0.0 ], [ 13464091.901836801320314, 148296.852913306560367, 0.0 ], [ 13464101.229079416021705, 148311.77566519609536, 0.0 ], [ 13464108.626948507502675, 148325.210490955796558, 0.0 ], [ 13464119.116083905100822, 148338.907809321361128, 0.0 ], [ 13464124.380013944581151, 148344.4654732341005, 0.0 ], [ 13464127.614719279110432, 148347.725758359680185, 0.0 ], [ 13464199.876989001408219, 148335.619052800087957, 0.0 ], [ 13464213.148774318397045, 148385.640814855200006, 0.0 ], [ 13464226.809840986505151, 148454.220948646223405, 0.0 ], [ 13464270.135448461398482, 148452.579259473539423, 0.0 ], [ 13464266.828150192275643, 148412.522037653427105, 0.0 ], [ 13464262.742839517071843, 148373.439205693313852, 0.0 ], [ 13464261.488428564742208, 148361.43866382894339, 0.0 ] ] ] ] } },
{ "type": "Feature", "properties": { "WADMPR": "SULAWESI TENGAH", "WADMKK": "TOLI - TOLI", "WADMKC": "LAMPASIO", "WADMKD": "SALUGAN", "POKTAN": "KT MACOLO LOLOE", "LUAS_HA": 64.005196066799996, "PAKET": "Paket Sulawesi Tengah 4" }, "geometry": { "type": "MultiPolygon", "coordinates": [ [ [ [ 13450772.204457862302661, 99770.961729700051364, 0.0 ], [ 13450796.108171738684177, 100498.624399333522888, 0.0 ], [ 13450869.011456159874797, 100534.787363636438386, 0.0 ], [ 13450983.291039679199457, 100531.079071967949858, 0.0 ], [ 13450984.864285204559565, 100594.130927676742431, 0.0 ], [ 13450997.585307409986854, 100594.668171511759283, 0.0 ], [ 13451121.675138922408223, 100595.193666039587697, 0.0 ], [ 13451204.489887891337276, 100594.142676983945421, 0.0 ], [ 13451205.303640730679035, 100540.40373913179792, 0.0 ], [ 13451205.548223339021206, 100524.251891979132779, 0.0 ], [ 13451205.274430917575955, 100511.840385498682735, 0.0 ], [ 13451199.158780289813876, 100234.606678475931403, 0.0 ], [ 13450986.064028091728687, 100238.984710527569405, 0.0 ], [ 13450977.345125773921609, 100057.570608313893899, 0.0 ], [ 13451118.290365183725953, 100046.364320543943904, 0.0 ], [ 13451196.651116190478206, 100040.134006091800984, 0.0 ], [ 13451189.398080978542566, 99759.376804721468943, 0.0 ], [ 13451189.417562358081341, 99762.764586090750527, 0.0 ], [ 13451175.43589754961431, 99762.689973704676959, 0.0 ], [ 13451171.230652535334229, 99762.66753264007275, 0.0 ], [ 13451153.053716251626611, 99762.570532424841076, 0.0 ], [ 13451110.257672401145101, 99762.342153685676749, 0.0 ], [ 13451085.806133287027478, 99761.40798686000926, 0.0 ], [ 13451049.96524410136044, 99760.038691897047102, 0.0 ], [ 13450983.686986541375518, 99759.644569392781705, 0.0 ], [ 13450975.786155940964818, 99760.140582110572723, 0.0 ], [ 13450914.630598418414593, 99763.979917042102898, 0.0 ], [ 13450810.649140471592546, 99769.103509628796019, 0.0 ], [ 13450805.388791473582387, 99769.357768098983797, 0.0 ], [ 13450772.204457862302661, 99770.961729700051364, 0.0 ] ] ], [ [ [ 13450772.204457862302661, 99770.961729700051364, 0.0 ], [ 13450772.16384887509048, 99764.345385699751205, 0.0 ], [ 13450771.643637666478753, 99739.875397207797505, 0.0 ], [ 13450771.486595079302788, 99732.48833889652451, 0.0 ], [ 13450771.244812823832035, 99721.115246897374163, 0.0 ], [ 13450771.238823158666492, 99720.833501902583521, 0.0 ], [ 13450759.412870453670621, 99164.556827967302524, 0.0 ], [ 13450261.120470359921455, 99185.809700096113374, 0.0 ], [ 13450280.68132683262229, 99790.502069654714433, 0.0 ], [ 13450307.27906877361238, 99789.184168531181058, 0.0 ], [ 13450582.774798912927508, 99778.95855284735444, 0.0 ], [ 13450772.204457862302661, 99770.961729700051364, 0.0 ] ] ], [ [ [ 13451676.131023062393069, 99762.074956540149287, 0.0 ], [ 13451664.766251109540462, 99305.684341133368434, 0.0 ], [ 13451605.343259055167437, 99306.468978683784371, 0.0 ], [ 13451604.862830877304077, 99213.171352548379218, 0.0 ], [ 13451564.786632554605603, 99213.00091364045511, 0.0 ], [ 13451565.333901254460216, 99319.174129201739561, 0.0 ], [ 13451567.52015908062458, 99455.970710763445823, 0.0 ], [ 13451568.029919616878033, 99487.866980869352119, 0.0 ], [ 13451568.443354815244675, 99513.736065858320217, 0.0 ], [ 13451569.042923586443067, 99551.251724496149109, 0.0 ], [ 13451569.547272114083171, 99582.809344803667045, 0.0 ], [ 13451571.962862143293023, 99733.955298176195356, 0.0 ], [ 13451572.411429323256016, 99762.022595462040044, 0.0 ], [ 13451593.511068308725953, 99762.033247256156756, 0.0 ], [ 13451676.131023062393069, 99762.074956540149287, 0.0 ] ] ] ] } }
]
}
