{
"type": "FeatureCollection",
"name": "SULTENG_PAKET_2",
"crs": { "type": "name", "properties": { "name": "urn:ogc:def:crs:ESRI::54034" } },
"features": [
{ "type": "Feature", "properties": { "WADMPR": "SULAWESI TENGAH", "WADMKK": "SIGI", "WADMKC": "PALOLO", "WADMKD": "REJEKI", "POKTAN": "KT MOSANGURARA III", "LUAS_HA": 100.00346960500001, "PAKET": "Paket Sulawesi Tengah 2" }, "geometry": { "type": "MultiPolygon", "coordinates": [ [ [ [ 13397418.341020876541734, -127128.350316639145603, 0.0 ], [ 13397458.007746368646622, -127130.501945030380739, 0.0 ], [ 13397486.571664730086923, -127127.884923719408107, 0.0 ], [ 13397511.963073374703526, -127124.20754547364777, 0.0 ], [ 13397547.178185604512691, -127114.397254723866354, 0.0 ], [ 13397565.446090498939157, -127114.205987893990823, 0.0 ], [ 13397587.971562270075083, -127117.928801214467967, 0.0 ], [ 13397719.124391045421362, -127169.665916267680586, 0.0 ], [ 13397745.163776580244303, -127179.937919947187766, 0.0 ], [ 13397755.579307878389955, -127182.617796377307968, 0.0 ], [ 13397833.512070948258042, -127208.078451717898133, 0.0 ], [ 13397875.548242235556245, -127265.690681785374181, 0.0 ], [ 13397984.331068255007267, -127296.868202607234707, 0.0 ], [ 13398038.959312038496137, -127312.524836014097673, 0.0 ], [ 13398312.777496902272105, -127391.001905394834466, 0.0 ], [ 13398319.735194485634565, -127392.996005923560006, 0.0 ], [ 13398577.809093721210957, -127744.634179401095025, 0.0 ], [ 13398569.831337090581656, -127756.633108251829981, 0.0 ], [ 13398525.345408203080297, -127817.393183926033089, 0.0 ], [ 13398517.110139049589634, -127828.704871639580233, 0.0 ], [ 13398481.534016301855445, -127855.063615972059779, 0.0 ], [ 13398341.626455754041672, -127958.723572067392524, 0.0 ], [ 13398250.840290306136012, -128048.328650425595697, 0.0 ], [ 13398191.210566760972142, -128107.182488623715471, 0.0 ], [ 13398178.988540887832642, -128096.242965695535531, 0.0 ], [ 13398173.719811836257577, -128092.177349794597831, 0.0 ], [ 13398129.347929887473583, -128137.082571928011021, 0.0 ], [ 13398139.374205224215984, -128149.344651946768863, 0.0 ], [ 13398127.991332929581404, -128160.181473338292562, 0.0 ], [ 13398015.578123753890395, -128201.433590559419827, 0.0 ], [ 13397844.245850190520287, -128264.307296974060591, 0.0 ], [ 13397712.746807392686605, -128312.563226435144315, 0.0 ], [ 13397700.096844539046288, -128317.205339844455011, 0.0 ], [ 13397696.731737473979592, -128302.486258658682345, 0.0 ], [ 13397700.341902181506157, -128290.796940675965743, 0.0 ], [ 13397706.312039282172918, -128269.654370791249676, 0.0 ], [ 13397705.000878565013409, -128257.757306321611395, 0.0 ], [ 13397664.711039001122117, -128214.762435003649443, 0.0 ], [ 13397623.687685122713447, -128249.089806154530379, 0.0 ], [ 13397601.258149072527885, -128196.198463723208988, 0.0 ], [ 13397654.182142492383718, -128161.882204602661659, 0.0 ], [ 13397687.256856914609671, -128143.408480432466604, 0.0 ], [ 13397667.449610823765397, -128114.311249103309819, 0.0 ], [ 13397639.670271785929799, -128126.181128014315618, 0.0 ], [ 13397606.667891157791018, -128067.33198360199458, 0.0 ], [ 13397646.860795037820935, -128046.454378921087482, 0.0 ], [ 13397662.223168335855007, -128038.474622791400179, 0.0 ], [ 13397562.54679212346673, -127892.730780617159326, 0.0 ], [ 13397544.75003389082849, -127895.304534449896892, 0.0 ], [ 13397534.825793173164129, -127902.829302902478958, 0.0 ], [ 13397526.482378074899316, -127916.69999097683467, 0.0 ], [ 13397479.650213431566954, -127941.240990514445002, 0.0 ], [ 13397435.475495802238584, -127881.280013737341505, 0.0 ], [ 13397455.316062146797776, -127874.689738526169094, 0.0 ], [ 13397456.921917589381337, -127865.431183248671005, 0.0 ], [ 13397458.639695471152663, -127855.527334189144312, 0.0 ], [ 13397477.751972073689103, -127850.037838692282094, 0.0 ], [ 13397488.46180553548038, -127850.8408874583547, 0.0 ], [ 13397496.400378150865436, -127845.693432529980782, 0.0 ], [ 13397510.695213906466961, -127830.638709025282878, 0.0 ], [ 13397499.603128630667925, -127814.370718052960001, 0.0 ], [ 13397489.681488495320082, -127819.119797768973513, 0.0 ], [ 13397476.215200357139111, -127796.505148744021426, 0.0 ], [ 13397489.720352381467819, -127777.484405311610317, 0.0 ], [ 13397545.284040540456772, -127748.193135933455778, 0.0 ], [ 13397540.404192373156548, -127741.456593233015155, 0.0 ], [ 13397516.435598997399211, -127710.12771459549549, 0.0 ], [ 13397454.516291540116072, -127746.991628006333485, 0.0 ], [ 13397366.797244470566511, -127801.63062931325112, 0.0 ], [ 13397336.694167690351605, -127753.22618685089401, 0.0 ], [ 13397314.069660022854805, -127767.480068633172777, 0.0 ], [ 13397275.662242216989398, -127691.129237051281962, 0.0 ], [ 13397290.214530520141125, -127683.542698312259745, 0.0 ], [ 13397298.156291231513023, -127674.95867482497124, 0.0 ], [ 13397306.76320475526154, -127662.07955511342152, 0.0 ], [ 13397296.197828950360417, -127648.191242310771486, 0.0 ], [ 13397286.951044576242566, -127638.269434859335888, 0.0 ], [ 13397273.165978010743856, -127620.743287860997953, 0.0 ], [ 13397281.769494174048305, -127611.498998069160734, 0.0 ], [ 13397295.337453212589025, -127595.980979512358317, 0.0 ], [ 13397361.101071707904339, -127617.851279269671068, 0.0 ], [ 13397380.845222169533372, -127620.081419634836493, 0.0 ], [ 13397392.009640727192163, -127558.762177635988337, 0.0 ], [ 13397377.2251110766083, -127531.784513280901592, 0.0 ], [ 13397374.680389037355781, -127502.981591381016187, 0.0 ], [ 13397364.0047213640064, -127485.462036063952837, 0.0 ], [ 13397252.338401641696692, -127555.146927068184596, 0.0 ], [ 13397205.761269142851233, -127589.997936732310336, 0.0 ], [ 13397197.307988028973341, -127579.944699083222076, 0.0 ], [ 13397144.329961394891143, -127514.642931978640263, 0.0 ], [ 13397149.855985581874847, -127487.157154266940779, 0.0 ], [ 13397164.128937907516956, -127495.497522999401554, 0.0 ], [ 13397180.776836233213544, -127509.391487954679178, 0.0 ], [ 13397210.951634461060166, -127480.869618432785501, 0.0 ], [ 13397197.883516887202859, -127456.669273535982938, 0.0 ], [ 13397226.854942576959729, -127442.421255419845693, 0.0 ], [ 13397204.032656846567988, -127381.521194050917984, 0.0 ], [ 13397212.561018271371722, -127343.005089083977509, 0.0 ], [ 13397237.57958297431469, -127313.685307848543744, 0.0 ], [ 13397214.9905940387398, -127289.872637601598399, 0.0 ], [ 13397172.109707001596689, -127331.468158409668831, 0.0 ], [ 13397138.776609057560563, -127343.729498587141279, 0.0 ], [ 13397114.072882115840912, -127386.65461903315736, 0.0 ], [ 13397082.354949347674847, -127418.297588960063877, 0.0 ], [ 13397062.421354254707694, -127430.985913027601782, 0.0 ], [ 13397041.964653719216585, -127410.615036665505613, 0.0 ], [ 13396949.955741269513965, -127327.774768943098024, 0.0 ], [ 13396991.156268268823624, -127292.151211337666609, 0.0 ], [ 13397005.372845178470016, -127276.010856226916076, 0.0 ], [ 13397012.412287002429366, -127264.862183287303196, 0.0 ], [ 13397028.633017677813768, -127226.140743427531561, 0.0 ], [ 13397035.076620228588581, -127207.308531271162792, 0.0 ], [ 13397043.850673235952854, -127186.981882387015503, 0.0 ], [ 13397055.861552530899644, -127163.847867636446608, 0.0 ], [ 13397065.150948997586966, -127147.79036523636023, 0.0 ], [ 13397079.84578095190227, -127127.082112366013462, 0.0 ], [ 13397094.196295132860541, -127109.218706324434606, 0.0 ], [ 13397132.775937732309103, -127075.214814826467773, 0.0 ], [ 13397143.890513706952333, -127067.29457892854407, 0.0 ], [ 13397157.64818924292922, -127060.962906256812857, 0.0 ], [ 13397175.633744852617383, -127058.336083267990034, 0.0 ], [ 13397197.313356621190906, -127064.700654548039893, 0.0 ], [ 13397217.93661599420011, -127069.478133661774336, 0.0 ], [ 13397242.257863789796829, -127079.017382106001605, 0.0 ], [ 13397258.653248161077499, -127080.09000843569811, 0.0 ], [ 13397275.049616795033216, -127080.105226637650048, 0.0 ], [ 13397293.559192905202508, -127082.765926636668155, 0.0 ], [ 13397311.536910114809871, -127088.598358761388226, 0.0 ], [ 13397334.798873491585255, -127099.7227395560476, 0.0 ], [ 13397353.301092963665724, -127110.314000083890278, 0.0 ], [ 13397373.920450979843736, -127119.321113354875706, 0.0 ], [ 13397397.185864435508847, -127126.744569691145443, 0.0 ], [ 13397418.341020876541734, -127128.350316639145603, 0.0 ] ], [ [ 13397378.318951457738876, -127215.010131484290469, 0.0 ], [ 13397367.180754641070962, -127248.308158897867543, 0.0 ], [ 13397344.972192844375968, -127241.943074502094532, 0.0 ], [ 13397347.627094406634569, -127230.842752025811933, 0.0 ], [ 13397335.465966835618019, -127226.60182057088241, 0.0 ], [ 13397330.697369353845716, -127235.585361676698085, 0.0 ], [ 13397317.480378789827228, -127229.22863220074214, 0.0 ], [ 13397305.819161770865321, -127256.181705438182689, 0.0 ], [ 13397288.894848387688398, -127255.108569147298113, 0.0 ], [ 13397281.992730218917131, -127276.798043400893221, 0.0 ], [ 13397288.340851163491607, -127282.071956248400966, 0.0 ], [ 13397305.785228090360761, -127292.662251130415825, 0.0 ], [ 13397331.166294578462839, -127300.087700785530615, 0.0 ], [ 13397353.903279205784202, -127306.981989082094515, 0.0 ], [ 13397372.959003733471036, -127291.13857420097338, 0.0 ], [ 13397383.563380377367139, -127263.127100601152051, 0.0 ], [ 13397395.197072047740221, -127265.781431297509698, 0.0 ], [ 13397402.640233555808663, -127224.549400288349716, 0.0 ], [ 13397378.318951457738876, -127215.010131484290469, 0.0 ] ], [ [ 13397904.144910957664251, -127419.31568861733831, 0.0 ], [ 13397912.062405096367002, -127451.31391034994158, 0.0 ], [ 13397930.712302330881357, -127445.383288063458167, 0.0 ], [ 13397953.713247522711754, -127452.938712224102346, 0.0 ], [ 13397948.148547295480967, -127464.829433486011112, 0.0 ], [ 13397947.345954524353147, -127474.74192866073281, 0.0 ], [ 13397946.53230089135468, -127496.550301041468629, 0.0 ], [ 13397934.607299858704209, -127522.710171612125123, 0.0 ], [ 13397902.088040225207806, -127512.766715113888495, 0.0 ], [ 13397890.167093258351088, -127534.564753422397189, 0.0 ], [ 13397904.83609252795577, -127543.698564352176618, 0.0 ], [ 13397912.377605551853776, -127538.947220957837999, 0.0 ], [ 13397921.490382054820657, -127550.851574423984857, 0.0 ], [ 13397915.927147384732962, -127561.156168391229585, 0.0 ], [ 13397908.791175788268447, -127556.391181847458938, 0.0 ], [ 13397898.465092610567808, -127569.467051785410149, 0.0 ], [ 13397902.426815012469888, -127575.022146199713461, 0.0 ], [ 13397871.851149557158351, -127607.905645302031189, 0.0 ], [ 13397828.234219569712877, -127587.642089763918193, 0.0 ], [ 13397801.631351724267006, -127614.184791756793857, 0.0 ], [ 13397787.336902348324656, -127628.843064600179787, 0.0 ], [ 13397777.424859268590808, -127623.28243612559163, 0.0 ], [ 13397744.870552284643054, -127651.009161081994534, 0.0 ], [ 13397750.022330624982715, -127656.56535986570816, 0.0 ], [ 13397749.615668077021837, -127667.271259321132675, 0.0 ], [ 13397765.077283725142479, -127677.198873341316357, 0.0 ], [ 13397772.616951892152429, -127674.43019007195835, 0.0 ], [ 13397786.112120334059, -127666.115645089899772, 0.0 ], [ 13397793.258055223152041, -127660.174362208650564, 0.0 ], [ 13397802.381523733958602, -127660.579382364419871, 0.0 ], [ 13397807.941812267526984, -127653.4470354005025, 0.0 ], [ 13397824.201245825737715, -127658.61704375516274, 0.0 ], [ 13397836.103383736684918, -127657.042003414797364, 0.0 ], [ 13397852.366513906046748, -127658.246724065873423, 0.0 ], [ 13397881.324426921084523, -127658.670197589613963, 0.0 ], [ 13397898.403460722416639, -127635.687390625535045, 0.0 ], [ 13397929.733763622120023, -127644.440178509408724, 0.0 ], [ 13397951.153492828831077, -127646.046219340132666, 0.0 ], [ 13397960.293211076408625, -127629.003953663006541, 0.0 ], [ 13397984.092340845614672, -127631.405262103609857, 0.0 ], [ 13397997.612977523356676, -127595.730171459101257, 0.0 ], [ 13397998.448403822258115, -127550.526568655986921, 0.0 ], [ 13397992.913563815876842, -127530.298412194315461, 0.0 ], [ 13398000.479780100286007, -127498.979594043834368, 0.0 ], [ 13398000.898953095078468, -127474.791668143981951, 0.0 ], [ 13397995.761160422116518, -127454.167348492337624, 0.0 ], [ 13397983.092540740966797, -127426.795030738008791, 0.0 ], [ 13397968.812848458066583, -127425.592183765082154, 0.0 ], [ 13397965.23233200982213, -127436.691691714760964, 0.0 ], [ 13397932.307165171951056, -127436.661117655123235, 0.0 ], [ 13397918.838175632059574, -127416.822129643391236, 0.0 ], [ 13397904.144910957664251, -127419.31568861733831, 0.0 ] ], [ [ 13397702.93297559954226, -128208.26402207868523, 0.0 ], [ 13397717.438466867431998, -128223.323874120018445, 0.0 ], [ 13397744.52050837315619, -128250.114841621354572, 0.0 ], [ 13397781.583175798878074, -128209.17491881744354, 0.0 ], [ 13397774.649769714102149, -128199.916112895152764, 0.0 ], [ 13397779.949159486219287, -128189.016539723088499, 0.0 ], [ 13397771.366280745714903, -128176.121350643312326, 0.0 ], [ 13397775.006306823343039, -128172.15946989627264, 0.0 ], [ 13397768.048715077340603, -128162.171090041956631, 0.0 ], [ 13397777.33917729742825, -128152.004796290682862, 0.0 ], [ 13397777.018181547522545, -128141.760848935111426, 0.0 ], [ 13397737.035693049430847, -128123.549283222222584, 0.0 ], [ 13397731.39615616761148, -128144.692183469160227, 0.0 ], [ 13397702.93297559954226, -128208.26402207868523, 0.0 ] ] ] ] } },
{ "type": "Feature", "properties": { "WADMPR": "SULAWESI TENGAH", "WADMKK": "SIGI", "WADMKC": "PALOLO", "WADMKD": "REJEKI", "POKTAN": "KT MOSANGURARA I", "LUAS_HA": 62.850206459, "PAKET": "Paket Sulawesi Tengah 2" }, "geometry": { "type": "MultiPolygon", "coordinates": [ [ [ [ 13397024.741572143509984, -127715.561180676857475, 0.0 ], [ 13396991.919186132028699, -127747.252660457481397, 0.0 ], [ 13396977.639465702697635, -127746.181920602015452, 0.0 ], [ 13396951.707800604403019, -127762.018756998382742, 0.0 ], [ 13396977.058651911094785, -127801.695079577766592, 0.0 ], [ 13396909.518757689744234, -127844.834596811007941, 0.0 ], [ 13396863.980804789811373, -127871.9895945143071, 0.0 ], [ 13396844.731080800294876, -127860.092040883784648, 0.0 ], [ 13396808.217158168554306, -127880.148533875733847, 0.0 ], [ 13396807.141013575717807, -127899.709466728920233, 0.0 ], [ 13396774.86335669644177, -127914.482892247397103, 0.0 ], [ 13396726.19083996117115, -127927.654858635098208, 0.0 ], [ 13396712.432824898511171, -127902.775641184620326, 0.0 ], [ 13396733.416690343990922, -127867.279762816644507, 0.0 ], [ 13396741.101007958874106, -127850.877224581839982, 0.0 ], [ 13396752.743643872439861, -127825.723600706784055, 0.0 ], [ 13396760.077594853937626, -127809.878773402611841, 0.0 ], [ 13396774.282331729307771, -127782.33592410669371, 0.0 ], [ 13396778.265389855951071, -127774.792730334287626, 0.0 ], [ 13396781.464550070464611, -127769.32243099209154, 0.0 ], [ 13396791.012490559369326, -127749.214930993010057, 0.0 ], [ 13396795.26716529019177, -127739.572691120381933, 0.0 ], [ 13396804.593556152656674, -127720.940420882689068, 0.0 ], [ 13396918.149965826421976, -127650.818556289130356, 0.0 ], [ 13396918.392480585724115, -127390.86277589405654, 0.0 ], [ 13396920.932642655447125, -127373.206315890245605, 0.0 ], [ 13396922.005254693329334, -127357.346243354855687, 0.0 ], [ 13396924.658202381804585, -127348.360772848318447, 0.0 ], [ 13396931.012563727796078, -127340.436153042435762, 0.0 ], [ 13396938.121553817763925, -127335.370329995887005, 0.0 ], [ 13396942.893451446667314, -127339.554478997510159, 0.0 ], [ 13397041.421448031440377, -127425.946910789090907, 0.0 ], [ 13397096.967338977381587, -127482.248327258013887, 0.0 ], [ 13397084.055716836825013, -127521.26547559114988, 0.0 ], [ 13397076.89427942968905, -127543.860842123482144, 0.0 ], [ 13397064.18218844011426, -127563.278813886136049, 0.0 ], [ 13397047.510261904448271, -127575.159076954703778, 0.0 ], [ 13397022.112347397953272, -127585.841617511483491, 0.0 ], [ 13397002.66805954836309, -127592.960964360187063, 0.0 ], [ 13396982.024829735979438, -127609.595829343321384, 0.0 ], [ 13396949.694411149248481, -127652.57557810517028, 0.0 ], [ 13397024.741572143509984, -127715.561180676857475, 0.0 ] ] ], [ [ [ 13397286.978379549458623, -127850.849113567572203, 0.0 ], [ 13397369.383790660649538, -127938.935735272316379, 0.0 ], [ 13397378.436325404793024, -127949.826810485188616, 0.0 ], [ 13397342.155398258939385, -127997.293761205277406, 0.0 ], [ 13397286.963501129299402, -128053.152484187769005, 0.0 ], [ 13397272.295338420197368, -128043.225592674541986, 0.0 ], [ 13397250.063020665198565, -128062.238091479914146, 0.0 ], [ 13397196.146195616573095, -128027.293302297592163, 0.0 ], [ 13397159.682515880092978, -127993.554429256662843, 0.0 ], [ 13397119.984479103237391, -128024.842901238764171, 0.0 ], [ 13397098.999336931854486, -128002.396522310620639, 0.0 ], [ 13397118.989198110997677, -127985.095689705951372, 0.0 ], [ 13397099.985264034941792, -127962.724412573908921, 0.0 ], [ 13397150.772792054340243, -127913.130478861217853, 0.0 ], [ 13397123.442198587581515, -127893.143700208340306, 0.0 ], [ 13397212.104649938642979, -127852.307683641382027, 0.0 ], [ 13397233.766988452523947, -127877.176944161416031, 0.0 ], [ 13397286.978379549458623, -127850.849113567572203, 0.0 ] ] ], [ [ [ 13396982.582380417734385, -127927.868313477723859, 0.0 ], [ 13397033.973112808540463, -127980.8049529587297, 0.0 ], [ 13397049.22228535823524, -127998.52703877579188, 0.0 ], [ 13397064.324792623519897, -128016.078674099044292, 0.0 ], [ 13397089.204767022281885, -128044.993356804945506, 0.0 ], [ 13397087.292870661243796, -128045.667228351201629, 0.0 ], [ 13397090.939450062811375, -128050.364923589033424, 0.0 ], [ 13397035.383959203958511, -128070.932295719714602, 0.0 ], [ 13397048.458900887519121, -128087.730813527843566, 0.0 ], [ 13397096.468061475083232, -128077.069542887271382, 0.0 ], [ 13397122.921916201710701, -128105.120235669746762, 0.0 ], [ 13397132.784709734842181, -128114.265905870270217, 0.0 ], [ 13397144.324452748522162, -128124.966594304176397, 0.0 ], [ 13397168.110460504889488, -128141.246449143334758, 0.0 ], [ 13397210.940445045009255, -128154.371923169004731, 0.0 ], [ 13397267.257083492353559, -128168.303077459655469, 0.0 ], [ 13397259.306982800364494, -128185.742812470241915, 0.0 ], [ 13397293.010209012776613, -128202.03196485459921, 0.0 ], [ 13397303.343411097303033, -128181.422242363390978, 0.0 ], [ 13397320.395416602492332, -128187.386107502141385, 0.0 ], [ 13397313.633147301152349, -128207.206121755632921, 0.0 ], [ 13397341.788330629467964, -128217.542180587290204, 0.0 ], [ 13397351.330760257318616, -128194.156022190290969, 0.0 ], [ 13397367.035288175567985, -128198.779246702135424, 0.0 ], [ 13397388.204859966412187, -128185.052787491382333, 0.0 ], [ 13397421.023983146995306, -128157.062241254534456, 0.0 ], [ 13397448.546998642385006, -128136.468566681665834, 0.0 ], [ 13397477.24877561070025, -128118.524096101609757, 0.0 ], [ 13397491.745482333004475, -128109.175004445016384, 0.0 ], [ 13397502.305531965568662, -128128.746901982303825, 0.0 ], [ 13397530.354007013142109, -128111.854616215161514, 0.0 ], [ 13397539.350062547251582, -128107.104694169102004, 0.0 ], [ 13397558.360934097319841, -128139.373382819641847, 0.0 ], [ 13397577.891815887764096, -128181.159226412913995, 0.0 ], [ 13397546.133467815816402, -128205.978585185075644, 0.0 ], [ 13397556.471316915005445, -128220.846288476954214, 0.0 ], [ 13397510.123633714392781, -128280.527293975828798, 0.0 ], [ 13397539.857322486117482, -128299.720619277097285, 0.0 ], [ 13397566.991003815084696, -128271.328215425193775, 0.0 ], [ 13397580.432446002960205, -128292.189332146721426, 0.0 ], [ 13397594.160549946129322, -128317.579945117424359, 0.0 ], [ 13397591.527707308530807, -128320.254549281904474, 0.0 ], [ 13397565.042293244972825, -128347.160067504184553, 0.0 ], [ 13397549.689289642497897, -128362.478081541179563, 0.0 ], [ 13397535.943360330536962, -128356.120769572153222, 0.0 ], [ 13397521.153967373073101, -128334.430091810660088, 0.0 ], [ 13397486.754463823512197, -128355.545992464816663, 0.0 ], [ 13397472.350715707987547, -128378.768991544653545, 0.0 ], [ 13397462.93845615722239, -128393.944269530387828, 0.0 ], [ 13397447.410329043865204, -128418.980088982847519, 0.0 ], [ 13397444.073083085939288, -128424.732347538491013, 0.0 ], [ 13397386.888718405738473, -128387.57698441336106, 0.0 ], [ 13397336.356828674674034, -128431.656113120174268, 0.0 ], [ 13397308.576630730181932, -128461.473491229116917, 0.0 ], [ 13397123.88806614652276, -128659.705584977316903, 0.0 ], [ 13397121.830466663464904, -128659.282903569241171, 0.0 ], [ 13397062.985550506040454, -128647.194714219018351, 0.0 ], [ 13397041.835839478299022, -128639.773017859988613, 0.0 ], [ 13397013.287268029525876, -128625.999957738531521, 0.0 ], [ 13397000.292716620489955, -128622.275529887221637, 0.0 ], [ 13396969.747759049758315, -128617.499809789689607, 0.0 ], [ 13396955.114402169361711, -128617.48604954010807, 0.0 ], [ 13396925.492096439003944, -128620.630394408712164, 0.0 ], [ 13396919.282677760347724, -128621.266583285294473, 0.0 ], [ 13396891.479333337396383, -128624.492128119032714, 0.0 ], [ 13396853.982603039592505, -128628.842225035768934, 0.0 ], [ 13396816.645545611158013, -128630.027780895034084, 0.0 ], [ 13396807.650942742824554, -128628.432419924356509, 0.0 ], [ 13396773.811281001195312, -128616.769184363307431, 0.0 ], [ 13396735.746278788894415, -128598.757579376135254, 0.0 ], [ 13396705.080130973830819, -128587.097334494115785, 0.0 ], [ 13396669.124838130548596, -128575.432114557232126, 0.0 ], [ 13396594.03581658937037, -128557.385679776867619, 0.0 ], [ 13396485.816927444189787, -128502.544612824523938, 0.0 ], [ 13396335.749042881652713, -128426.49610920518171, 0.0 ], [ 13396343.158316457644105, -128421.744795340608107, 0.0 ], [ 13396352.158811751753092, -128412.236691863217857, 0.0 ], [ 13396372.196646701544523, -128386.891033464606153, 0.0 ], [ 13396381.798393834382296, -128390.587933422080823, 0.0 ], [ 13396396.396458735689521, -128375.083652761764824, 0.0 ], [ 13396398.211145961657166, -128373.156313676197897, 0.0 ], [ 13396383.949089357629418, -128359.153281823630095, 0.0 ], [ 13396394.007695496082306, -128343.545234432996949, 0.0 ], [ 13396361.765345452353358, -128320.780880280100973, 0.0 ], [ 13396323.126291517168283, -128350.880365909804823, 0.0 ], [ 13396287.897338319569826, -128381.698361795773963, 0.0 ], [ 13396208.331938752904534, -128342.663978458629572, 0.0 ], [ 13396208.731949714943767, -128340.555677526135696, 0.0 ], [ 13396212.054143702611327, -128323.045680578972679, 0.0 ], [ 13396214.109816201031208, -128317.484407833268051, 0.0 ], [ 13396216.69395269267261, -128310.493465434119571, 0.0 ], [ 13396219.344116391614079, -128304.548104224755662, 0.0 ], [ 13396220.670753059908748, -128299.923243340643239, 0.0 ], [ 13396220.676972636952996, -128293.314522690081503, 0.0 ], [ 13396214.964125480502844, -128275.590649212463177, 0.0 ], [ 13396213.294149164110422, -128273.742215802791179, 0.0 ], [ 13396210.694314097985625, -128270.864557001754292, 0.0 ], [ 13396179.719176897779107, -128258.249764104839414, 0.0 ], [ 13396166.892085904255509, -128253.396812949547893, 0.0 ], [ 13396188.113251924514771, -128184.686008423392195, 0.0 ], [ 13396200.875060886144638, -128188.823078218527371, 0.0 ], [ 13396251.596563674509525, -128205.265760117225, 0.0 ], [ 13396245.628765279427171, -128223.896769798564492, 0.0 ], [ 13396220.640537388622761, -128212.548933975107502, 0.0 ], [ 13396209.911844361573458, -128240.120672439195914, 0.0 ], [ 13396258.689900610595942, -128255.23442153770884, 0.0 ], [ 13396293.192538449540734, -128264.783421903674025, 0.0 ], [ 13396308.674069866538048, -128253.298779521966935, 0.0 ], [ 13396326.125228805467486, -128256.487370395261678, 0.0 ], [ 13396332.566994298249483, -128246.756565313960891, 0.0 ], [ 13396277.75315323844552, -128231.460909669811372, 0.0 ], [ 13396281.340842925012112, -128212.827659566435614, 0.0 ], [ 13396315.450901633128524, -128218.014517187315505, 0.0 ], [ 13396350.717308985069394, -128219.33904073209851, 0.0 ], [ 13396367.417143173515797, -128219.081075295995106, 0.0 ], [ 13396394.29201677069068, -128211.986852061643731, 0.0 ], [ 13396435.764139987528324, -128192.876739834697219, 0.0 ], [ 13396475.557397188618779, -128161.947224764400744, 0.0 ], [ 13396507.91189026273787, -128131.614406906272052, 0.0 ], [ 13396535.900972766801715, -128105.374205636384431, 0.0 ], [ 13396562.159301154315472, -128077.720346587870154, 0.0 ], [ 13396616.432514414191246, -128014.327223441243405, 0.0 ], [ 13396648.220460291951895, -127986.14072082444909, 0.0 ], [ 13396653.919628852978349, -127978.986520387872588, 0.0 ], [ 13396677.322700815275311, -128008.473843785046483, 0.0 ], [ 13396717.00813533551991, -127990.535199982303311, 0.0 ], [ 13396726.51224322244525, -128007.991219701027148, 0.0 ], [ 13396768.841271739453077, -127991.112439948119572, 0.0 ], [ 13396822.290396312251687, -127960.497826702834573, 0.0 ], [ 13396847.163262473419309, -127945.717474940727698, 0.0 ], [ 13396858.275923047214746, -127939.912160941617913, 0.0 ], [ 13396875.201698316261172, -127939.399296928721014, 0.0 ], [ 13396899.009312419220805, -127932.548454321193276, 0.0 ], [ 13396918.587587669491768, -127923.578845433454262, 0.0 ], [ 13396950.835579596459866, -127940.527458414173452, 0.0 ], [ 13396974.653102891519666, -127923.102582745748805, 0.0 ], [ 13396982.582380417734385, -127927.868313477723859, 0.0 ] ], [ [ 13397000.865791853517294, -128120.069218092496158, 0.0 ], [ 13396987.372863361611962, -128126.00447109201923, 0.0 ], [ 13396993.310155626386404, -128139.888443576157442, 0.0 ], [ 13396978.227876184508204, -128148.597886448929785, 0.0 ], [ 13396979.809790188446641, -128153.754206164885545, 0.0 ], [ 13396965.120850455015898, -128166.032747438526712, 0.0 ], [ 13396973.844614192843437, -128169.609655159452814, 0.0 ], [ 13396972.245222901925445, -128183.090037792455405, 0.0 ], [ 13396983.745795510709286, -128186.669548621517606, 0.0 ], [ 13396987.71935841999948, -128179.535805065039312, 0.0 ], [ 13397002.784536946564913, -128189.066545614870847, 0.0 ], [ 13397035.724059507250786, -128173.632892900859588, 0.0 ], [ 13397055.965508921071887, -128162.549122755881399, 0.0 ], [ 13397039.618038352578878, -128127.990334673129837, 0.0 ], [ 13397024.255823902785778, -128135.555643023209996, 0.0 ], [ 13397018.31964354403317, -128120.482090663863346, 0.0 ], [ 13397004.430770156905055, -128125.623922097307513, 0.0 ], [ 13397000.865791853517294, -128120.069218092496158, 0.0 ] ], [ [ 13396932.16683642193675, -128196.930879172694404, 0.0 ], [ 13396932.994427977129817, -128160.451280902125291, 0.0 ], [ 13396934.585637390613556, -128155.694461982013308, 0.0 ], [ 13396933.41082282550633, -128139.43580147495959, 0.0 ], [ 13396926.666777294129133, -128139.826008507501683, 0.0 ], [ 13396926.284962918609381, -128123.964617010293296, 0.0 ], [ 13396894.947464181110263, -128123.142205566982739, 0.0 ], [ 13396884.236927308142185, -128123.132170276134275, 0.0 ], [ 13396874.337526110932231, -128125.050215189054143, 0.0 ], [ 13396867.18682031519711, -128126.435690391430398, 0.0 ], [ 13396853.686489287763834, -128129.051428517122986, 0.0 ], [ 13396854.067183393985033, -128146.102387244725833, 0.0 ], [ 13396875.092683998867869, -128144.932515349617461, 0.0 ], [ 13396877.862795278429985, -128152.072573665253003, 0.0 ], [ 13396889.370796767994761, -128147.721575932911946, 0.0 ], [ 13396896.09959221072495, -128163.588910715829115, 0.0 ], [ 13396898.013687422499061, -128199.017730283027049, 0.0 ], [ 13396932.16683642193675, -128196.930879172694404, 0.0 ] ], [ [ 13396741.385571481660008, -128170.18479968693282, 0.0 ], [ 13396726.313358310610056, -128168.18803897043108, 0.0 ], [ 13396715.997286161407828, -128170.557515482418239, 0.0 ], [ 13396707.672833159565926, -128164.205305612500524, 0.0 ], [ 13396692.751409655436873, -128169.303508051714743, 0.0 ], [ 13396692.990238366648555, -128169.742887184111169, 0.0 ], [ 13396706.845215793699026, -128200.684842723509064, 0.0 ], [ 13396715.968996834009886, -128200.693401619806536, 0.0 ], [ 13396727.267420217394829, -128218.216681584148319, 0.0 ], [ 13396722.27650879137218, -128242.730983291359735, 0.0 ], [ 13396720.679336624220014, -128253.832187411389896, 0.0 ], [ 13396717.499391313642263, -128260.702304591846769, 0.0 ], [ 13396711.679837, -128262.282943079684628, 0.0 ], [ 13396698.984885642305017, -128263.328428209904814, 0.0 ], [ 13396687.876183273270726, -128264.904101497988449, 0.0 ], [ 13396670.951902221888304, -128263.830815538327442, 0.0 ], [ 13396647.685117231681943, -128257.993276482593501, 0.0 ], [ 13396633.412865344434977, -128248.991982247200212, 0.0 ], [ 13396618.081792689859867, -128241.047094601526624, 0.0 ], [ 13396604.338955523446202, -128231.517599471641006, 0.0 ], [ 13396589.535311125218868, -128225.159307676978642, 0.0 ], [ 13396577.905651377514005, -128218.275296066043666, 0.0 ], [ 13396565.737144963815808, -128221.964771070866846, 0.0 ], [ 13396556.209733478724957, -128229.357620996917831, 0.0 ], [ 13396548.79748210310936, -128237.281154813303147, 0.0 ], [ 13396537.67736523039639, -128251.016899551774259, 0.0 ], [ 13396532.378285093232989, -128261.585911507951096, 0.0 ], [ 13396524.960068205371499, -128275.853827262937557, 0.0 ], [ 13396514.371346436440945, -128286.946566757644177, 0.0 ], [ 13396498.491990584880114, -128299.620430986804422, 0.0 ], [ 13396489.493489805608988, -128307.013764970441116, 0.0 ], [ 13396479.966074662283063, -128314.40660054316686, 0.0 ], [ 13396467.267163671553135, -128319.681658092653379, 0.0 ], [ 13396449.807032249867916, -128326.009637284194469, 0.0 ], [ 13396449.790308395400643, -128326.016120252184919, 0.0 ], [ 13396437.913610121235251, -128330.620107569353422, 0.0 ], [ 13396430.759165428578854, -128333.393519124103477, 0.0 ], [ 13396447.139584120362997, -128350.327280971541768, 0.0 ], [ 13396461.957136509940028, -128341.882025909522781, 0.0 ], [ 13396472.001531697809696, -128347.178456749388715, 0.0 ], [ 13396490.496618853881955, -128365.171608324075351, 0.0 ], [ 13396544.402114931493998, -128411.74780583725078, 0.0 ], [ 13396568.221177825704217, -128392.737024336238392, 0.0 ], [ 13396578.80643292888999, -128385.345182817894965, 0.0 ], [ 13396590.45150631852448, -128375.839537949941587, 0.0 ], [ 13396596.801465893164277, -128372.673308610668755, 0.0 ], [ 13396605.795501908287406, -128370.038262845118879, 0.0 ], [ 13396617.961038112640381, -128369.520994551101467, 0.0 ], [ 13396625.365347817540169, -128370.056651267208508, 0.0 ], [ 13396641.208927229046822, -128395.449118472795817, 0.0 ], [ 13396606.273691264912486, -128423.966055523735122, 0.0 ], [ 13396598.872366052120924, -128420.258202165510738, 0.0 ], [ 13396584.573758924379945, -128439.277935428312048, 0.0 ], [ 13396594.089249771088362, -128444.57387531423592, 0.0 ], [ 13396591.437710365280509, -128451.973172431753483, 0.0 ], [ 13396606.768279826268554, -128460.446777064193157, 0.0 ], [ 13396619.47318253852427, -128448.82733669958543, 0.0 ], [ 13396633.214025994762778, -128460.47164342214819, 0.0 ], [ 13396639.03507580421865, -128457.304919725240325, 0.0 ], [ 13396655.954884447157383, -128463.136522022323334, 0.0 ], [ 13396670.247530380263925, -128450.461169189831708, 0.0 ], [ 13396679.779441995546222, -128438.310037541610654, 0.0 ], [ 13396684.020212026312947, -128428.268729506133241, 0.0 ], [ 13396686.674733119085431, -128417.697230073696119, 0.0 ], [ 13396689.854687852784991, -128410.82712182290561, 0.0 ], [ 13396693.561568535864353, -128406.072307264708797, 0.0 ], [ 13396696.751962553709745, -128388.099512074608356, 0.0 ], [ 13396694.643261712044477, -128380.695733632528572, 0.0 ], [ 13396677.200498580932617, -128368.519252018144471, 0.0 ], [ 13396676.684506935998797, -128354.772573099719011, 0.0 ], [ 13396677.2228650059551, -128344.72778263039072, 0.0 ], [ 13396681.464620806276798, -128333.629070186725585, 0.0 ], [ 13396688.877380767837167, -128325.176833794743288, 0.0 ], [ 13396698.932727785781026, -128318.841877166370978, 0.0 ], [ 13396711.098766770213842, -128317.79590077965986, 0.0 ], [ 13396724.321643326431513, -128317.808316057024058, 0.0 ], [ 13396740.18959366902709, -128317.294514032662846, 0.0 ], [ 13396752.886041548103094, -128314.662933077430353, 0.0 ], [ 13396766.112895710393786, -128310.445748403493781, 0.0 ], [ 13396776.690704185515642, -128310.984378023815225, 0.0 ], [ 13396787.802892107516527, -128305.707805753831053, 0.0 ], [ 13396796.802398588508368, -128297.257047211300232, 0.0 ], [ 13396799.454424010589719, -128289.329030699984287, 0.0 ], [ 13396801.581505745649338, -128277.170917886440293, 0.0 ], [ 13396801.589946202933788, -128268.183018869720399, 0.0 ], [ 13396802.126308478415012, -128260.25301578908693, 0.0 ], [ 13396780.959768326953053, -128270.807162690238329, 0.0 ], [ 13396769.867940859869123, -128254.407044783423771, 0.0 ], [ 13396778.335548214614391, -128249.127986256266013, 0.0 ], [ 13396782.5851124599576, -128229.702233964766492, 0.0 ], [ 13396780.2314229067415, -128201.546728617046028, 0.0 ], [ 13396773.890024622902274, -128195.592901336378418, 0.0 ], [ 13396773.118608960881829, -128172.197183101234259, 0.0 ], [ 13396754.872902236878872, -128170.197447407161235, 0.0 ], [ 13396741.385571481660008, -128170.18479968693282, 0.0 ] ] ] ] } }
]
}
