{
"type": "FeatureCollection",
"name": "SULTENG_PAKET_5",
"crs": { "type": "name", "properties": { "name": "urn:ogc:def:crs:ESRI::54034" } },
"features": [
{ "type": "Feature", "properties": { "WADMPR": "SULAWESI TENGAH", "WADMKK": "BUOL", "WADMKC": "BUKAL", "WADMKD": "UNONE", "POKTAN": "KT MEMBANGUN", "LUAS_HA": 341.00161052200002, "PAKET": "Paket Sulawesi Tengah 5" }, "geometry": { "type": "MultiPolygon", "coordinates": [ [ [ [ 13515841.899616818875074, 114069.100295745767653, 0.0 ], [ 13515878.055789731442928, 114066.338106220588088, 0.0 ], [ 13515895.717293448746204, 114068.581059667281806, 0.0 ], [ 13515918.51299411803484, 114059.144389581866562, 0.0 ], [ 13515925.727240528911352, 114020.25776650197804, 0.0 ], [ 13515926.818500023335218, 114014.375600010156631, 0.0 ], [ 13515927.855193145573139, 114006.207748956978321, 0.0 ], [ 13515830.178659677505493, 113993.425063621252775, 0.0 ], [ 13515837.330430191010237, 113921.345047962851822, 0.0 ], [ 13515937.090375930070877, 113933.445997070521116, 0.0 ], [ 13515946.463300012052059, 113859.599000004120171, 0.0 ], [ 13516034.007487215101719, 113902.517423085868359, 0.0 ], [ 13516039.527700003236532, 113905.223700011149049, 0.0 ], [ 13516044.361666180193424, 113907.593513372354209, 0.0 ], [ 13516045.758499994874001, 113908.278300015255809, 0.0 ], [ 13516047.79440001398325, 113902.758799991570413, 0.0 ], [ 13516051.9282, 113891.552299995906651, 0.0 ], [ 13516066.54759668931365, 113898.697938261553645, 0.0 ], [ 13516087.910800006240606, 113909.139800011180341, 0.0 ], [ 13516091.065200041979551, 113900.030000005848706, 0.0 ], [ 13516093.0280572026968, 113901.21175522916019, 0.0 ], [ 13516136.910400003194809, 113927.631500009447336, 0.0 ], [ 13516145.08464839309454, 113913.918030721135437, 0.0 ], [ 13516164.87380001693964, 113880.718899994157255, 0.0 ], [ 13516166.610600035637617, 113879.073799994774163, 0.0 ], [ 13516168.312000013887882, 113876.519800004549325, 0.0 ], [ 13516190.314400043338537, 113843.491800019517541, 0.0 ], [ 13516195.688300020992756, 113832.647900002077222, 0.0 ], [ 13516249.920200049877167, 113859.398400017060339, 0.0 ], [ 13516257.22189999371767, 113862.184100001119077, 0.0 ], [ 13516250.688300020992756, 113882.183200002647936, 0.0 ], [ 13516230.647900026291609, 113914.865100004710257, 0.0 ], [ 13516226.258900016546249, 113923.184700003825128, 0.0 ], [ 13516207.451961860060692, 113958.834662972018123, 0.0 ], [ 13516204.690300013870001, 113964.069600002840161, 0.0 ], [ 13516206.374700020998716, 113965.146300006657839, 0.0 ], [ 13516218.964500032365322, 113973.193900014273822, 0.0 ], [ 13516240.969798892736435, 113982.424574740231037, 0.0 ], [ 13516357.091970574110746, 113824.186074700206518, 0.0 ], [ 13516387.685655333101749, 113844.310611448250711, 0.0 ], [ 13516285.923407923430204, 113986.068602020852268, 0.0 ], [ 13516283.730702422559261, 113989.123107669875026, 0.0 ], [ 13516277.490511931478977, 113997.815887130796909, 0.0 ], [ 13516314.08150003477931, 114013.483600008301437, 0.0 ], [ 13516349.136313308030367, 114034.534712614491582, 0.0 ], [ 13516362.583246361464262, 114041.013777994550765, 0.0 ], [ 13516363.359019141644239, 114041.562906300649047, 0.0 ], [ 13516367.068496339023113, 114043.355321293696761, 0.0 ], [ 13516438.95131903141737, 113960.815299781039357, 0.0 ], [ 13516531.131678815931082, 113844.701819552108645, 0.0 ], [ 13516531.945946868509054, 113839.620329234749079, 0.0 ], [ 13516527.185225781053305, 113832.435800070874393, 0.0 ], [ 13516477.304676368832588, 113758.307001251727343, 0.0 ], [ 13516451.492144390940666, 113716.736857620999217, 0.0 ], [ 13516439.194683965295553, 113696.932243299670517, 0.0 ], [ 13516412.402092963457108, 113646.600374515168369, 0.0 ], [ 13516439.317110504955053, 113622.071858555078506, 0.0 ], [ 13516514.701295550912619, 113553.371831826865673, 0.0 ], [ 13516530.239852450788021, 113534.547931868582964, 0.0 ], [ 13516634.597793456166983, 113408.125391465611756, 0.0 ], [ 13516645.994575466960669, 113393.58743211813271, 0.0 ], [ 13516345.611613132059574, 113254.151968933641911, 0.0 ], [ 13515827.004509698599577, 113004.830835348926485, 0.0 ], [ 13515847.234049670398235, 112971.434187218546867, 0.0 ], [ 13515938.23550084233284, 112816.812449228018522, 0.0 ], [ 13515549.06178043037653, 112592.00243669655174, 0.0 ], [ 13515264.442924346774817, 112975.059788231737912, 0.0 ], [ 13515235.405200850218534, 112958.432488990016282, 0.0 ], [ 13515058.994862735271454, 112832.949759427458048, 0.0 ], [ 13515342.238423727452755, 112472.528842138126493, 0.0 ], [ 13515148.061334513127804, 112360.360455902293324, 0.0 ], [ 13515003.436642926186323, 112148.854604441672564, 0.0 ], [ 13514711.008695140480995, 111989.435934442095459, 0.0 ], [ 13514584.66075024753809, 111908.937371861189604, 0.0 ], [ 13514503.951782323420048, 111816.962916743010283, 0.0 ], [ 13514426.325014539062977, 111792.158303879201412, 0.0 ], [ 13514402.325452350080013, 111792.158303879201412, 0.0 ], [ 13514324.70475097745657, 111824.72192663140595, 0.0 ], [ 13514319.779680486768484, 111852.191516882739961, 0.0 ], [ 13514306.185065232217312, 111862.692729636095464, 0.0 ], [ 13514265.443264439702034, 111855.948909569531679, 0.0 ], [ 13514261.280244905501604, 111851.178305652923882, 0.0 ], [ 13514256.186588995158672, 111818.556839583441615, 0.0 ], [ 13514152.117515753954649, 111681.946187394671142, 0.0 ], [ 13514106.483271546661854, 111665.010280500166118, 0.0 ], [ 13514037.286114506423473, 111658.592613119632006, 0.0 ], [ 13513993.261783309280872, 111669.611089174635708, 0.0 ], [ 13513912.711837895214558, 111705.291173880919814, 0.0 ], [ 13513858.174868356436491, 111747.174080518074334, 0.0 ], [ 13513814.046096682548523, 111795.015384517610073, 0.0 ], [ 13513811.382100112736225, 111799.242554522119462, 0.0 ], [ 13513806.287216659635305, 111807.113680160604417, 0.0 ], [ 13513796.115809790790081, 111821.634994788095355, 0.0 ], [ 13513785.520594324916601, 111827.317248191684484, 0.0 ], [ 13513758.184938307851553, 111829.632240273058414, 0.0 ], [ 13513736.070334877818823, 111820.738039962016046, 0.0 ], [ 13513715.653977405279875, 111823.062134830281138, 0.0 ], [ 13513683.73026205599308, 111825.069212512113154, 0.0 ], [ 13513674.729957517236471, 111830.559552456252277, 0.0 ], [ 13513654.863928429782391, 111830.954153381288052, 0.0 ], [ 13513641.752349246293306, 111823.062134830281138, 0.0 ], [ 13513641.914192229509354, 111809.397990237921476, 0.0 ], [ 13513629.581371746957302, 111792.716877059079707, 0.0 ], [ 13513628.794948842376471, 111791.015226332470775, 0.0 ], [ 13513623.339189134538174, 111779.210130646824837, 0.0 ], [ 13513625.230012279003859, 111766.993673519231379, 0.0 ], [ 13513625.862374808639288, 111762.908029451966286, 0.0 ], [ 13513626.773923199623823, 111757.018588019534945, 0.0 ], [ 13513627.69936953112483, 111751.039353025145829, 0.0 ], [ 13513629.413559626787901, 111739.96410717908293, 0.0 ], [ 13513625.588727548718452, 111735.650440838187933, 0.0 ], [ 13513599.197472330182791, 111721.217661017552018, 0.0 ], [ 13513591.427533254027367, 111720.793833639472723, 0.0 ], [ 13513577.222739033401012, 111733.590333474799991, 0.0 ], [ 13513573.974926318973303, 111735.663922088220716, 0.0 ], [ 13513534.970907222479582, 111751.000795973464847, 0.0 ], [ 13513510.271243240684271, 111784.413163742050529, 0.0 ], [ 13513507.622439339756966, 111803.354009975679219, 0.0 ], [ 13513502.324831571429968, 111886.483268055133522, 0.0 ], [ 13513512.92004707083106, 111949.093266486190259, 0.0 ], [ 13513513.979568623006344, 112014.333925821818411, 0.0 ], [ 13513484.842726014554501, 112092.727928584441543, 0.0 ], [ 13513468.420141972601414, 112119.560771335847676, 0.0 ], [ 13513403.789327420294285, 112150.076550896279514, 0.0 ], [ 13513331.741861991584301, 112178.48779165558517, 0.0 ], [ 13513324.318199574947357, 112181.803095773793757, 0.0 ], [ 13513315.59675145149231, 112267.458085970021784, 0.0 ], [ 13513436.660949043929577, 112367.292910841293633, 0.0 ], [ 13513437.761201553046703, 112367.454378014430404, 0.0 ], [ 13513438.772160924971104, 112367.602741000242531, 0.0 ], [ 13513562.467148654162884, 112385.755555064417422, 0.0 ], [ 13513565.01237428933382, 112384.539651328697801, 0.0 ], [ 13513652.163234006613493, 112342.905991770327091, 0.0 ], [ 13513676.378837909549475, 112309.106250601820648, 0.0 ], [ 13513717.063218962401152, 112289.497531612403691, 0.0 ], [ 13513739.362578701227903, 112288.293906996957958, 0.0 ], [ 13513842.458840902894735, 112348.566289564594626, 0.0 ], [ 13513891.726592976599932, 112421.961950703524053, 0.0 ], [ 13513901.262286938726902, 112513.509206381626427, 0.0 ], [ 13513900.467645764350891, 112559.282825633883476, 0.0 ], [ 13513900.467645764350891, 112570.331629446707666, 0.0 ], [ 13513872.488714531064034, 112629.491809741593897, 0.0 ], [ 13513877.667657166719437, 112641.747200186364353, 0.0 ], [ 13513882.559159308671951, 112653.32239458616823, 0.0 ], [ 13513897.065335225313902, 112687.649641308933496, 0.0 ], [ 13513911.006533842533827, 112720.639932027086616, 0.0 ], [ 13513919.198725268244743, 112730.42683020606637, 0.0 ], [ 13513954.626477092504501, 112745.553161576390266, 0.0 ], [ 13513958.546255420893431, 112749.866957288235426, 0.0 ], [ 13513967.371335037052631, 112759.579136712476611, 0.0 ], [ 13513985.834113255143166, 112779.897799116559327, 0.0 ], [ 13513991.378630843013525, 112785.999653266742826, 0.0 ], [ 13513992.058291576802731, 112786.397907210513949, 0.0 ], [ 13514024.488679300993681, 112805.400814343243837, 0.0 ], [ 13514032.39333688467741, 112808.12669257260859, 0.0 ], [ 13514042.271860331296921, 112811.533247732557356, 0.0 ], [ 13514048.661756701767445, 112818.176863326691091, 0.0 ], [ 13514081.935453709214926, 112852.771735975518823, 0.0 ], [ 13514088.859707247465849, 112874.695911673828959, 0.0 ], [ 13514104.028726276010275, 112892.694790375418961, 0.0 ], [ 13514110.504309065639973, 112900.37842667941004, 0.0 ], [ 13514171.522772472351789, 112972.78019952122122, 0.0 ], [ 13514172.935495290905237, 112974.456472959369421, 0.0 ], [ 13514396.756595298647881, 113159.028749480843544, 0.0 ], [ 13514397.815790813416243, 113158.651335357688367, 0.0 ], [ 13514420.733683340251446, 113150.485197497531772, 0.0 ], [ 13514424.56666611135006, 113119.726798913441598, 0.0 ], [ 13514409.870155718177557, 113089.129589525982738, 0.0 ], [ 13514493.510233532637358, 113049.509421902708709, 0.0 ], [ 13514513.854128822684288, 113039.872552081011236, 0.0 ], [ 13514532.046234484761953, 113031.2549814209342, 0.0 ], [ 13514561.183077093213797, 113067.426612564362586, 0.0 ], [ 13514549.136683579534292, 113073.923562446609139, 0.0 ], [ 13514546.322335079312325, 113075.441417657770216, 0.0 ], [ 13514542.270609959959984, 113077.626623957417905, 0.0 ], [ 13514540.904232870787382, 113100.189858973957598, 0.0 ], [ 13514561.163211043924093, 113110.575417821295559, 0.0 ], [ 13514636.531000137329102, 113209.783524463884532, 0.0 ], [ 13514636.686956182122231, 113227.905407566577196, 0.0 ], [ 13514580.15877715498209, 113281.477889558300376, 0.0 ], [ 13514597.917410638183355, 113324.914324022829533, 0.0 ], [ 13514640.9003338329494, 113360.359820336103439, 0.0 ], [ 13514670.275806337594986, 113361.582694163545966, 0.0 ], [ 13514786.973741434514523, 113300.640816270373762, 0.0 ], [ 13514809.418905586004257, 113282.94919865578413, 0.0 ], [ 13514871.483222208917141, 113190.313594975508749, 0.0 ], [ 13514884.267129149287939, 113181.539691640995443, 0.0 ], [ 13514952.077845212072134, 113162.458238430321217, 0.0 ], [ 13514959.860119007527828, 113163.800395931117237, 0.0 ], [ 13514994.953407071530819, 113180.645987037569284, 0.0 ], [ 13515018.130440950393677, 113223.394260466098785, 0.0 ], [ 13514995.615608051419258, 113268.773191370069981, 0.0 ], [ 13514948.59933926910162, 113337.170409901067615, 0.0 ], [ 13514905.078613840043545, 113382.407601949758828, 0.0 ], [ 13514887.086911212652922, 113400.928472331725061, 0.0 ], [ 13514869.797423984855413, 113421.351584271527827, 0.0 ], [ 13514861.85101231560111, 113469.361151538789272, 0.0 ], [ 13514861.85101231560111, 113502.244413139298558, 0.0 ], [ 13514861.243479274213314, 113504.764377454295754, 0.0 ], [ 13514884.173863437026739, 113539.733244442380965, 0.0 ], [ 13514910.323248833417892, 113579.611092704348266, 0.0 ], [ 13514914.50099478289485, 113585.982160945422947, 0.0 ], [ 13515171.759584411978722, 113798.128030491992831, 0.0 ], [ 13515175.816973850131035, 113797.680297716520727, 0.0 ], [ 13515199.772166702896357, 113795.036843083798885, 0.0 ], [ 13515202.510203659534454, 113796.336322220042348, 0.0 ], [ 13515237.186521463096142, 113812.793788779526949, 0.0 ], [ 13515246.35462724417448, 113821.343888009898365, 0.0 ], [ 13515257.157706618309021, 113824.09400359261781, 0.0 ], [ 13515276.750589832663536, 113823.025722786784172, 0.0 ], [ 13515292.62562158331275, 113814.029871446080506, 0.0 ], [ 13515301.621472917497158, 113806.092355593107641, 0.0 ], [ 13515308.500653333961964, 113792.333994729444385, 0.0 ], [ 13515309.55898879095912, 113778.046466151252389, 0.0 ], [ 13515309.55898879095912, 113743.650564031675458, 0.0 ], [ 13515309.55898879095912, 113706.079655546694994, 0.0 ], [ 13515310.617324236780405, 113684.383778830058873, 0.0 ], [ 13515314.850666027516127, 113664.804573004133999, 0.0 ], [ 13515331.254865519702435, 113638.346186751499772, 0.0 ], [ 13515359.829922687262297, 113620.883651825599372, 0.0 ], [ 13515401.501880995929241, 113616.650310017168522, 0.0 ], [ 13515437.220702461898327, 113639.139938323758543, 0.0 ], [ 13515468.970765925943851, 113705.285903956741095, 0.0 ], [ 13515469.632225591689348, 113773.416248554363847, 0.0 ], [ 13515443.46212325245142, 113856.199652361683547, 0.0 ], [ 13515416.642984014004469, 113887.109885375015438, 0.0 ], [ 13515369.722749650478363, 113931.532310197129846, 0.0 ], [ 13515367.797355558723211, 113967.487790115177631, 0.0 ], [ 13515575.080972798168659, 114159.303135678172112, 0.0 ], [ 13515632.018889755010605, 114166.842844462022185, 0.0 ], [ 13515670.514379471540451, 114148.851435321383178, 0.0 ], [ 13515687.739231280982494, 114126.711672742851079, 0.0 ], [ 13515790.24794128164649, 114087.251826491206884, 0.0 ], [ 13515841.899616818875074, 114069.100295745767653, 0.0 ] ] ], [ [ [ 13517226.689652472734451, 115024.00426825415343, 0.0 ], [ 13517242.709557399153709, 115044.27981392852962, 0.0 ], [ 13517296.225938305258751, 115105.192530666477978, 0.0 ], [ 13517338.981406956911087, 115095.933551343157887, 0.0 ], [ 13517389.1554204672575, 115151.462461577728391, 0.0 ], [ 13517447.528252623975277, 115236.342221581377089, 0.0 ], [ 13517493.052286207675934, 115313.114159567281604, 0.0 ], [ 13517506.317797549068928, 115321.897214547730982, 0.0 ], [ 13517561.035653948783875, 115327.550911116413772, 0.0 ], [ 13517580.415442734956741, 115329.560351845808327, 0.0 ], [ 13517590.623959928750992, 115330.618846875615418, 0.0 ], [ 13517597.63747588545084, 115317.399363615550101, 0.0 ], [ 13517603.928385071456432, 115302.273139838129282, 0.0 ], [ 13517603.266184106469154, 115292.07937996648252, 0.0 ], [ 13517598.630777329206467, 115278.926141003146768, 0.0 ], [ 13517585.71785843372345, 115273.664845296181738, 0.0 ], [ 13517572.142738565802574, 115268.403549486771226, 0.0 ], [ 13517553.601111471652985, 115257.880957663990557, 0.0 ], [ 13517541.681494027376175, 115249.331351576372981, 0.0 ], [ 13517530.755178026854992, 115244.070055406540632, 0.0 ], [ 13517525.788670748472214, 115233.876293906010687, 0.0 ], [ 13517511.816230311989784, 115215.13292517978698, 0.0 ], [ 13517499.499292306602001, 115204.08420211263001, 0.0 ], [ 13517484.798430815339088, 115197.376048647798598, 0.0 ], [ 13517465.329722300171852, 115193.03547868411988, 0.0 ], [ 13517457.780631244182587, 115181.986754927784204, 0.0 ], [ 13517454.602066613733768, 115168.965044353157282, 0.0 ], [ 13517451.820822559297085, 115162.651487532071769, 0.0 ], [ 13517438.70924336463213, 115159.889306398108602, 0.0 ], [ 13517424.405702449381351, 115152.39195748232305, 0.0 ], [ 13517420.564936809241772, 115146.604530126787722, 0.0 ], [ 13517404.936993949115276, 115143.184686658903956, 0.0 ], [ 13517400.963788136839867, 115137.397259156219661, 0.0 ], [ 13517401.228668510913849, 115125.559338996186852, 0.0 ], [ 13517403.347711615264416, 115116.089002595283091, 0.0 ], [ 13517403.877472408115864, 115108.723185199312866, 0.0 ], [ 13517401.758429281413555, 115098.200588678009808, 0.0 ], [ 13517390.898333393037319, 115091.360900782048702, 0.0 ], [ 13517361.761490784585476, 115075.313940177671611, 0.0 ], [ 13517332.624648168683052, 115056.373264447785914, 0.0 ], [ 13517312.228858329355717, 115044.009211699478328, 0.0 ], [ 13517300.839001685380936, 115015.072065287269652, 0.0 ], [ 13517290.508666530251503, 114984.819591538049281, 0.0 ], [ 13517277.794407926499844, 114941.413863903842866, 0.0 ], [ 13517271.437278635799885, 114921.947050990536809, 0.0 ], [ 13517254.220053441822529, 114863.546605973504484, 0.0 ], [ 13517240.446273289620876, 114810.67051914986223, 0.0 ], [ 13517224.46539231389761, 114758.108490346930921, 0.0 ], [ 13517149.918154418468475, 114830.564952050335705, 0.0 ], [ 13517140.35167683660984, 114890.49865032825619, 0.0 ], [ 13517148.867730937898159, 114906.668681192211807, 0.0 ], [ 13517147.981827609241009, 114945.088005479425192, 0.0 ], [ 13517204.798670738935471, 115014.142569026909769, 0.0 ], [ 13517226.689652472734451, 115024.00426825415343, 0.0 ] ] ], [ [ [ 13517683.007861718535423, 115303.867860163562, 0.0 ], [ 13517664.697870589792728, 115278.746060119941831, 0.0 ], [ 13517631.61483109742403, 115289.569316245615482, 0.0 ], [ 13517560.366460792720318, 115140.818337512202561, 0.0 ], [ 13517682.263734549283981, 115087.932318165898323, 0.0 ], [ 13517554.905913278460503, 114809.767176654189825, 0.0 ], [ 13517498.086339049041271, 114685.666170435957611, 0.0 ], [ 13517261.303183883428574, 114741.373670246452093, 0.0 ], [ 13517244.544218190014362, 114745.316518273204565, 0.0 ], [ 13517267.904159992933273, 114825.019871259108186, 0.0 ], [ 13517272.112723655998707, 114837.963525121100247, 0.0 ], [ 13517282.178178325295448, 114868.742141424678266, 0.0 ], [ 13517294.892436966300011, 114916.09385366551578, 0.0 ], [ 13517310.255499422550201, 114961.341039510443807, 0.0 ], [ 13517329.326887309551239, 115017.900013778358698, 0.0 ], [ 13517350.782198719680309, 115046.047965096309781, 0.0 ], [ 13517387.60057257860899, 115056.833628116175532, 0.0 ], [ 13517411.439807444810867, 115074.722044080495834, 0.0 ], [ 13517435.543922729790211, 115085.24464129190892, 0.0 ], [ 13517438.192726612091064, 115096.556432949379086, 0.0 ], [ 13517433.424879625439644, 115106.815964610315859, 0.0 ], [ 13517426.802869915962219, 115120.495339711196721, 0.0 ], [ 13517429.981434591114521, 115131.807130255736411, 0.0 ], [ 13517440.576650090515614, 115138.64681738615036, 0.0 ], [ 13517458.747444666922092, 115143.579283979721367, 0.0 ], [ 13517472.733129143714905, 115152.418263959698379, 0.0 ], [ 13517487.56643084436655, 115159.573628546670079, 0.0 ], [ 13517489.897378280758858, 115174.305261068046093, 0.0 ], [ 13517497.102124772965908, 115184.617403459735215, 0.0 ], [ 13517514.690182507038116, 115191.772767414338887, 0.0 ], [ 13517527.77527367323637, 115212.50227683968842, 0.0 ], [ 13517534.728383868932724, 115225.326687227003276, 0.0 ], [ 13517551.614508524537086, 115235.191617976874113, 0.0 ], [ 13517568.169532760977745, 115242.754731358028948, 0.0 ], [ 13517590.353265225887299, 115254.263816652819514, 0.0 ], [ 13517604.590586043894291, 115261.498098629526794, 0.0 ], [ 13517609.426154732704163, 115265.246331899426877, 0.0 ], [ 13517622.518804296851158, 115292.97592472564429, 0.0 ], [ 13517622.138911709189415, 115303.917294641025364, 0.0 ], [ 13517607.239389926195145, 115329.894939311780035, 0.0 ], [ 13517605.252787001430988, 115344.692330990917981, 0.0 ], [ 13517597.688124194741249, 115352.303901181556284, 0.0 ], [ 13517635.495873816311359, 115402.08669450879097, 0.0 ], [ 13517712.121309489011765, 115343.812289531342685, 0.0 ], [ 13517683.007861718535423, 115303.867860163562, 0.0 ] ] ] ] } },
{ "type": "Feature", "properties": { "WADMPR": "SULAWESI TENGAH", "WADMKK": "BUOL", "WADMKC": "BUKAL", "WADMKD": "YUGUT", "POKTAN": "KT NUSANTARA", "LUAS_HA": 127.00376578300001, "PAKET": "Paket Sulawesi Tengah 5" }, "geometry": { "type": "MultiPolygon", "coordinates": [ [ [ [ 13513381.853342812508345, 112908.855621417984366, 0.0 ], [ 13513391.653917133808136, 112870.710975538939238, 0.0 ], [ 13513383.442625146359205, 112848.876452310942113, 0.0 ], [ 13513366.653658322989941, 112836.608573772013187, 0.0 ], [ 13513294.707695286720991, 112800.998336588963866, 0.0 ], [ 13513292.853532593697309, 112765.221278990618885, 0.0 ], [ 13513307.157073508948088, 112742.334482934325933, 0.0 ], [ 13513327.215849857777357, 112732.1770697562024, 0.0 ], [ 13513339.737361200153828, 112729.970351149328053, 0.0 ], [ 13513349.719618253409863, 112722.166803593747318, 0.0 ], [ 13513358.286720182746649, 112715.469541849568486, 0.0 ], [ 13513368.079562645405531, 112704.979019652120769, 0.0 ], [ 13513372.317648854106665, 112688.668886598199606, 0.0 ], [ 13513373.112290017306805, 112667.097419200465083, 0.0 ], [ 13513355.894434038549662, 112644.051323046907783, 0.0 ], [ 13513324.181156735867262, 112597.635970170609653, 0.0 ], [ 13513275.860915075987577, 112565.39309757295996, 0.0 ], [ 13513271.925019286572933, 112557.505401263944805, 0.0 ], [ 13513265.857664600014687, 112530.640322772786021, 0.0 ], [ 13513268.446776356548071, 112514.594883695244789, 0.0 ], [ 13513280.07857221364975, 112497.407531021162868, 0.0 ], [ 13513297.163357209414244, 112485.569524579681456, 0.0 ], [ 13513315.101709984242916, 112473.78344904910773, 0.0 ], [ 13513350.152967400848866, 112450.753642876632512, 0.0 ], [ 13513354.15193147584796, 112449.965862580575049, 0.0 ], [ 13513367.953989833593369, 112448.42900522891432, 0.0 ], [ 13513372.55293196067214, 112447.913255304098129, 0.0 ], [ 13513382.934587668627501, 112447.382137930952013, 0.0 ], [ 13513386.320147354155779, 112449.061282566748559, 0.0 ], [ 13513390.939460948109627, 112448.513028780929744, 0.0 ], [ 13513407.544397383928299, 112451.999577141366899, 0.0 ], [ 13513422.716660939157009, 112455.185306306928396, 0.0 ], [ 13513434.636278375983238, 112487.937125900760293, 0.0 ], [ 13513422.692900404334068, 112520.664499988779426, 0.0 ], [ 13513422.911197908222675, 112528.137067968957126, 0.0 ], [ 13513423.264192037284374, 112532.746091193519533, 0.0 ], [ 13513425.365458752959967, 112536.787955432198942, 0.0 ], [ 13513427.326685529202223, 112543.728742470964789, 0.0 ], [ 13513435.402246680110693, 112555.31127729639411, 0.0 ], [ 13513439.1346778832376, 112561.683688970282674, 0.0 ], [ 13513445.266266763210297, 112566.288400036282837, 0.0 ], [ 13513449.593589328229427, 112571.566515479236841, 0.0 ], [ 13513453.793005786836147, 112579.777936725877225, 0.0 ], [ 13513455.91842881962657, 112583.84235414583236, 0.0 ], [ 13513457.559723388403654, 112586.140618932433426, 0.0 ], [ 13513461.232264723628759, 112595.379448651336133, 0.0 ], [ 13513461.112707611173391, 112598.285115061327815, 0.0 ], [ 13513464.111877284944057, 112608.811936714686453, 0.0 ], [ 13513467.864568661898375, 112615.256099128164351, 0.0 ], [ 13513472.743256669491529, 112622.302135209552944, 0.0 ], [ 13513493.439724393188953, 112631.966177267953753, 0.0 ], [ 13513514.895035773515701, 112615.392974245361984, 0.0 ], [ 13513560.166460275650024, 112581.031766879372299, 0.0 ], [ 13513566.500094022601843, 112579.717572468332946, 0.0 ], [ 13513593.167190305888653, 112529.370146461762488, 0.0 ], [ 13513585.316558592021465, 112491.285387718118727, 0.0 ], [ 13513553.031847968697548, 112464.76753256842494, 0.0 ], [ 13513565.01237428933382, 112384.539651328697801, 0.0 ], [ 13513562.467148654162884, 112385.755555064417422, 0.0 ], [ 13513438.772160924971104, 112367.602741000242531, 0.0 ], [ 13513437.761201553046703, 112367.454378014430404, 0.0 ], [ 13513436.660949043929577, 112367.292910841293633, 0.0 ], [ 13513435.304366238415241, 112368.069102577865124, 0.0 ], [ 13513315.354198195040226, 112269.544987036846578, 0.0 ], [ 13513315.59675145149231, 112267.458085970021784, 0.0 ], [ 13513324.318199574947357, 112181.803095773793757, 0.0 ], [ 13513295.185142189264297, 112165.169789358042181, 0.0 ], [ 13513249.625715553760529, 112155.173241555690765, 0.0 ], [ 13513189.348773237317801, 112155.022302309051156, 0.0 ], [ 13513185.980154134333134, 112152.329311960376799, 0.0 ], [ 13513182.811399854719639, 112157.65206668805331, 0.0 ], [ 13513159.207691591233015, 112203.071171714924276, 0.0 ], [ 13513127.145146291702986, 112219.409825698472559, 0.0 ], [ 13513120.886947870254517, 112216.162588273175061, 0.0 ], [ 13513116.049225475639105, 112212.231056777760386, 0.0 ], [ 13513110.543586082756519, 112209.371489762328565, 0.0 ], [ 13513102.911633115261793, 112205.352949521504343, 0.0 ], [ 13513096.31918153911829, 112201.918152298778296, 0.0 ], [ 13513084.651006452739239, 112197.263575257733464, 0.0 ], [ 13513073.880289141088724, 112195.880723295733333, 0.0 ], [ 13513060.504361759871244, 112191.703864728100598, 0.0 ], [ 13513053.53342392668128, 112190.994086208753288, 0.0 ], [ 13513048.730767127126455, 112191.434989124536514, 0.0 ], [ 13513043.228467330336571, 112192.948962179943919, 0.0 ], [ 13513036.129846051335335, 112194.930924687534571, 0.0 ], [ 13513029.725635748356581, 112195.839153719134629, 0.0 ], [ 13513023.715051185339689, 112198.400105331093073, 0.0 ], [ 13513019.492814194411039, 112200.464211959391832, 0.0 ], [ 13513015.266681056469679, 112202.530087489634752, 0.0 ], [ 13513008.144237406551838, 112204.520894540473819, 0.0 ], [ 13513003.908196799457073, 112206.590971251949668, 0.0 ], [ 13512999.321833789348602, 112206.997269667685032, 0.0 ], [ 13512991.350356370210648, 112205.685506182722747, 0.0 ], [ 13512986.946779951453209, 112203.374967133626342, 0.0 ], [ 13512983.344592571258545, 112204.376506593078375, 0.0 ], [ 13512977.88648658618331, 112201.482224482111633, 0.0 ], [ 13512970.446671064943075, 112194.714121613651514, 0.0 ], [ 13512963.197879783809185, 112185.241895116865635, 0.0 ], [ 13512959.44095828384161, 112181.868899312801659, 0.0 ], [ 13512955.265141543000937, 112176.850698701106012, 0.0 ], [ 13512950.399032637476921, 112172.905015456490219, 0.0 ], [ 13512944.855878602713346, 112170.027427265420556, 0.0 ], [ 13512940.072480082511902, 112166.07378379907459, 0.0 ], [ 13512930.202003493905067, 112160.883997882716358, 0.0 ], [ 13512920.332862712442875, 112155.694875239394605, 0.0 ], [ 13512915.834330774843693, 112149.040756229311228, 0.0 ], [ 13512910.338042229413986, 112146.161288380622864, 0.0 ], [ 13512906.299610067158937, 112144.076492545194924, 0.0 ], [ 13512879.976746872067451, 112171.78329477738589, 0.0 ], [ 13512822.56070276722312, 112154.021899426355958, 0.0 ], [ 13512820.200869426131248, 112154.878077062778175, 0.0 ], [ 13512813.796547770500183, 112155.763420815579593, 0.0 ], [ 13512801.656266774982214, 112158.151571472175419, 0.0 ], [ 13512793.21079096198082, 112159.550343831069767, 0.0 ], [ 13512785.078456874936819, 112162.613115757703781, 0.0 ], [ 13512769.89870847389102, 112166.626902502961457, 0.0 ], [ 13512764.975158732384443, 112167.051221831701696, 0.0 ], [ 13512738.854036390781403, 112192.938436037860811, 0.0 ], [ 13512696.653030648827553, 112234.761538463644683, 0.0 ], [ 13512716.164528679102659, 112255.192834049463272, 0.0 ], [ 13512658.271862488240004, 112308.709662943147123, 0.0 ], [ 13512641.98171865940094, 112316.996271495707333, 0.0 ], [ 13512661.450427122414112, 112424.722165467217565, 0.0 ], [ 13512724.147614877671003, 112426.537326780147851, 0.0 ], [ 13512745.265040677040815, 112424.529657017439604, 0.0 ], [ 13512764.515385925769806, 112371.608963094651699, 0.0 ], [ 13512794.234965413808823, 112346.354540237225592, 0.0 ], [ 13512805.570816662162542, 112339.210735619999468, 0.0 ], [ 13512813.487524878233671, 112334.197512255981565, 0.0 ], [ 13512821.572102900594473, 112330.96923737693578, 0.0 ], [ 13512831.725998923182487, 112327.154013460502028, 0.0 ], [ 13512838.014548286795616, 112324.441488595679402, 0.0 ], [ 13512842.484025854617357, 112322.252895094454288, 0.0 ], [ 13512853.715160589665174, 112319.046621024608612, 0.0 ], [ 13512859.753909006714821, 112319.147228222340345, 0.0 ], [ 13512867.646238271147013, 112318.712406118400395, 0.0 ], [ 13512873.257074579596519, 112317.111867180094123, 0.0 ], [ 13512883.448262631893158, 112317.839997971430421, 0.0 ], [ 13512892.008063554763794, 112316.300707798451185, 0.0 ], [ 13512903.118639290332794, 112314.932781539857388, 0.0 ], [ 13512906.144191730767488, 112314.976009450852871, 0.0 ], [ 13512916.675349518656731, 112312.868454437702894, 0.0 ], [ 13512927.183464169502258, 112310.765432244166732, 0.0 ], [ 13512932.045120298862457, 112310.279643185436726, 0.0 ], [ 13512937.379206027835608, 112308.748931410722435, 0.0 ], [ 13512948.85354183614254, 112321.044377218931913, 0.0 ], [ 13512948.766183491796255, 112327.112071889452636, 0.0 ], [ 13512942.464170418679714, 112345.693083924241364, 0.0 ], [ 13512930.697902351617813, 112360.388751342892647, 0.0 ], [ 13512897.291094865649939, 112374.370946267619729, 0.0 ], [ 13512883.715974986553192, 112405.281304955482483, 0.0 ], [ 13512885.742021035403013, 112421.781136633828282, 0.0 ], [ 13512887.026979830116034, 112432.245658298954368, 0.0 ], [ 13512881.729372061789036, 112449.345003297552466, 0.0 ], [ 13512860.588639181107283, 112463.210279016755521, 0.0 ], [ 13512846.632720742374659, 112472.363351051695645, 0.0 ], [ 13512813.853772785514593, 112510.836871955543756, 0.0 ], [ 13512816.171476155519485, 112567.39622869156301, 0.0 ], [ 13512793.325542736798525, 112611.131074116565287, 0.0 ], [ 13512767.83080542460084, 112658.483081311918795, 0.0 ], [ 13512775.44611656293273, 112669.334582122042775, 0.0 ], [ 13512785.710231583565474, 112672.951748974621296, 0.0 ], [ 13512792.663341768085957, 112665.717415225692093, 0.0 ], [ 13512804.582959197461605, 112653.879414222203195, 0.0 ], [ 13512831.733198925852776, 112623.626743281260133, 0.0 ], [ 13512843.652816362679005, 112615.734741753898561, 0.0 ], [ 13512870.140855129808187, 112591.729902718216181, 0.0 ], [ 13512875.257726307958364, 112586.586093373596668, 0.0 ], [ 13512897.291094865649939, 112564.436727665364742, 0.0 ], [ 13512926.096836976706982, 112519.386542708612978, 0.0 ], [ 13512957.220282509922981, 112485.845525513403118, 0.0 ], [ 13513029.400188148021698, 112441.452998009510338, 0.0 ], [ 13513090.966829102486372, 112445.463415559381247, 0.0 ], [ 13513097.744182333350182, 112448.995169279165566, 0.0 ], [ 13513106.088357400149107, 112454.850727303884923, 0.0 ], [ 13513109.672288402915001, 112461.229884714819491, 0.0 ], [ 13513112.108484655618668, 112466.129321914166212, 0.0 ], [ 13513098.663098461925983, 112507.985885543748736, 0.0 ], [ 13513083.763576671481133, 112565.860576498322189, 0.0 ], [ 13513077.803767941892147, 112588.221250101923943, 0.0 ], [ 13513042.376016143709421, 112643.465261362493038, 0.0 ], [ 13513039.396111756563187, 112667.798930356279016, 0.0 ], [ 13512991.413029562681913, 112686.029451025649905, 0.0 ], [ 13512936.106004633009434, 112711.073397137224674, 0.0 ], [ 13512930.384588301181793, 112731.27691544778645, 0.0 ], [ 13512936.529813256114721, 112753.795418903231621, 0.0 ], [ 13512946.701220136135817, 112760.740377637557685, 0.0 ], [ 13512960.898808903992176, 112757.162671639584005, 0.0 ], [ 13513002.687355972826481, 112768.773243255913258, 0.0 ], [ 13513000.520299416035414, 112780.457151931710541, 0.0 ], [ 13512999.982626266777515, 112786.647693050093949, 0.0 ], [ 13512998.547606736421585, 112794.272935110144317, 0.0 ], [ 13512998.175020404160023, 112800.336224636994302, 0.0 ], [ 13513000.753179803490639, 112806.515267461538315, 0.0 ], [ 13513007.239543884992599, 112808.482301418669522, 0.0 ], [ 13513013.521080132573843, 112805.476029622368515, 0.0 ], [ 13513019.907924566417933, 112802.387945459224284, 0.0 ], [ 13513026.403416875749826, 112799.177584977820516, 0.0 ], [ 13513029.056605633348227, 112797.268040720373392, 0.0 ], [ 13513036.270999144762754, 112792.806393581442535, 0.0 ], [ 13513043.918425552546978, 112790.224219152703881, 0.0 ], [ 13513049.156118910759687, 112786.462951927445829, 0.0 ], [ 13513057.459773685783148, 112782.683995530940592, 0.0 ], [ 13513066.210710175335407, 112780.763174335472286, 0.0 ], [ 13513072.603788532316685, 112780.462127017788589, 0.0 ], [ 13513075.806784238666296, 112780.300160681828856, 0.0 ], [ 13513084.413450688123703, 112781.333870734088123, 0.0 ], [ 13513095.340460568666458, 112780.772350571118295, 0.0 ], [ 13513112.654426254332066, 112782.197875402867794, 0.0 ], [ 13513129.153755895793438, 112787.803679373115301, 0.0 ], [ 13513142.504859048873186, 112788.326062236912549, 0.0 ], [ 13513154.002047352492809, 112789.440589569509029, 0.0 ], [ 13513161.067606773227453, 112793.042322688736022, 0.0 ], [ 13513163.192139249294996, 112797.342224610969424, 0.0 ], [ 13513166.741561200469732, 112807.20337556861341, 0.0 ], [ 13513171.455273739993572, 112809.606004942208529, 0.0 ], [ 13513175.008480560034513, 112819.491146491840482, 0.0 ], [ 13513177.584747537970543, 112825.709547361359, 0.0 ], [ 13513179.28426219150424, 112836.257257802411914, 0.0 ], [ 13513180.780841421335936, 112841.769640082493424, 0.0 ], [ 13513179.312314696609974, 112847.213697919622064, 0.0 ], [ 13513180.019304778426886, 112854.113351795822382, 0.0 ], [ 13513177.166965469717979, 112859.226622305810452, 0.0 ], [ 13513174.067051611840725, 112867.514321563765407, 0.0 ], [ 13513171.234415840357542, 112872.610676642507315, 0.0 ], [ 13513168.385527461767197, 112877.72881140280515, 0.0 ], [ 13513164.818071704357862, 112884.137480219826102, 0.0 ], [ 13513161.92688188329339, 112889.313657339662313, 0.0 ], [ 13513169.339090179651976, 112895.107296307571232, 0.0 ], [ 13513175.16076559945941, 112898.312459756620228, 0.0 ], [ 13513177.35086527466774, 112902.643095320090652, 0.0 ], [ 13513182.821439009159803, 112903.780839339829981, 0.0 ], [ 13513188.289563722908497, 112904.918030542321503, 0.0 ], [ 13513195.640101030468941, 112905.39044139161706, 0.0 ], [ 13513203.71232258528471, 112904.543131128884852, 0.0 ], [ 13513209.472104355692863, 112902.382180356420577, 0.0 ], [ 13513215.995315179228783, 112895.995512758381665, 0.0 ], [ 13513221.575093343853951, 112894.082210057415068, 0.0 ], [ 13513225.304852869361639, 112892.800078335218132, 0.0 ], [ 13513228.833124149590731, 112894.646383387036622, 0.0 ], [ 13513252.993015848100185, 112897.429771172814071, 0.0 ], [ 13513257.88951500505209, 112899.581766814924777, 0.0 ], [ 13513268.913929425179958, 112904.372651950456202, 0.0 ], [ 13513281.898902758955956, 112910.98286603204906, 0.0 ], [ 13513285.380531139671803, 112912.893625823780894, 0.0 ], [ 13513297.0162009075284, 112919.227004587650299, 0.0 ], [ 13513299.344670709222555, 112920.489235924556851, 0.0 ], [ 13513306.912614982575178, 112926.008803142234683, 0.0 ], [ 13513311.607848450541496, 112931.304160308092833, 0.0 ], [ 13513316.774742625653744, 112935.709753271192312, 0.0 ], [ 13513320.710109259933233, 112939.613195473328233, 0.0 ], [ 13513325.291240271180868, 112942.304046545177698, 0.0 ], [ 13513335.755272425711155, 112939.519111323170364, 0.0 ], [ 13513340.047863271087408, 112937.060761976055801, 0.0 ], [ 13513381.853342812508345, 112908.855621417984366, 0.0 ] ], [ [ 13512933.138240627944469, 112305.277516253292561, 0.0 ], [ 13512933.403121016919613, 112304.488315414637327, 0.0 ], [ 13512933.657942667603493, 112304.761372243985534, 0.0 ], [ 13512933.138240627944469, 112305.277516253292561, 0.0 ] ] ], [ [ [ 13514332.85339817404747, 113516.044626037590206, 0.0 ], [ 13514332.641493834555149, 113515.413267476484179, 0.0 ], [ 13514332.39966606721282, 113516.143200094811618, 0.0 ], [ 13514332.85339817404747, 113516.044626037590206, 0.0 ] ] ], [ [ [ 13514310.229964289814234, 113468.031557404436171, 0.0 ], [ 13514339.04895044118166, 113458.98208324238658, 0.0 ], [ 13514356.213199570775032, 113473.924238109961152, 0.0 ], [ 13514366.172702115029097, 113530.956964431330562, 0.0 ], [ 13514360.192066330462694, 113540.891244782134891, 0.0 ], [ 13514356.845429100096226, 113546.450257707387209, 0.0 ], [ 13514355.380503930151463, 113550.329966863617301, 0.0 ], [ 13514371.155102234333754, 113562.505598735064268, 0.0 ], [ 13514398.064773887395859, 113590.42957725841552, 0.0 ], [ 13514428.872538685798645, 113579.894263395108283, 0.0 ], [ 13514448.420711275190115, 113572.475801440887153, 0.0 ], [ 13514453.955828011035919, 113551.050512372516096, 0.0 ], [ 13514455.303797997534275, 113545.832800072617829, 0.0 ], [ 13514456.764443464577198, 113529.254050117917359, 0.0 ], [ 13514470.273343227803707, 113494.003196178935468, 0.0 ], [ 13514487.426890827715397, 113473.067014701664448, 0.0 ], [ 13514491.313816323876381, 113468.322959272190928, 0.0 ], [ 13514515.461937334388494, 113452.773722944781184, 0.0 ], [ 13514576.914187237620354, 113398.582098867744207, 0.0 ], [ 13514544.78708515688777, 113338.128721894696355, 0.0 ], [ 13514539.563361495733261, 113323.188791907392442, 0.0 ], [ 13514529.235717486590147, 113293.651570766232908, 0.0 ], [ 13514538.374090865254402, 113241.169853749684989, 0.0 ], [ 13514523.865651320666075, 113217.591368489898741, 0.0 ], [ 13514520.891985259950161, 113212.758695501834154, 0.0 ], [ 13514508.607424192130566, 113203.500215091742575, 0.0 ], [ 13514490.070326089859009, 113189.529397261328995, 0.0 ], [ 13514464.869783297181129, 113170.536553463898599, 0.0 ], [ 13514481.557247724384069, 113146.86058382038027, 0.0 ], [ 13514491.092941667884588, 113113.714223766699433, 0.0 ], [ 13514493.874185752123594, 113100.692438617348671, 0.0 ], [ 13514542.270609959959984, 113077.626623952761292, 0.0 ], [ 13514546.322335079312325, 113075.441417657770216, 0.0 ], [ 13514549.136683579534292, 113073.923562446609139, 0.0 ], [ 13514561.183077093213797, 113067.426612564362586, 0.0 ], [ 13514532.046234484761953, 113031.2549814209342, 0.0 ], [ 13514513.854128822684288, 113039.872552081011236, 0.0 ], [ 13514409.870155718177557, 113089.129589525982738, 0.0 ], [ 13514424.56666611135006, 113119.726798913441598, 0.0 ], [ 13514420.733683340251446, 113150.485197497531772, 0.0 ], [ 13514397.815790813416243, 113158.651335357688367, 0.0 ], [ 13514396.756595298647881, 113159.028749480843544, 0.0 ], [ 13514172.935495264828205, 112974.456472959369421, 0.0 ], [ 13514171.522772472351789, 112972.78019952122122, 0.0 ], [ 13514110.504309065639973, 112900.37842667941004, 0.0 ], [ 13514104.028726276010275, 112892.694790375418961, 0.0 ], [ 13514088.859707247465849, 112874.695911673828959, 0.0 ], [ 13514081.935453709214926, 112852.77173597086221, 0.0 ], [ 13514048.661756701767445, 112818.176863326691091, 0.0 ], [ 13514042.271860331296921, 112811.533247732557356, 0.0 ], [ 13514032.39333688467741, 112808.12669257260859, 0.0 ], [ 13514024.488679300993681, 112805.400814343243837, 0.0 ], [ 13513992.058291576802731, 112786.397907210513949, 0.0 ], [ 13513991.378630843013525, 112785.999653266742826, 0.0 ], [ 13513985.834113255143166, 112779.897799116559327, 0.0 ], [ 13513967.371335037052631, 112759.579136712476611, 0.0 ], [ 13513958.54625541344285, 112749.866957288235426, 0.0 ], [ 13513954.626477092504501, 112745.553161576390266, 0.0 ], [ 13513919.198725268244743, 112730.42683020606637, 0.0 ], [ 13513911.006533842533827, 112720.639932027086616, 0.0 ], [ 13513897.065335225313902, 112687.649641308933496, 0.0 ], [ 13513882.559159308671951, 112653.32239458616823, 0.0 ], [ 13513877.667657166719437, 112641.747200186364353, 0.0 ], [ 13513872.488714531064034, 112629.491809741593897, 0.0 ], [ 13513845.374263823032379, 112593.127245360054076, 0.0 ], [ 13513826.508049350231886, 112567.824808278121054, 0.0 ], [ 13513805.847379133105278, 112517.842121445573866, 0.0 ], [ 13513784.613655932247639, 112509.612525636330247, 0.0 ], [ 13513784.127187330275774, 112509.423984037712216, 0.0 ], [ 13513748.103454641997814, 112516.789854289963841, 0.0 ], [ 13513687.180965505540371, 112554.145336779765785, 0.0 ], [ 13513682.609339624643326, 112571.199236973188818, 0.0 ], [ 13513665.543234139680862, 112634.862282825633883, 0.0 ], [ 13513665.460773747414351, 112635.169891329482198, 0.0 ], [ 13513635.264409553259611, 112684.626428787596524, 0.0 ], [ 13513554.616847824305296, 112708.172403735108674, 0.0 ], [ 13513537.876278929412365, 112725.090026524849236, 0.0 ], [ 13513519.864412605762482, 112789.804414687678218, 0.0 ], [ 13513541.6856704428792, 112804.453621102496982, 0.0 ], [ 13513548.863079186528921, 112809.272011595778167, 0.0 ], [ 13513549.303013823926449, 112816.854688636958599, 0.0 ], [ 13513550.919818125665188, 112822.20466267131269, 0.0 ], [ 13513549.581757839769125, 112827.691616998054087, 0.0 ], [ 13513547.088535211980343, 112832.705054744146764, 0.0 ], [ 13513544.568150606006384, 112837.751327893696725, 0.0 ], [ 13513539.502000574022532, 112847.914077797904611, 0.0 ], [ 13513535.064026411622763, 112856.796022265218198, 0.0 ], [ 13513533.201762668788433, 112860.472491371445358, 0.0 ], [ 13513526.659516185522079, 112864.714018302038312, 0.0 ], [ 13513520.649933479726315, 112870.755637442693114, 0.0 ], [ 13513512.718197144567966, 112877.831187377683818, 0.0 ], [ 13513510.720791514962912, 112881.890515824779868, 0.0 ], [ 13513505.084797021001577, 112887.40411354508251, 0.0 ], [ 13513501.426393300294876, 112891.690747497603297, 0.0 ], [ 13513495.360928159207106, 112897.796268250793219, 0.0 ], [ 13513493.490760736167431, 112901.4428865108639, 0.0 ], [ 13513487.953506618738174, 112906.586559588089585, 0.0 ], [ 13513485.33326843008399, 112911.816135528497398, 0.0 ], [ 13513481.434971205890179, 112919.548173194751143, 0.0 ], [ 13513478.250009216368198, 112925.799628953449428, 0.0 ], [ 13513474.580473527312279, 112932.868102161213756, 0.0 ], [ 13513470.783810980618, 112940.274327364750206, 0.0 ], [ 13513468.138414599001408, 112945.543371748179197, 0.0 ], [ 13513466.511480234563351, 112954.649634339846671, 0.0 ], [ 13513466.26346043497324, 112960.996832016855478, 0.0 ], [ 13513465.491348437964916, 112965.441451283171773, 0.0 ], [ 13513465.717215683311224, 112973.795371878892183, 0.0 ], [ 13513466.041823327541351, 112979.098799043335021, 0.0 ], [ 13513464.552925135940313, 112987.861338554881513, 0.0 ], [ 13513466.076666306704283, 112996.530346541665494, 0.0 ], [ 13513467.062845669686794, 113003.351502005942166, 0.0 ], [ 13513466.747143611311913, 113012.767102071084082, 0.0 ], [ 13513468.292369462549686, 113018.595011805184186, 0.0 ], [ 13513472.994170773774385, 113021.075250917114317, 0.0 ], [ 13513481.222462255507708, 113025.415614051744342, 0.0 ], [ 13513485.924931511282921, 113027.896074248477817, 0.0 ], [ 13513486.813723262399435, 113028.311179762706161, 0.0 ], [ 13513490.709443233907223, 113030.130655342712998, 0.0 ], [ 13513495.500968094915152, 113029.495393959805369, 0.0 ], [ 13513503.300679512321949, 113028.757093318738043, 0.0 ], [ 13513510.467873614281416, 113029.241223086602986, 0.0 ], [ 13513518.884628988802433, 113027.236600860022008, 0.0 ], [ 13513521.872555442154408, 113027.181543386541307, 0.0 ], [ 13513533.162912167608738, 113028.29076327290386, 0.0 ], [ 13513543.296102803200483, 113028.689985135570168, 0.0 ], [ 13513547.456557430326939, 113029.221212223172188, 0.0 ], [ 13513551.615119662135839, 113029.751997089013457, 0.0 ], [ 13513555.146953113377094, 113031.543133474886417, 0.0 ], [ 13513570.516612574458122, 113036.183769684284925, 0.0 ], [ 13513585.936365835368633, 113037.703045981004834, 0.0 ], [ 13513594.732943274080753, 113040.853040155023336, 0.0 ], [ 13513599.399122375994921, 113043.423162067309022, 0.0 ], [ 13513602.517970707267523, 113045.140968848019838, 0.0 ], [ 13513605.233265575021505, 113046.636505460366607, 0.0 ], [ 13513621.647992394864559, 113055.24127833545208, 0.0 ], [ 13513636.899207949638367, 113063.069939899258316, 0.0 ], [ 13513639.238920975476503, 113064.329406810924411, 0.0 ], [ 13513642.757841385900974, 113066.173942083492875, 0.0 ], [ 13513644.992246232926846, 113073.747548118233681, 0.0 ], [ 13513646.053677584975958, 113080.733211164362729, 0.0 ], [ 13513642.944078899919987, 113087.449114667251706, 0.0 ], [ 13513641.068234171718359, 113091.527567167766392, 0.0 ], [ 13513637.31832579895854, 113099.630520196631551, 0.0 ], [ 13513633.615282956510782, 113107.317778263241053, 0.0 ], [ 13513628.175656028091908, 113112.441769263707101, 0.0 ], [ 13513622.174088321626186, 113115.647373033687472, 0.0 ], [ 13513620.312158539891243, 113119.512228863313794, 0.0 ], [ 13513613.61439872905612, 113124.377184383571148, 0.0 ], [ 13513610.484205972403288, 113130.980429383926094, 0.0 ], [ 13513606.235252313315868, 113133.688857621513307, 0.0 ], [ 13513603.740582518279552, 113138.850658798590302, 0.0 ], [ 13513598.204107664525509, 113144.217875013127923, 0.0 ], [ 13513593.814112212508917, 113153.323027064092457, 0.0 ], [ 13513590.000195130705833, 113161.446874005720019, 0.0 ], [ 13513586.799759797751904, 113168.267252489924431, 0.0 ], [ 13513585.377764597535133, 113177.404133830219507, 0.0 ], [ 13513586.323868937790394, 113187.941441751085222, 0.0 ], [ 13513589.728018991649151, 113196.483746536076069, 0.0 ], [ 13513589.034832518547773, 113201.014597452245653, 0.0 ], [ 13513590.722213417291641, 113206.810442605055869, 0.0 ], [ 13513591.740341424942017, 113214.145574068650603, 0.0 ], [ 13513592.081328503787518, 113215.067516027018428, 0.0 ], [ 13513595.69452103972435, 113224.836665819399059, 0.0 ], [ 13513596.658325206488371, 113235.397852678783238, 0.0 ], [ 13513600.054682873189449, 113244.287968934513628, 0.0 ], [ 13513602.342298410832882, 113249.120308424346149, 0.0 ], [ 13513605.781514067202806, 113257.783340112306178, 0.0 ], [ 13513610.525394178926945, 113263.517161833122373, 0.0 ], [ 13513617.75203288346529, 113267.042937567457557, 0.0 ], [ 13513624.390904664993286, 113268.812735238112509, 0.0 ], [ 13513631.079647578299046, 113267.332486542873085, 0.0 ], [ 13513639.58367744833231, 113265.171427382156253, 0.0 ], [ 13513645.059928469359875, 113263.051274311728776, 0.0 ], [ 13513649.901324443519115, 113262.306672405451536, 0.0 ], [ 13513658.379973456263542, 113260.081268993206322, 0.0 ], [ 13513666.254046343266964, 113258.976803767494857, 0.0 ], [ 13513672.295355081558228, 113258.648780922405422, 0.0 ], [ 13513680.774672023952007, 113256.1617994280532, 0.0 ], [ 13513684.983995944261551, 113256.609002821147442, 0.0 ], [ 13513687.889241229742765, 113256.045423004776239, 0.0 ], [ 13513694.636731617152691, 113254.736497558653355, 0.0 ], [ 13513700.650321826338768, 113254.411017507314682, 0.0 ], [ 13513707.223737739026546, 113256.271029826253653, 0.0 ], [ 13513714.398946847766638, 113256.946865241974592, 0.0 ], [ 13513725.146287091076374, 113259.563972410745919, 0.0 ], [ 13513733.523301467299461, 113260.57136850245297, 0.0 ], [ 13513748.463267665356398, 113263.224296141415834, 0.0 ], [ 13513751.453531801700592, 113263.078360807150602, 0.0 ], [ 13513757.409681160002947, 113266.166993848979473, 0.0 ], [ 13513788.99730096757412, 113236.283564301207662, 0.0 ], [ 13513811.181033425033092, 113218.197757555171847, 0.0 ], [ 13513838.000172663480043, 113221.486086123622954, 0.0 ], [ 13513844.713694345206022, 113222.967762190848589, 0.0 ], [ 13513864.819311887025833, 113227.405077466741204, 0.0 ], [ 13513878.063331287354231, 113252.067540371790528, 0.0 ], [ 13513877.732230827212334, 113271.139843855053186, 0.0 ], [ 13513866.14371382445097, 113282.320159215480089, 0.0 ], [ 13513831.378162987530231, 113307.969116722233593, 0.0 ], [ 13513833.364765893667936, 113338.879396417178214, 0.0 ], [ 13513830.551943358033895, 113397.415463945828378, 0.0 ], [ 13513830.209845170378685, 113404.534676225855947, 0.0 ], [ 13513830.823215562850237, 113409.997188672423363, 0.0 ], [ 13513832.636387400329113, 113412.731816863641143, 0.0 ], [ 13513827.609135817736387, 113432.333651637658477, 0.0 ], [ 13513829.198418106883764, 113441.804032263346016, 0.0 ], [ 13513832.641863163560629, 113462.060123299248517, 0.0 ], [ 13513846.150762926787138, 113481.263948803767562, 0.0 ], [ 13513868.396379537880421, 113494.52003313973546, 0.0 ], [ 13513872.142050828784704, 113504.197320014238358, 0.0 ], [ 13513874.669551312923431, 113510.727350372821093, 0.0 ], [ 13513883.410604115575552, 113530.457305449061096, 0.0 ], [ 13513908.044480137526989, 113541.506079816259444, 0.0 ], [ 13513927.38074841722846, 113534.403296329081059, 0.0 ], [ 13513935.805621683597565, 113522.371871954761446, 0.0 ], [ 13513943.803332448005676, 113495.995649893768132, 0.0 ], [ 13513949.895581372082233, 113478.107155644334853, 0.0 ], [ 13513964.464002702385187, 113475.476494655013084, 0.0 ], [ 13513985.15461478754878, 113473.530863304622471, 0.0 ], [ 13513995.455008022487164, 113476.52875904738903, 0.0 ], [ 13514004.990702, 113468.8998420862481, 0.0 ], [ 13514008.963907785713673, 113464.164652168750763, 0.0 ], [ 13514016.495554592460394, 113451.128161365166306, 0.0 ], [ 13514029.889458395540714, 113436.805775861255825, 0.0 ], [ 13514050.285248260945082, 113427.598461248911917, 0.0 ], [ 13514063.170914929360151, 113429.605897878296673, 0.0 ], [ 13514063.794148005545139, 113429.702990317717195, 0.0 ], [ 13514075.713765453547239, 113437.594974244944751, 0.0 ], [ 13514080.126164261251688, 113447.85614028852433, 0.0 ], [ 13514089.216531783342361, 113480.182576086372137, 0.0 ], [ 13514090.390279293060303, 113484.35656263679266, 0.0 ], [ 13514096.462094064801931, 113539.49005323369056, 0.0 ], [ 13514098.214959502220154, 113544.332698787562549, 0.0 ], [ 13514103.979084651917219, 113560.257261012680829, 0.0 ], [ 13514118.812386345118284, 113572.621364620514214, 0.0 ], [ 13514136.294491913169622, 113597.086504576727748, 0.0 ], [ 13514154.836119025945663, 113611.029002949595451, 0.0 ], [ 13514160.361061632633209, 113626.165823813527822, 0.0 ], [ 13514162.51765027269721, 113632.074282509274781, 0.0 ], [ 13514179.469995111227036, 113644.964515639469028, 0.0 ], [ 13514189.270569454878569, 113651.278099039569497, 0.0 ], [ 13514204.633631933480501, 113651.541165025904775, 0.0 ], [ 13514228.472866769880056, 113656.013286518864334, 0.0 ], [ 13514247.982209857553244, 113666.979834226891398, 0.0 ], [ 13514262.377556391060352, 113661.800737802870572, 0.0 ], [ 13514274.297173816710711, 113652.856494880281389, 0.0 ], [ 13514283.303106985986233, 113642.333855859003961, 0.0 ], [ 13514291.72664687037468, 113623.948853080160916, 0.0 ], [ 13514292.240947719663382, 113615.776405955664814, 0.0 ], [ 13514283.303106985986233, 113578.934949279762805, 0.0 ], [ 13514282.557560618966818, 113572.641212796792388, 0.0 ], [ 13514256.618173852562904, 113545.05730496160686, 0.0 ], [ 13514247.905206769704819, 113519.913792909123003, 0.0 ], [ 13514245.387245431542397, 113512.64756618347019, 0.0 ], [ 13514262.127685904502869, 113488.024580883793533, 0.0 ], [ 13514280.456398986279964, 113480.406513784080744, 0.0 ], [ 13514310.229964289814234, 113468.031557404436171, 0.0 ] ] ], [ [ [ 13515198.836561404168606, 113984.139267658814788, 0.0 ], [ 13515238.674571678042412, 113958.043146184645593, 0.0 ], [ 13515292.588099434971809, 113970.609636737033725, 0.0 ], [ 13515288.015165887773037, 113957.503861414268613, 0.0 ], [ 13515290.33286927267909, 113931.197285386733711, 0.0 ], [ 13515301.459611445665359, 113905.973279983736575, 0.0 ], [ 13515257.68750549480319, 113864.926488747820258, 0.0 ], [ 13515175.816973850131035, 113797.680297716520727, 0.0 ], [ 13515171.759584400802851, 113798.128030491992831, 0.0 ], [ 13514914.50099478289485, 113585.982160945422947, 0.0 ], [ 13514910.323248833417892, 113579.611092704348266, 0.0 ], [ 13514858.204018950462341, 113536.801798339001834, 0.0 ], [ 13514853.618747144937515, 113501.009755603969097, 0.0 ], [ 13514868.718500196933746, 113415.988541132770479, 0.0 ], [ 13514929.799317669123411, 113345.259242800995708, 0.0 ], [ 13514899.338073089718819, 113317.966124107129872, 0.0 ], [ 13514873.220895789563656, 113351.885437928140163, 0.0 ], [ 13514841.998145811259747, 113383.045469622127712, 0.0 ], [ 13514746.020763911306858, 113444.657521069981158, 0.0 ], [ 13514743.426557175815105, 113446.322854904457927, 0.0 ], [ 13514628.605153378099203, 113536.342803481966257, 0.0 ], [ 13514596.289746105670929, 113584.220822561532259, 0.0 ], [ 13514571.920750446617603, 113619.99779973551631, 0.0 ], [ 13514532.718453101813793, 113651.565717818215489, 0.0 ], [ 13514489.016503348946571, 113691.868124281056225, 0.0 ], [ 13514430.491399269551039, 113682.058131903409958, 0.0 ], [ 13514398.175992, 113694.948363239876926, 0.0 ], [ 13514409.557253044098616, 113723.810236675664783, 0.0 ], [ 13514400.808020107448101, 113726.802578194066882, 0.0 ], [ 13514360.618860550224781, 113755.150416072458029, 0.0 ], [ 13514392.587275180965662, 113786.643039372749627, 0.0 ], [ 13514387.227602642029524, 113798.905431671999395, 0.0 ], [ 13514377.850836932659149, 113834.419321800582111, 0.0 ], [ 13514369.90442531555891, 113860.304999528452754, 0.0 ], [ 13514401.213287144899368, 113855.254135724157095, 0.0 ], [ 13514443.170340500771999, 113840.890741410665214, 0.0 ], [ 13514462.241728406399488, 113836.629074827767909, 0.0 ], [ 13514470.362261742353439, 113824.35741316433996, 0.0 ], [ 13514471.863440729677677, 113822.984179348684847, 0.0 ], [ 13514485.44525034353137, 113801.746542983688414, 0.0 ], [ 13514535.348715350031853, 113752.342770427465439, 0.0 ], [ 13514604.800352953374386, 113696.783248167484999, 0.0 ], [ 13514607.009455405175686, 113690.517017439007759, 0.0 ], [ 13514613.804137088358402, 113697.150428052060306, 0.0 ], [ 13514677.73251885175705, 113773.382780470885336, 0.0 ], [ 13514735.344003167003393, 113821.129235318861902, 0.0 ], [ 13514753.831709183752537, 113808.044167388230562, 0.0 ], [ 13514764.982352670282125, 113801.34799821395427, 0.0 ], [ 13514782.994219001382589, 113809.766105763614178, 0.0 ], [ 13514778.968037120997906, 113852.487998562864959, 0.0 ], [ 13514790.410869881510735, 113852.908903878182173, 0.0 ], [ 13514841.267904296517372, 113856.907504430040717, 0.0 ], [ 13514862.246430989354849, 113861.747915528714657, 0.0 ], [ 13514907.382049009203911, 113948.033494260162115, 0.0 ], [ 13514947.855772219598293, 114021.481446268968284, 0.0 ], [ 13514973.49619372189045, 114075.778203510679305, 0.0 ], [ 13515006.023505315184593, 114147.752962136641145, 0.0 ], [ 13515084.957860819995403, 114092.509179376997054, 0.0 ], [ 13515094.751186214387417, 114076.659026660956442, 0.0 ], [ 13515091.695534896105528, 114073.768820221535861, 0.0 ], [ 13515113.945487435907125, 114005.897872063331306, 0.0 ], [ 13515155.796588681638241, 113998.532031950540841, 0.0 ], [ 13515196.749455340206623, 113994.796820424497128, 0.0 ], [ 13515198.836561404168606, 113984.139267658814788, 0.0 ] ] ], [ [ [ 13515688.912710055708885, 114372.94316834397614, 0.0 ], [ 13515698.881578121334314, 114351.424091184511781, 0.0 ], [ 13515731.639896769076586, 114270.963182517327368, 0.0 ], [ 13515736.240583296865225, 114253.36776949185878, 0.0 ], [ 13515740.233285158872604, 114228.914806853048503, 0.0 ], [ 13515684.277303274720907, 114210.829049644991755, 0.0 ], [ 13515684.939504235982895, 114176.959356427192688, 0.0 ], [ 13515671.36438437923789, 114155.914108537137508, 0.0 ], [ 13515629.976823821663857, 114171.040380576625466, 0.0 ], [ 13515576.868665173649788, 114164.234975050203502, 0.0 ], [ 13515336.598296578973532, 113938.924179661087692, 0.0 ], [ 13515333.905693016946316, 113943.232544153928757, 0.0 ], [ 13515330.329807788133621, 113956.254299082793295, 0.0 ], [ 13515343.441386960446835, 113975.589631303213537, 0.0 ], [ 13515360.128851380199194, 113996.108758231624961, 0.0 ], [ 13515372.843110010027885, 114026.887446451932192, 0.0 ], [ 13515366.08866011723876, 114071.08248134329915, 0.0 ], [ 13515346.445961739867926, 114106.202587624080479, 0.0 ], [ 13515405.661789983510971, 114122.74857484176755, 0.0 ], [ 13515433.474230691790581, 114154.053383491002023, 0.0 ], [ 13515453.340259753167629, 114165.365204432979226, 0.0 ], [ 13515491.483035560697317, 114159.84082680568099, 0.0 ], [ 13515513.732988130301237, 114170.363450788892806, 0.0 ], [ 13515516.591045372188091, 114189.468574986793101, 0.0 ], [ 13515521.508305110037327, 114249.368153022602201, 0.0 ], [ 13515513.032132737338543, 114263.047560749575496, 0.0 ], [ 13515517.535099323838949, 114288.564916058443487, 0.0 ], [ 13515507.734524976462126, 114302.244322299957275, 0.0 ], [ 13515490.252419419586658, 114304.87497727945447, 0.0 ], [ 13515464.0292610488832, 114318.02825191617012, 0.0 ], [ 13515456.497649736702442, 114335.232266156002879, 0.0 ], [ 13515489.954124934971333, 114367.439791061915457, 0.0 ], [ 13515486.314851433038712, 114383.579177883453667, 0.0 ], [ 13515474.740552823990583, 114434.908675999380648, 0.0 ], [ 13515482.0089764110744, 114440.530596612021327, 0.0 ], [ 13515510.948372952640057, 114462.91440352331847, 0.0 ], [ 13515532.20947277545929, 114479.35926450137049, 0.0 ], [ 13515561.391767792403698, 114452.106627063825727, 0.0 ], [ 13515593.828977927565575, 114466.159881056286395, 0.0 ], [ 13515569.990743335336447, 114506.346318875439465, 0.0 ], [ 13515580.950227789580822, 114512.559215699322522, 0.0 ], [ 13515608.455292340368032, 114528.151749180629849, 0.0 ], [ 13515636.598833497613668, 114506.44885841012001, 0.0 ], [ 13515677.788666989654303, 114533.740817991085351, 0.0 ], [ 13515691.561513915657997, 114517.957967312075198, 0.0 ], [ 13515685.601705204695463, 114484.417134646326303, 0.0 ], [ 13515686.263906173408031, 114440.353683060966432, 0.0 ], [ 13515688.912710055708885, 114372.94316834397614, 0.0 ] ] ] ] } }
]
}
