{
"type": "FeatureCollection",
"name": "SULTENG_PAKET_8",
"crs": { "type": "name", "properties": { "name": "urn:ogc:def:crs:OGC:1.3:CRS84" } },
"features": [
{ "type": "Feature", "properties": { "WADMPR": "SULAWESI TENGAH", "WADMKK": "BUOL", "WADMKC": "MOMUNU", "WADMKD": "POMAYAGON", "POKTAN": "KT IBUNG (POMAYAGON)", "LUAS_HA": 47.006051066799998, "PAKET": "Paket Sulawesi Tengah 8" }, "geometry": { "type": "MultiPolygon", "coordinates": [ [ [ [ 121.442834858966791, 1.105012512943243, 0.000000000000114 ], [ 121.442963527345313, 1.104998283650063, 0.000000000000114 ], [ 121.443133707345254, 1.104951162936279, 0.000000000000114 ], [ 121.443258627239359, 1.104874178533181, 0.000000000000114 ], [ 121.443313931376736, 1.104814413611566, 0.000000000000114 ], [ 121.44339820000512, 1.10465270894999, 0.000000000000114 ], [ 121.443439330185029, 1.104494682468547, 0.000000000000114 ], [ 121.443462205885425, 1.104360478359894, 0.000000000000114 ], [ 121.443497022793494, 1.103614937617365, 0.000000000000114 ], [ 121.4434274334495, 1.102828813461926, 0.000000000000114 ], [ 121.443429794294417, 1.102543727675771, 0.000000000000114 ], [ 121.443806336147901, 1.10027402536743, 0.000000000000114 ], [ 121.443907747841763, 1.099213612739681, 0.000000000000114 ], [ 121.443872380311618, 1.098482042372846, 0.000000000000114 ], [ 121.443761306123847, 1.097833354955232, 0.000000000000114 ], [ 121.443636173826988, 1.097102566551493, 0.000000000000114 ], [ 121.443247085245929, 1.095592479481946, 0.000000000000114 ], [ 121.442813304505037, 1.093857336527383, 0.000000000000114 ], [ 121.442470430523699, 1.092997873043865, 0.000000000000114 ], [ 121.44057026382751, 1.09573849175665, 0.000000000000114 ], [ 121.438823888112466, 1.098837207172534, 0.000000000000114 ], [ 121.439650232622512, 1.101771272200695, 0.000000000000114 ], [ 121.441362994465024, 1.104408987156124, 0.000000000000114 ], [ 121.441785975821233, 1.104888246044649, 0.000000000000114 ], [ 121.441882551471579, 1.10494885985316, 0.000000000000114 ], [ 121.442002261902601, 1.104991847582325, 0.000000000000114 ], [ 121.442042054603718, 1.104993659592942, 0.000000000000114 ], [ 121.442104210960196, 1.10499648996067, 0.000000000000114 ], [ 121.442834858966791, 1.105012512943243, 0.000000000000114 ] ] ] ] } },
{ "type": "Feature", "properties": { "WADMPR": "SULAWESI TENGAH", "WADMKK": "BUOL", "WADMKC": "MOMUNU", "WADMKD": "GUAMONIAL", "POKTAN": "KT SUKA MAJU II", "LUAS_HA": 28.000633975, "PAKET": "Paket Sulawesi Tengah 8" }, "geometry": { "type": "MultiPolygon", "coordinates": [ [ [ [ 121.43167924100004, 1.13559037473211, 0.0 ], [ 121.431357041000098, 1.135290361732626, 0.0 ], [ 121.43152132600008, 1.134947776732969, 0.0 ], [ 121.431314126000203, 1.134699050733305, 0.0 ], [ 121.431061998000246, 1.134383952733478, 0.0 ], [ 121.431261823000327, 1.134156344733714, 0.0 ], [ 121.431442872000346, 1.133743365734228, 0.0 ], [ 121.431667995191646, 1.133818581886542, 0.0 ], [ 121.431840174000214, 1.133876108734122, 0.0 ], [ 121.432201266000277, 1.13386705873411, 0.0 ], [ 121.432386674000114, 1.133734314734271, 0.0 ], [ 121.432684399000266, 1.133474861734481, 0.0 ], [ 121.432831921000556, 1.133068251735077, 0.0 ], [ 121.432920769000162, 1.132329111735851, 0.0 ], [ 121.432739049000105, 1.132263410735928, 0.0 ], [ 121.432455070000074, 1.132049881736115, 0.0 ], [ 121.432366424563696, 1.131909365323546, 0.0 ], [ 121.432332029882474, 1.131854844556169, 0.0 ], [ 121.432100013000081, 1.131487062736805, 0.0 ], [ 121.43195517400008, 1.131190736737155, 0.0 ], [ 121.431929314148121, 1.131027979869197, 0.0 ], [ 121.431895386582212, 1.130814446384759, 0.0 ], [ 121.431867667000134, 1.130639984737706, 0.0 ], [ 121.431476735000018, 1.130517297737837, 0.0 ], [ 121.431257464000097, 1.130483106737785, 0.0 ], [ 121.431172974000191, 1.130553165737903, 0.0 ], [ 121.431116618602502, 1.130680706827515, 0.0 ], [ 121.431092843000215, 1.13073451473754, 0.0 ], [ 121.431076834330341, 1.130814446384759, 0.0 ], [ 121.431042228934217, 1.130987231904535, 0.0 ], [ 121.431037523000214, 1.131010728737518, 0.0 ], [ 121.43100783687612, 1.131049296337249, 0.0 ], [ 121.430918165000222, 1.131172634737099, 0.0 ], [ 121.430775002000175, 1.131225933737069, 0.0 ], [ 121.430705434689784, 1.131250885237685, 0.0 ], [ 121.430594623000061, 1.131290629737058, 0.0 ], [ 121.430582063645005, 1.131313487116598, 0.0 ], [ 121.430580206000215, 1.13131442973682, 0.0 ], [ 121.430499740000215, 1.131422366736909, 0.0 ], [ 121.43046771458944, 1.131428141735772, 0.0 ], [ 121.430407505503254, 1.13143899897022, 0.0 ], [ 121.430332437000033, 1.131452535736784, 0.0 ], [ 121.430313417000633, 1.131470899977746, 0.0 ], [ 121.43020536800023, 1.131575223736636, 0.0 ], [ 121.430203196089693, 1.131585365619954, 0.0 ], [ 121.43019262700038, 1.131596341736597, 0.0 ], [ 121.43019013524389, 1.131646354118578, 0.0 ], [ 121.430176869000192, 1.131708301736465, 0.0 ], [ 121.430174104189376, 1.131766282573303, 0.0 ], [ 121.430141217503277, 1.131758413583381, 0.0 ], [ 121.429841677587774, 1.131785664341789, 0.0 ], [ 121.429807730000334, 1.131788752736399, 0.0 ], [ 121.429376565000325, 1.131945630736245, 0.0 ], [ 121.429253183000284, 1.132094464736171, 0.0 ], [ 121.429254866209135, 1.132099117380457, 0.0 ], [ 121.429315880000189, 1.132267768735866, 0.0 ], [ 121.428956799000161, 1.132483644735525, 0.0 ], [ 121.428983957000156, 1.132638176735363, 0.0 ], [ 121.428859904000319, 1.13272432573545, 0.0 ], [ 121.428886726000258, 1.132870477735292, 0.0 ], [ 121.428819001000235, 1.13297204573526, 0.0 ], [ 121.428766698000445, 1.133077637735011, 0.0 ], [ 121.428775080000179, 1.133139315735108, 0.0 ], [ 121.428694278000251, 1.133214403734897, 0.0 ], [ 121.428518258000054, 1.133256304734651, 0.0 ], [ 121.428364031000285, 1.133181217734912, 0.0 ], [ 121.428119950000223, 1.132960313735177, 0.0 ], [ 121.427986845000106, 1.132955955735152, 0.0 ], [ 121.427890956000013, 1.132952938735175, 0.0 ], [ 121.427850723000205, 1.133068251735077, 0.0 ], [ 121.427946277000132, 1.133413853734671, 0.0 ], [ 121.427841, 1.133320329734719, 0.0 ], [ 121.427750476000071, 1.133318653734773, 0.0 ], [ 121.42767638000025, 1.133296529734741, 0.0 ], [ 121.427618712000168, 1.133259656734803, 0.0 ], [ 121.427540258000022, 1.1331751837349, 0.0 ], [ 121.427361220000037, 1.133087023734984, 0.0 ], [ 121.427183524000213, 1.133060206734976, 0.0 ], [ 121.426955536000435, 1.13305048573505, 0.0 ], [ 121.426841542000233, 1.13307629673488, 0.0 ], [ 121.426781192000263, 1.133131606735108, 0.0 ], [ 121.426778845000158, 1.133215073734765, 0.0 ], [ 121.426840201000118, 1.133273065734717, 0.0 ], [ 121.427243203000245, 1.133654869734217, 0.0 ], [ 121.427210011000156, 1.134281042733584, 0.0 ], [ 121.427218392000256, 1.134665864733216, 0.0 ], [ 121.427241527000263, 1.135018170732921, 0.0 ], [ 121.427322999000239, 1.135146220732633, 0.0 ], [ 121.427446045000096, 1.135195832732615, 0.0 ], [ 121.427565403000315, 1.135151919732747, 0.0 ], [ 121.427743100000029, 1.13506610573272, 0.0 ], [ 121.427901015000202, 1.134571670733364, 0.0 ], [ 121.428145096000137, 1.134466749733384, 0.0 ], [ 121.428016014000292, 1.134354789733474, 0.0 ], [ 121.428437792000182, 1.133927060734132, 0.0 ], [ 121.428587995000214, 1.134003488734054, 0.0 ], [ 121.428641640000095, 1.134223386733733, 0.0 ], [ 121.428334191000147, 1.134400713733614, 0.0 ], [ 121.428474672000362, 1.134474459733595, 0.0 ], [ 121.428342573000037, 1.135101973732653, 0.0 ], [ 121.428321116000333, 1.135225330732655, 0.0 ], [ 121.428227574000019, 1.135487129732422, 0.0 ], [ 121.42853502200029, 1.13555718873224, 0.0 ], [ 121.42872340355585, 1.135258286614415, 0.0 ], [ 121.428728476000089, 1.135257845732696, 0.0 ], [ 121.429110945675419, 1.135524236362931, 0.0 ], [ 121.429139325678662, 1.135502556794967, 0.0 ], [ 121.429139772141411, 1.13550209186018, 0.0 ], [ 121.429205877366513, 1.135433152165739, 0.0 ], [ 121.429265294634035, 1.135356567281288, 0.0 ], [ 121.429353956556312, 1.135390413445528, 0.0 ], [ 121.42950355389894, 1.135447528057035, 0.0 ], [ 121.430291303639251, 1.135757598853445, 0.0 ], [ 121.430309320250771, 1.135764691370708, 0.0 ], [ 121.430361796236355, 1.135785345692707, 0.0 ], [ 121.430398231006492, 1.135799688117567, 0.0 ], [ 121.430398231006492, 1.136026754856557, 0.0 ], [ 121.430398231006492, 1.136343242998774, 0.0 ], [ 121.430398231006492, 1.136350039651128, 0.0 ], [ 121.430398231006492, 1.136366391188773, 0.0 ], [ 121.430398231006492, 1.136432622762869, 0.0 ], [ 121.430679007532788, 1.136527802358503, 0.0 ], [ 121.43075052600031, 1.136498123731272, 0.0 ], [ 121.430886313000414, 1.136382811731375, 0.0 ], [ 121.431070352598894, 1.136297433228295, 0.0 ], [ 121.431150643450096, 1.136260185197181, 0.0 ], [ 121.431272887000162, 1.136203474731558, 0.0 ], [ 121.431467347000222, 1.136136767731714, 0.0 ], [ 121.431671865000411, 1.135820328731888, 0.0 ], [ 121.431674077494094, 1.13575135207429, 0.0 ], [ 121.43167924100004, 1.13559037473211, 0.0 ] ] ], [ [ [ 121.423796874902663, 1.138376212348281, 0.0 ], [ 121.423796815613585, 1.138376193352805, 0.0 ], [ 121.423783213323546, 1.138348384076091, 0.0 ], [ 121.423717137743026, 1.138331981993851, 0.0 ], [ 121.423745973663387, 1.138035498070547, 0.0 ], [ 121.423729844412648, 1.138021973341899, 0.0 ], [ 121.423715199178361, 1.137997215996717, 0.0 ], [ 121.423669604288094, 1.137989264158282, 0.0 ], [ 121.423618263772852, 1.137883959060568, 0.0 ], [ 121.423613460481107, 1.137839835449578, 0.0 ], [ 121.423132548291818, 1.137574765448542, 0.0 ], [ 121.422987141057561, 1.137487644768358, 0.0 ], [ 121.422649257594642, 1.137297287888095, 0.0 ], [ 121.422229162633982, 1.137040906404883, 0.0 ], [ 121.421784864765655, 1.137375980625903, 0.0 ], [ 121.421529718101311, 1.137648089580634, 0.0 ], [ 121.421360261648644, 1.137880062575215, 0.0 ], [ 121.421310763335356, 1.138004245411768, 0.0 ], [ 121.421281933760781, 1.138109953982202, 0.0 ], [ 121.421258482785774, 1.138406890910403, 0.0 ], [ 121.421278387071609, 1.138750947612769, 0.0 ], [ 121.421310667898382, 1.13890746657564, 0.0 ], [ 121.421418125274911, 1.139137897035745, 0.0 ], [ 121.421499835491929, 1.13924873344813, 0.0 ], [ 121.421563542732855, 1.139314314278029, 0.0 ], [ 121.421795329423645, 1.139505541196676, 0.0 ], [ 121.421830827462784, 1.139534827522817, 0.0 ], [ 121.421846572232624, 1.139548510552761, 0.0 ], [ 121.421955100493335, 1.13964734862235, 0.0 ], [ 121.422218530975684, 1.139821006542092, 0.0 ], [ 121.422404773672739, 1.139919176254828, 0.0 ], [ 121.422455301212494, 1.139935132404905, 0.0 ], [ 121.422625749350104, 1.139962772547263, 0.0 ], [ 121.422897663997645, 1.139930782454696, 0.0 ], [ 121.422920139847818, 1.139928138474789, 0.0 ], [ 121.423245798002654, 1.13971273587262, 0.0 ], [ 121.423282056700003, 1.139688752802504, 0.0 ], [ 121.423560566777596, 1.139408422080591, 0.0 ], [ 121.423864777657599, 1.139028734525871, 0.0 ], [ 121.423897312840069, 1.138954620760919, 0.0 ], [ 121.424020843767721, 1.138673222748787, 0.0 ], [ 121.424038204607612, 1.138637920233844, 0.0 ], [ 121.424090112059233, 1.138554057681195, 0.0 ], [ 121.423812477230186, 1.138498098522944, 0.0 ], [ 121.423796874902663, 1.138376212348281, 0.0 ] ] ] ] } },
{ "type": "Feature", "properties": { "WADMPR": "SULAWESI TENGAH", "WADMKK": "BUOL", "WADMKC": "BUKAL", "WADMKD": "BUNGKUDU", "POKTAN": "KT USAHA BERSAMA", "LUAS_HA": 115.500995597, "PAKET": "Paket Sulawesi Tengah 8" }, "geometry": { "type": "MultiPolygon", "coordinates": [ [ [ [ 121.44891019515272, 1.113882433687003, 0.0 ], [ 121.448445172035903, 1.113679505861417, 0.0 ], [ 121.448527547527462, 1.113949909539451, 0.0 ], [ 121.448655894580369, 1.114367293395118, 0.0 ], [ 121.448794699541239, 1.11481914020278, 0.0 ], [ 121.448866003459557, 1.115273858986214, 0.0 ], [ 121.44895061744279, 1.115805162072452, 0.0 ], [ 121.44899339979375, 1.116095224877919, 0.0 ], [ 121.448966779664119, 1.116634186534136, 0.0 ], [ 121.448953469599317, 1.11688882919739, 0.0 ], [ 121.44893445522105, 1.117045826940269, 0.0 ], [ 121.448696775493516, 1.117359822450604, 0.0 ], [ 121.448690120461109, 1.11751203370061, 0.0 ], [ 121.448666352488345, 1.117678604511226, 0.0 ], [ 121.448595048570041, 1.117886339385762, 0.0 ], [ 121.448519941776155, 1.118023233803939, 0.0 ], [ 121.448415362696068, 1.118191719250206, 0.0 ], [ 121.448364023874944, 1.118357332794739, 0.0 ], [ 121.448355467404781, 1.118544007032001, 0.0 ], [ 121.448372580345108, 1.11873355319244, 0.0 ], [ 121.448356418123652, 1.118869490345226, 0.0 ], [ 121.448322192242841, 1.119002555592145, 0.0 ], [ 121.448256592637946, 1.11914710849308, 0.0 ], [ 121.448203768318521, 1.119218607136634, 0.0 ], [ 121.44818379484542, 1.119243425976721, 0.0 ], [ 121.44844079303148, 1.119090852402149, 0.0 ], [ 121.448583790473819, 1.119073244512796, 0.0 ], [ 121.448799603666345, 1.118897100585845, 0.0 ], [ 121.449230026629365, 1.118459582777692, 0.0 ], [ 121.449528594000185, 1.118182696751589, 0.0 ], [ 121.449920298365555, 1.117754584268243, 0.0 ], [ 121.450287641175976, 1.117376702901277, 0.0 ], [ 121.450367976923729, 1.117267570311035, 0.0 ], [ 121.450530074497863, 1.116971859303493, 0.0 ], [ 121.450679337367021, 1.116718173936523, 0.0 ], [ 121.450782965728166, 1.116533414418489, 0.0 ], [ 121.450818142327975, 1.116475018925533, 0.0 ], [ 121.451120470941433, 1.116314191999812, 0.0 ], [ 121.451422799554891, 1.116163895416324, 0.0 ], [ 121.451817347902747, 1.115976264023155, 0.0 ], [ 121.452138690894401, 1.115668969776945, 0.0 ], [ 121.452315524611961, 1.115530160859742, 0.0 ], [ 121.452397877765861, 1.115418105570886, 0.0 ], [ 121.452113375132058, 1.115291741601383, 0.0 ], [ 121.451755429462182, 1.115135940578001, 0.0 ], [ 121.451391066439712, 1.114975831700562, 0.0 ], [ 121.450945416950489, 1.114779823983263, 0.0 ], [ 121.45041776795523, 1.114550789340596, 0.0 ], [ 121.449658589954453, 1.114216463823985, 0.0 ], [ 121.449233066035291, 1.114023328811288, 0.0 ], [ 121.44899676470142, 1.113920211101288, 0.0 ], [ 121.44891019515272, 1.113882433687003, 0.0 ] ] ], [ [ [ 121.448197344277943, 1.101677190411925, 0.0 ], [ 121.446230719756812, 1.101680759603227, 0.0 ], [ 121.444593219738053, 1.101693818405437, 0.0 ], [ 121.444483681169572, 1.101675439802283, 0.0 ], [ 121.44414239648232, 1.101618178363519, 0.0 ], [ 121.444045806746217, 1.101601972341393, 0.0 ], [ 121.443732840324017, 1.103794321663568, 0.0 ], [ 121.443300263219982, 1.106465187484771, 0.0 ], [ 121.443034061924877, 1.108049519390981, 0.0 ], [ 121.442993656371129, 1.108464987834012, 0.0 ], [ 121.443185680932103, 1.109441951316415, 0.0 ], [ 121.443201929000296, 1.109533546761121, 0.0 ], [ 121.443596390000195, 1.110966012759551, 0.0 ], [ 121.443897113000162, 1.111684898758832, 0.0 ], [ 121.444599630000226, 1.112825075757586, 0.0 ], [ 121.445263022410671, 1.113826354716563, 0.0 ], [ 121.445498082214144, 1.114754061981132, 0.0 ], [ 121.445773885609583, 1.116952301458236, 0.0 ], [ 121.445804337990111, 1.117188960746006, 0.0 ], [ 121.445838563870808, 1.117194704566255, 0.0 ], [ 121.445966198624404, 1.117191861972338, 0.0 ], [ 121.445981318815029, 1.11721069689515, 0.0 ], [ 121.446094584227623, 1.118340230464323, 0.0 ], [ 121.446141084892375, 1.118803956102613, 0.0 ], [ 121.446187971381306, 1.119271529424836, 0.0 ], [ 121.446243309467093, 1.119823385995284, 0.0 ], [ 121.446813071632548, 1.119699545467292, 0.0 ], [ 121.446812668342588, 1.119696540965188, 0.0 ], [ 121.44749013900001, 1.119572772750063, 0.0 ], [ 121.447971147749229, 1.119354671248764, 0.0 ], [ 121.448078086000095, 1.119306182750317, 0.0 ], [ 121.448144831720228, 1.119266557437538, 0.0 ], [ 121.448165561302488, 1.119223034667699, 0.0 ], [ 121.448249699926038, 1.119090926714924, 0.0 ], [ 121.448289630120271, 1.118996871599892, 0.0 ], [ 121.448334551588772, 1.118794401820378, 0.0 ], [ 121.448330273353733, 1.118636446682608, 0.0 ], [ 121.448318151687687, 1.118554597205366, 0.0 ], [ 121.448315299530933, 1.118463414018472, 0.0 ], [ 121.448328134236206, 1.118344947677366, 0.0 ], [ 121.448349525411814, 1.118260226296956, 0.0 ], [ 121.448373055704693, 1.11819273638534, 0.0 ], [ 121.448408707663816, 1.118118784675513, 0.0 ], [ 121.448445785701367, 1.118059910500014, 0.0 ], [ 121.448489281091753, 1.118003908236582, 0.0 ], [ 121.448530637364215, 1.117932110464485, 0.0 ], [ 121.448564863244911, 1.117862466627199, 0.0 ], [ 121.448605506478273, 1.117767693572782, 0.0 ], [ 121.448646149711735, 1.117598968824342, 0.0 ], [ 121.448658271377923, 1.117506349711124, 0.0 ], [ 121.448658271377923, 1.11734480475295, 0.0 ], [ 121.448904982935076, 1.117015971042577, 0.0 ], [ 121.448925661071399, 1.11677832050128, 0.0 ], [ 121.448940634894313, 1.116445178988417, 0.0 ], [ 121.448949904403776, 1.116077574603173, 0.0 ], [ 121.448870757054266, 1.115563502920469, 0.0 ], [ 121.448812287841406, 1.115177949215952, 0.0 ], [ 121.448764514216251, 1.114869219096807, 0.0 ], [ 121.448761662059368, 1.114845525856482, 0.0 ], [ 121.448592671773085, 1.114294119587024, 0.0 ], [ 121.448455055210744, 1.113838922299576, 0.0 ], [ 121.448388101208593, 1.11363981975431, 0.0 ], [ 121.448348400000157, 1.113024572757307, 0.0 ], [ 121.448254598109202, 1.112578199282871, 0.0 ], [ 121.448058512333731, 1.111985868776616, 0.0 ], [ 121.447900114207329, 1.111540999674052, 0.0 ], [ 121.447895922884783, 1.111527128764658, 0.0 ], [ 121.44768297836417, 1.110968735854042, 0.0 ], [ 121.447526109744032, 1.110529573862152, 0.0 ], [ 121.44757352606679, 1.110460177623469, 0.0 ], [ 121.447874310544975, 1.110004254832681, 0.0 ], [ 121.447919469693005, 1.109937243755762, 0.0 ], [ 121.448113178671122, 1.109061313385879, 0.0 ], [ 121.448607552504427, 1.108406759025449, 0.0 ], [ 121.449006084543285, 1.107825031086725, 0.0 ], [ 121.449198757860444, 1.10758501619305, 0.0 ], [ 121.449611076902542, 1.107028112367197, 0.0 ], [ 121.450069669058735, 1.106307502230046, 0.0 ], [ 121.450372455373696, 1.105894377210966, 0.0 ], [ 121.450394361246055, 1.105833716485081, 0.0 ], [ 121.450403371396391, 1.10454559218633, 0.0 ], [ 121.450490362176566, 1.104310096544496, 0.0 ], [ 121.450655884283051, 1.104014008197872, 0.0 ], [ 121.451096712871902, 1.103362890894245, 0.0 ], [ 121.451309850743144, 1.102989556053557, 0.0 ], [ 121.451331473125748, 1.10292166923662, 0.0 ], [ 121.451375581479539, 1.102068295736849, 0.0 ], [ 121.4513310944225, 1.102044817136998, 0.0 ], [ 121.451307527056585, 1.102036194929776, 0.0 ], [ 121.450814615115348, 1.101926412172211, 0.0 ], [ 121.4498248956059, 1.101773558582512, 0.0 ], [ 121.448197344277943, 1.101677190411925, 0.0 ] ] ] ] } },
{ "type": "Feature", "properties": { "WADMPR": "SULAWESI TENGAH", "WADMKK": "BUOL", "WADMKC": "BOKAT", "WADMKD": "NEGERI LAMA", "POKTAN": "KT BUNGA PADI", "LUAS_HA": 62.006989297300002, "PAKET": "Paket Sulawesi Tengah 8" }, "geometry": { "type": "MultiPolygon", "coordinates": [ [ [ [ 121.460211348138884, 1.127910677419594, 0.0 ], [ 121.460242441022373, 1.127942080730747, 0.0 ], [ 121.460620840122004, 1.127623349287517, 0.0 ], [ 121.46027148869419, 1.127158711885416, 0.0 ], [ 121.460202316101572, 1.127066712345143, 0.0 ], [ 121.460277601294933, 1.127011503203349, 0.0 ], [ 121.460349842683954, 1.126907288457858, 0.0 ], [ 121.46015472688147, 1.126738346726522, 0.0 ], [ 121.460083343051579, 1.126609855832486, 0.0 ], [ 121.45994057539086, 1.126481364938212, 0.0 ], [ 121.459764429013461, 1.126384020887704, 0.0 ], [ 121.459759736354499, 1.126381427576211, 0.0 ], [ 121.459582660672126, 1.126354633229484, 0.0 ], [ 121.459398058281565, 1.126326699972916, 0.0 ], [ 121.459241883531277, 1.126155929451673, 0.0 ], [ 121.459449627154143, 1.12584397065198, 0.0 ], [ 121.459926902002366, 1.125127269647, 0.0 ], [ 121.459871195581542, 1.125103974234638, 0.0 ], [ 121.459918001103276, 1.12504323849777, 0.0 ], [ 121.459942954852082, 1.125010858038203, 0.0 ], [ 121.459906014235258, 1.124927125971285, 0.0 ], [ 121.459835879106748, 1.124768153016017, 0.0 ], [ 121.460215569548993, 1.124469757602503, 0.0 ], [ 121.459719987434895, 1.123814793400249, 0.0 ], [ 121.459386013617419, 1.123373411742754, 0.0 ], [ 121.459075939835472, 1.123199821710258, 0.0 ], [ 121.459067083334659, 1.123193493190789, 0.0 ], [ 121.458326561190987, 1.122664344203857, 0.0 ], [ 121.45829844647929, 1.122644254501016, 0.0 ], [ 121.458277650294008, 1.122668475716244, 0.0 ], [ 121.457883232051287, 1.123081663693402, 0.0 ], [ 121.457613632956395, 1.123364092611485, 0.0 ], [ 121.457582257956687, 1.123382684991348, 0.0 ], [ 121.457528694229083, 1.123414426096315, 0.0 ], [ 121.457320120133886, 1.123219110990117, 0.0 ], [ 121.457174085320744, 1.123082359563906, 0.0 ], [ 121.457099194567618, 1.123002665012388, 0.0 ], [ 121.456956195911076, 1.122850493838565, 0.0 ], [ 121.457339746457194, 1.122557728455924, 0.0 ], [ 121.457515630885794, 1.122423475307585, 0.0 ], [ 121.457900812310626, 1.12211005772253, 0.0 ], [ 121.457780066210773, 1.121931129900792, 0.0 ], [ 121.457498185622171, 1.121513424692896, 0.0 ], [ 121.457376706157419, 1.121610608264776, 0.0 ], [ 121.4571045388236, 1.121333623807226, 0.0 ], [ 121.457040607290182, 1.12126856074544, 0.0 ], [ 121.456814558494813, 1.120825386133731, 0.0 ], [ 121.456826009146326, 1.120810215076281, 0.0 ], [ 121.456930348766974, 1.120671974702759, 0.0 ], [ 121.457011101973791, 1.120616152196218, 0.0 ], [ 121.456808899354584, 1.120336576121, 0.0 ], [ 121.456733851926828, 1.120232811570001, 0.0 ], [ 121.456638002487992, 1.120100285050663, 0.0 ], [ 121.45704340244356, 1.119767532166945, 0.0 ], [ 121.457320168785358, 1.119540361965029, 0.0 ], [ 121.457458449155027, 1.11931250147819, 0.0 ], [ 121.457056796137095, 1.118912752029669, 0.0 ], [ 121.456796989749279, 1.119057099177567, 0.0 ], [ 121.456774251905188, 1.11906503424457, 0.0 ], [ 121.456436835980838, 1.119182785866619, 0.0 ], [ 121.456411418313692, 1.119191656140369, 0.0 ], [ 121.456387985246849, 1.119135692456904, 0.0 ], [ 121.456108037035406, 1.118467110264888, 0.0 ], [ 121.45665943182091, 1.118145118908805, 0.0 ], [ 121.45690204691526, 1.118003441912109, 0.0 ], [ 121.45742881865138, 1.117634573085531, 0.0 ], [ 121.457432596091081, 1.117631927955625, 0.0 ], [ 121.457240808708676, 1.1172663589911, 0.0 ], [ 121.457150384511252, 1.117094000013207, 0.0 ], [ 121.456971305488324, 1.117135325941395, 0.0 ], [ 121.456733359387826, 1.116616603442686, 0.0 ], [ 121.45684490379486, 1.116511718403367, 0.0 ], [ 121.456798602211762, 1.11642346222144, 0.0 ], [ 121.456646744731984, 1.116134004289001, 0.0 ], [ 121.456603440816764, 1.116020786407512, 0.0 ], [ 121.456696075871619, 1.115975150856256, 0.0 ], [ 121.456767587089217, 1.115744874328582, 0.0 ], [ 121.456952521471521, 1.115149358785057, 0.0 ], [ 121.456880433039089, 1.115029417845333, 0.0 ], [ 121.45639876773204, 1.114228021854547, 0.0 ], [ 121.45591710242492, 1.113426626075894, 0.0 ], [ 121.455792841996086, 1.113219881340265, 0.0 ], [ 121.455218465668693, 1.113562487967902, 0.0 ], [ 121.45477945849845, 1.113828268146143, 0.0 ], [ 121.454054098773241, 1.114267409628426, 0.0 ], [ 121.45403900394129, 1.114366704764561, 0.0 ], [ 121.454031370035722, 1.114416921269066, 0.0 ], [ 121.453972253922387, 1.114643533036869, 0.0 ], [ 121.453638276431889, 1.115129374727649, 0.0 ], [ 121.45357984168605, 1.115176314386395, 0.0 ], [ 121.453141344256906, 1.115528552096087, 0.0 ], [ 121.453015021285353, 1.115587933045762, 0.0 ], [ 121.452782219291194, 1.11565963998867, 0.0 ], [ 121.452717611046921, 1.115679540418517, 0.0 ], [ 121.452349095328472, 1.115734755955855, 0.0 ], [ 121.452331144972945, 1.115733239203976, 0.0 ], [ 121.451925644641292, 1.116086134180367, 0.0 ], [ 121.451891236275983, 1.116116078767538, 0.0 ], [ 121.451055332117164, 1.116499384766907, 0.0 ], [ 121.451001126860106, 1.116524240728387, 0.0 ], [ 121.450533733298911, 1.117223169269417, 0.0 ], [ 121.450582311841117, 1.117295635466606, 0.0 ], [ 121.451267114105917, 1.118317177547665, 0.0 ], [ 121.451781365176885, 1.119084303026363, 0.0 ], [ 121.451875108058132, 1.119224142430745, 0.0 ], [ 121.452262873063873, 1.119885865870481, 0.0 ], [ 121.452618081578052, 1.120492031578582, 0.0 ], [ 121.45278273020817, 1.120647095640677, 0.0 ], [ 121.453401783416666, 1.121230112438007, 0.0 ], [ 121.453435473391394, 1.12126856456585, 0.0 ], [ 121.453492019121924, 1.121333103162626, 0.0 ], [ 121.453828691851328, 1.121664741002436, 0.0 ], [ 121.454064581744504, 1.121914891226964, 0.0 ], [ 121.454395479462875, 1.122265792851906, 0.0 ], [ 121.454692375468653, 1.122562600670308, 0.0 ], [ 121.454695886414953, 1.122566110573922, 0.0 ], [ 121.455144176868572, 1.123000124260753, 0.0 ], [ 121.455342866454416, 1.123186438710328, 0.0 ], [ 121.455556775406848, 1.12338702461988, 0.0 ], [ 121.455979367681365, 1.123788201744974, 0.0 ], [ 121.455997697007717, 1.123805712796499, 0.0 ], [ 121.456459067020234, 1.124246485934281, 0.0 ], [ 121.45664131388645, 1.12443678084854, 0.0 ], [ 121.456815589594285, 1.124618752608189, 0.0 ], [ 121.457071381652469, 1.124878113857567, 0.0 ], [ 121.457277330729056, 1.125075842275156, 0.0 ], [ 121.457354537512032, 1.12514996727721, 0.0 ], [ 121.457527643300281, 1.125319503873712, 0.0 ], [ 121.457712051528517, 1.125496773718308, 0.0 ], [ 121.457893485429992, 1.125671664102083, 0.0 ], [ 121.457925579606666, 1.125702038947099, 0.0 ], [ 121.458093360154351, 1.125860831251939, 0.0 ], [ 121.458315839758598, 1.126073198146367, 0.0 ], [ 121.458524042596622, 1.126269503679255, 0.0 ], [ 121.458579843430769, 1.126321909603278, 0.0 ], [ 121.458662884146293, 1.126399898142175, 0.0 ], [ 121.458858951733276, 1.126585971992697, 0.0 ], [ 121.459017423836173, 1.126735878035816, 0.0 ], [ 121.459217774452753, 1.126926710808324, 0.0 ], [ 121.459233542445816, 1.126942374419061, 0.0 ], [ 121.459366044616559, 1.127073999444364, 0.0 ], [ 121.459457653865314, 1.127163526664596, 0.0 ], [ 121.459524278773642, 1.127228664409692, 0.0 ], [ 121.459618267483293, 1.127322058253885, 0.0 ], [ 121.459690841044022, 1.127391360055545, 0.0 ], [ 121.459757763384886, 1.127457687531114, 0.0 ], [ 121.459841044519862, 1.127541563531588, 0.0 ], [ 121.459874963394199, 1.127575752675509, 0.0 ], [ 121.45991570010888, 1.127616813985718, 0.0 ], [ 121.460012960577743, 1.127711992425855, 0.0 ], [ 121.460118549159745, 1.127817878440519, 0.0 ], [ 121.460211348138884, 1.127910677419594, 0.0 ] ] ] ] } },
{ "type": "Feature", "properties": { "WADMPR": "SULAWESI TENGAH", "WADMKK": "BUOL", "WADMKC": "BOKAT", "WADMKD": "KODOLAGON", "POKTAN": "KT BOYAYO DIDI", "LUAS_HA": 20.007786423, "PAKET": "Paket Sulawesi Tengah 8" }, "geometry": { "type": "MultiPolygon", "coordinates": [ [ [ [ 121.471091786687794, 1.09133278865936, 0.000000000000114 ], [ 121.471140045504399, 1.091218929617482, 0.000000000000114 ], [ 121.471171511072413, 1.091130073398874, 0.000000000000114 ], [ 121.471190685329617, 1.09106182308137, 0.000000000000114 ], [ 121.471265566735198, 1.090697515780856, 0.000000000000114 ], [ 121.471320960660563, 1.090379479487028, 0.000000000000114 ], [ 121.471335978000198, 1.090251122782632, 0.000000000000114 ], [ 121.471045292000397, 1.090143150782808, 0.000000000000114 ], [ 121.470909582000161, 1.090353328782632, 0.000000000000114 ], [ 121.470437782000133, 1.08999858378295, 0.000000000000114 ], [ 121.470183180000191, 1.09012262578276, 0.000000000000114 ], [ 121.470111486000519, 1.09005795678284, 0.000000000000114 ], [ 121.470004858000209, 1.089455856783596, 0.000000000000114 ], [ 121.470132000000191, 1.089189607783896, 0.000000000000114 ], [ 121.470450414000283, 1.089298929783692, 0.000000000000114 ], [ 121.470298117000169, 1.089643781783341, 0.000000000000114 ], [ 121.470628996000286, 1.089769374783229, 0.000000000000114 ], [ 121.470996484000096, 1.089336374783796, 0.000000000000114 ], [ 121.47067234100011, 1.089191452783915, 0.000000000000114 ], [ 121.470984309000229, 1.088931373784141, 0.000000000000114 ], [ 121.471344568000319, 1.089110934783992, 0.000000000000114 ], [ 121.471487876000126, 1.088994706784107, 0.000000000000114 ], [ 121.471761658000162, 1.089139787783942, 0.000000000000114 ], [ 121.471752125000265, 1.08878552378447, 0.000000000000114 ], [ 121.471432949000047, 1.088688372784455, 0.000000000000114 ], [ 121.471480837000186, 1.088564238784597, 0.000000000000114 ], [ 121.471303626000292, 1.08839357278484, 0.000000000000114 ], [ 121.471347329000068, 1.08816290778506, 0.000000000000114 ], [ 121.4711503890004, 1.087848008785412, 0.000000000000114 ], [ 121.471470014000175, 1.087433393785802, 0.000000000000114 ], [ 121.4713342940003, 1.087291224786029, 0.000000000000114 ], [ 121.471133753000416, 1.087377124785889, 0.000000000000114 ], [ 121.470950185000078, 1.087315191785936, 0.000000000000114 ], [ 121.470921462569265, 1.087056452818312, 0.000000000000114 ], [ 121.470322075427447, 1.086969598032486, 0.000000000000114 ], [ 121.469957767122821, 1.087185686642762, 0.000000000000114 ], [ 121.469837701000174, 1.087350854785939, 0.000000000000114 ], [ 121.469599405000125, 1.08764796878553, 0.000000000000114 ], [ 121.468890173000176, 1.088172932784975, 0.000000000000114 ], [ 121.46874604200012, 1.088017230785104, 0.000000000000114 ], [ 121.46838416100023, 1.087744322785404, 0.000000000000114 ], [ 121.468130372000388, 1.087762645785452, 0.000000000000114 ], [ 121.467906010614669, 1.088048021967621, 0.000000000000114 ], [ 121.467837622000218, 1.088135008785089, 0.000000000000114 ], [ 121.467812566172043, 1.088126154886757, 0.000000000000114 ], [ 121.467134232843875, 1.088693338629366, 0.000000000000114 ], [ 121.467452075000182, 1.089013491784125, 0.000000000000114 ], [ 121.46763617900011, 1.08888226178424, 0.000000000000114 ], [ 121.467983975, 1.089262576783782, 0.000000000000114 ], [ 121.46764519800017, 1.089649540783381, 0.000000000000114 ], [ 121.46782787300009, 1.089952401783063, 0.000000000000114 ], [ 121.467558188000183, 1.090187214782782, 0.000000000000114 ], [ 121.467373967000171, 1.090036434782904, 0.000000000000114 ], [ 121.467105737000381, 1.090270598782634, 0.000000000000114 ], [ 121.466934997000152, 1.090009935782933, 0.000000000000114 ], [ 121.467046771000071, 1.089901294783107, 0.000000000000114 ], [ 121.466852395000259, 1.089677578783385, 0.000000000000114 ], [ 121.466833975000199, 1.089673338783312, 0.000000000000114 ], [ 121.466819118000274, 1.089674720783332, 0.000000000000114 ], [ 121.466796085000126, 1.089669418783312, 0.000000000000114 ], [ 121.466776609000121, 1.089669737783305, 0.000000000000114 ], [ 121.466761751000192, 1.089671117783338, 0.000000000000114 ], [ 121.46675151200013, 1.089673559783332, 0.000000000000114 ], [ 121.466736676000252, 1.089674941783395, 0.000000000000114 ], [ 121.466720852000435, 1.089680892783342, 0.000000000000114 ], [ 121.466704014000186, 1.089691407783289, 0.000000000000114 ], [ 121.466685409000064, 1.089699115783293, 0.000000000000114 ], [ 121.466668596000133, 1.089709635783255, 0.000000000000114 ], [ 121.466654610000219, 1.0897184077833, 0.000000000000114 ], [ 121.466640630000072, 1.08972718278321, 0.000000000000114 ], [ 121.466629439000215, 1.089734202783255, 0.000000000000114 ], [ 121.466614422000191, 1.089747540783208, 0.000000000000114 ], [ 121.466594827000193, 1.089759824783197, 0.000000000000114 ], [ 121.466579058000178, 1.089765788783272, 0.000000000000114 ], [ 121.466562559000167, 1.089764379783369, 0.000000000000114 ], [ 121.466555186000178, 1.089765078783243, 0.000000000000114 ], [ 121.466542475000082, 1.089757338783281, 0.000000000000114 ], [ 121.466535410000489, 1.089746103783264, 0.000000000000114 ], [ 121.466525550000199, 1.089736625783207, 0.000000000000114 ], [ 121.466515691000026, 1.089727148783312, 0.000000000000114 ], [ 121.466502308000074, 1.089712057783242, 0.000000000000114 ], [ 121.466494230000265, 1.089705392783256, 0.000000000000114 ], [ 121.466479894000074, 1.089694884783419, 0.000000000000114 ], [ 121.466467303000201, 1.089687178783319, 0.000000000000114 ], [ 121.466455772000288, 1.089674916783363, 0.000000000000114 ], [ 121.466429953000215, 1.089652153783348, 0.000000000000114 ], [ 121.46642866469287, 1.089650060003504, 0.000000000000114 ], [ 121.465175954399996, 1.091048109741939, 0.000000000000114 ], [ 121.465424876000071, 1.091250155781571, 0.000000000000114 ], [ 121.465720150000351, 1.091460391781324, 0.000000000000114 ], [ 121.465721900000219, 1.091463207781316, 0.000000000000114 ], [ 121.465728900000016, 1.091474473781362, 0.000000000000114 ], [ 121.465733086000242, 1.091487498781333, 0.000000000000114 ], [ 121.465740774000196, 1.091506158781419, 0.000000000000114 ], [ 121.465749526000323, 1.091520245781309, 0.000000000000114 ], [ 121.465761094000101, 1.091532574781217, 0.000000000000114 ], [ 121.465773728000173, 1.091540327781265, 0.000000000000114 ], [ 121.46578359300014, 1.091549800781182, 0.000000000000114 ], [ 121.465795225000292, 1.091562074781243, 0.000000000000114 ], [ 121.46580686500009, 1.091574340781159, 0.000000000000114 ], [ 121.465813928000173, 1.091585553781194, 0.000000000000114 ], [ 121.465824519000066, 1.091602375781156, 0.000000000000114 ], [ 121.465838631000253, 1.091624806781114, 0.000000000000114 ], [ 121.465845682000065, 1.091636023781155, 0.000000000000114 ], [ 121.465847085000291, 1.091688337781068, 0.000000000000114 ], [ 121.46584281300008, 1.091706596781021, 0.000000000000114 ], [ 121.465836157000226, 1.091714682781091, 0.000000000000114 ], [ 121.465834808000295, 1.09173120878114, 0.000000000000114 ], [ 121.465843491000115, 1.091745243780961, 0.000000000000114 ], [ 121.465852176000126, 1.09175928478101, 0.000000000000114 ], [ 121.465865375000305, 1.091774371780971, 0.000000000000114 ], [ 121.465872254000104, 1.091785597780988, 0.000000000000114 ], [ 121.465882017000041, 1.091795079780957, 0.000000000000114 ], [ 121.465896373000021, 1.091805619780974, 0.000000000000114 ], [ 121.46591297000019, 1.091807036780931, 0.000000000000114 ], [ 121.465926053000203, 1.091802828781031, 0.000000000000114 ], [ 121.465940863000213, 1.091801427780933, 0.000000000000114 ], [ 121.465952835000252, 1.091801782780962, 0.000000000000114 ], [ 121.465967000000461, 1.091793012781009, 0.000000000000114 ], [ 121.465978329000222, 1.091785997781023, 0.000000000000114 ], [ 121.465993124000164, 1.091784597781015, 0.000000000000114 ], [ 121.466010901000374, 1.091781470780949, 0.000000000000114 ], [ 121.466021125000296, 1.091779018781012, 0.000000000000114 ], [ 121.466037679000138, 1.091780431780957, 0.000000000000114 ], [ 121.466046838000068, 1.091782544781121, 0.000000000000114 ], [ 121.466061628000219, 1.091781144781021, 0.000000000000114 ], [ 121.466079949000331, 1.091785370780964, 0.000000000000114 ], [ 121.466093691000509, 1.091788542780957, 0.000000000000114 ], [ 121.466107437000232, 1.091791712781101, 0.000000000000114 ], [ 121.46612013100011, 1.091799449780914, 0.000000000000114 ], [ 121.466132859000169, 1.091807188780995, 0.000000000000114 ], [ 121.46614381300013, 1.091812116780958, 0.000000000000114 ], [ 121.466156536000199, 1.091819855780944, 0.000000000000114 ], [ 121.466166437000282, 1.091829346780898, 0.000000000000114 ], [ 121.466180923999971, 1.09183989178098, 0.000000000000114 ], [ 121.466195400000089, 1.091850434780942, 0.000000000000114 ], [ 121.46620633600007, 1.091855356780902, 0.000000000000114 ], [ 121.466221839000013, 1.091861330780945, 0.000000000000114 ], [ 121.466232743000077, 1.091866247780832, 0.000000000000114 ], [ 121.466248217000143, 1.091872217780847, 0.000000000000114 ], [ 121.466260884000036, 1.091879942780835, 0.000000000000114 ], [ 121.466276355000218, 1.091885911780971, 0.000000000000114 ], [ 121.466291826000145, 1.091891880780899, 0.000000000000114 ], [ 121.466304488000134, 1.091899603780823, 0.000000000000114 ], [ 121.466319957000124, 1.09190557178078, 0.000000000000114 ], [ 121.466343515000091, 1.091918206780835, 0.000000000000114 ], [ 121.466367071000192, 1.091930840780902, 0.000000000000114 ], [ 121.466373398000201, 1.091934700780792, 0.000000000000114 ], [ 121.466386047000029, 1.091942419780847, 0.000000000000114 ], [ 121.466397640000039, 1.09195469878079, 0.000000000000114 ], [ 121.466412032000108, 1.091965223780725, 0.000000000000114 ], [ 121.466422911000151, 1.091970134780831, 0.000000000000114 ], [ 121.466429937000143, 1.091981360780768, 0.000000000000114 ], [ 121.466440474000066, 1.091998198780715, 0.000000000000114 ], [ 121.466453815999969, 1.09201328178068, 0.000000000000114 ], [ 121.46646540100015, 1.092025558780697, 0.000000000000114 ], [ 121.466491033000182, 1.092060281780653, 0.000000000000114 ], [ 121.466503324000115, 1.092079920780602, 0.000000000000114 ], [ 121.466508591000277, 1.09208833778063, 0.000000000000114 ], [ 121.466516663000306, 1.092095000780635, 0.000000000000114 ], [ 121.466523685000098, 1.09210622278058, 0.000000000000114 ], [ 121.466534205000045, 1.092123059780636, 0.000000000000114 ], [ 121.466538415000258, 1.092136037780552, 0.000000000000114 ], [ 121.466544378000123, 1.092151820780566, 0.000000000000114 ], [ 121.466549638000075, 1.09216023978055, 0.000000000000114 ], [ 121.466558406000303, 1.092174270780584, 0.000000000000114 ], [ 121.466567169000186, 1.092188303780527, 0.000000000000114 ], [ 121.466577684000015, 1.092205144780433, 0.000000000000114 ], [ 121.466583649000071, 1.092220926780541, 0.000000000000114 ], [ 121.466587155000184, 1.092226540780466, 0.000000000000114 ], [ 121.466595922000124, 1.092240572780479, 0.000000000000114 ], [ 121.466602937000161, 1.09225179978042, 0.000000000000114 ], [ 121.466609949000045, 1.092263027780434, 0.000000000000114 ], [ 121.466615912000194, 1.092278811780429, 0.000000000000114 ], [ 121.46662011800008, 1.092291791780406, 0.000000000000114 ], [ 121.46662712700018, 1.092303023780398, 0.000000000000114 ], [ 121.466638343000113, 1.092327236780462, 0.000000000000114 ], [ 121.466639045000079, 1.092334602780428, 0.000000000000114 ], [ 121.466643251000349, 1.0923475847804, 0.000000000000114 ], [ 121.466650262000059, 1.092358817780365, 0.000000000000114 ], [ 121.466660777000143, 1.092375667780275, 0.000000000000114 ], [ 121.466664984000104, 1.092388650780325, 0.000000000000114 ], [ 121.466670242000276, 1.092397076780277, 0.000000000000114 ], [ 121.466681810000068, 1.092409369780366, 0.000000000000114 ], [ 121.466688822000222, 1.092420604780316, 0.000000000000114 ], [ 121.466701446000187, 1.09242833578025, 0.000000000000114 ], [ 121.466713025000132, 1.092440615780303, 0.000000000000114 ], [ 121.466718288000166, 1.092449034780232, 0.000000000000114 ], [ 121.466728110000062, 1.092458509780221, 0.000000000000114 ], [ 121.466737933000402, 1.092467988780248, 0.000000000000114 ], [ 121.466750564000506, 1.092475709780209, 0.000000000000114 ], [ 121.466760386999979, 1.092485184780136, 0.000000000000114 ], [ 121.46677021400032, 1.092494651780352, 0.000000000000114 ], [ 121.466783904000152, 1.092497792780221, 0.000000000000114 ], [ 121.466797595000287, 1.092500934780134, 0.000000000000114 ], [ 121.466814092000192, 1.092502318780168, 0.000000000000114 ], [ 121.46682497200014, 1.092507216780167, 0.000000000000114 ], [ 121.466839712000066, 1.092505796780172, 0.000000000000114 ], [ 121.466849188000026, 1.092495965780209, 0.000000000000114 ], [ 121.466858663000338, 1.092486134780278, 0.000000000000114 ], [ 121.466864626000202, 1.092470724780187, 0.000000000000114 ], [ 121.466873395000135, 1.092453546780176, 0.000000000000114 ], [ 121.466879356000206, 1.092438126780292, 0.000000000000114 ], [ 121.466882512000339, 1.092424459780279, 0.000000000000114 ], [ 121.466890230000132, 1.092411838780342, 0.000000000000114 ], [ 121.466897948000096, 1.092399219780308, 0.000000000000114 ], [ 121.46690672000031, 1.092382040780302, 0.000000000000114 ], [ 121.466917248000144, 1.092367654780249, 0.000000000000114 ], [ 121.466920403, 1.092353983780413, 0.000000000000114 ], [ 121.466924614000149, 1.09233574978035, 0.000000000000114 ], [ 121.466927772000147, 1.092322072780389, 0.000000000000114 ], [ 121.466929180000136, 1.092305587780368, 0.000000000000114 ], [ 121.466930584000266, 1.092289101780404, 0.000000000000114 ], [ 121.466928126000184, 1.092278932780416, 0.000000000000114 ], [ 121.4669312850003, 1.092265248780417, 0.000000000000114 ], [ 121.466927074000353, 1.092252273780465, 0.000000000000114 ], [ 121.466926724000032, 1.092232979780639, 0.000000000000114 ], [ 121.466920758000185, 1.092217198780501, 0.000000000000114 ], [ 121.466919354000325, 1.092202464780553, 0.000000000000114 ], [ 121.46691794900012, 1.092187737780528, 0.000000000000114 ], [ 121.466911979000074, 1.092171959780515, 0.000000000000114 ], [ 121.466912329000124, 1.092160034780573, 0.000000000000114 ], [ 121.466908431000107, 1.092041479780646, 0.000000000000114 ], [ 121.467192449000322, 1.091637515781144, 0.000000000000114 ], [ 121.467195261000114, 1.091635758781163, 0.000000000000114 ], [ 121.467207529000063, 1.091624184781169, 0.000000000000114 ], [ 121.467215183, 1.091611584781222, 0.000000000000114 ], [ 121.467224621000142, 1.091601777781148, 0.000000000000114 ], [ 121.46723762700006, 1.09159755878113, 0.000000000000114 ], [ 121.467248841000114, 1.091590551781259, 0.000000000000114 ], [ 121.467263603000319, 1.09158913978118, 0.000000000000114 ], [ 121.467276578000266, 1.09158493678117, 0.000000000000114 ], [ 121.467290330000282, 1.091588066781191, 0.000000000000114 ], [ 121.467309675000266, 1.091587698781215, 0.000000000000114 ], [ 121.467324436000027, 1.091586287781168, 0.000000000000114 ], [ 121.467339971000328, 1.091592208781201, 0.000000000000114 ], [ 121.467356516000223, 1.091593589781155, 0.000000000000114 ], [ 121.467371275000204, 1.091592178781198, 0.000000000000114 ], [ 121.467387818000262, 1.091593558781204, 0.000000000000114 ], [ 121.467396210000175, 1.091588316781227, 0.000000000000114 ], [ 121.467409149000147, 1.091584133781268, 0.000000000000114 ], [ 121.467425738000131, 1.091585488781274, 0.000000000000114 ], [ 121.467438755000217, 1.09158126178122, 0.000000000000114 ], [ 121.467449974000132, 1.09157425178119, 0.000000000000114 ], [ 121.467463999000131, 1.091565487781204, 0.000000000000114 ], [ 121.467478024000116, 1.091556724781199, 0.000000000000114 ], [ 121.46749003000032, 1.091557035781269, 0.000000000000114 ], [ 121.467503045000086, 1.091552809781201, 0.000000000000114 ], [ 121.467519647000302, 1.091554154781189, 0.000000000000114 ], [ 121.467531650000041, 1.091554465781218, 0.000000000000114 ], [ 121.467544433000114, 1.091562098781208, 0.000000000000114 ], [ 121.467558198000276, 1.091565207781217, 0.000000000000114 ], [ 121.46757654800011, 1.091569355781184, 0.000000000000114 ], [ 121.467585721000262, 1.091571429781194, 0.000000000000114 ], [ 121.467599684000191, 1.091562709781231, 0.000000000000114 ], [ 121.467609062000136, 1.091552947781232, 0.000000000000114 ], [ 121.467618446000245, 1.091543178781236, 0.000000000000114 ], [ 121.467635182000237, 1.091532722781301, 0.000000000000114 ], [ 121.467647361000274, 1.091521208781302, 0.000000000000114 ], [ 121.46765675200011, 1.091511435781441, 0.000000000000114 ], [ 121.467664376000215, 1.091498861781324, 0.000000000000114 ], [ 121.467675814000188, 1.0914799967813, 0.000000000000114 ], [ 121.467681397000106, 1.091476508781293, 0.000000000000114 ], [ 121.467693585000049, 1.091464984781374, 0.000000000000114 ], [ 121.467703006000178, 1.091455187781415, 0.000000000000114 ], [ 121.467706096000143, 1.091441534781383, 0.000000000000114 ], [ 121.467716601000262, 1.091427155781398, 0.000000000000114 ], [ 121.46771869900013, 1.091418033781345, 0.000000000000114 ], [ 121.467728181000325, 1.091408202781432, 0.000000000000114 ], [ 121.467731328000212, 1.091394516781453, 0.000000000000114 ], [ 121.467732713000018, 1.091378022781466, 0.000000000000114 ], [ 121.46773409800042, 1.091361530781453, 0.000000000000114 ], [ 121.467740058000288, 1.091346084781408, 0.000000000000114 ], [ 121.467744967000343, 1.091335202781631, 0.000000000000114 ], [ 121.467748115000077, 1.091321513781469, 0.000000000000114 ], [ 121.467755124000135, 1.091301504781458, 0.000000000000114 ], [ 121.467762845000308, 1.091288870781571, 0.000000000000114 ], [ 121.467770578000312, 1.091276223781589, 0.000000000000114 ], [ 121.467777289000125, 1.091268130781579, 0.000000000000114 ], [ 121.467786116000269, 1.091250902781613, 0.000000000000114 ], [ 121.467793884000159, 1.091238243781586, 0.000000000000114 ], [ 121.467802715000389, 1.091221016781599, 0.000000000000114 ], [ 121.467812253000119, 1.091211162781725, 0.000000000000114 ], [ 121.467823551000123, 1.091204115781659, 0.000000000000114 ], [ 121.467837671000197, 1.091195309781597, 0.000000000000114 ], [ 121.467852156000163, 1.091174562781717, 0.000000000000114 ], [ 121.467866637000185, 1.091153819781682, 0.000000000000114 ], [ 121.467880729000427, 1.09114502678164, 0.000000000000114 ], [ 121.467882125000102, 1.091128532781695, 0.000000000000114 ], [ 121.467885283000243, 1.091114844781688, 0.000000000000114 ], [ 121.467893013000321, 1.091102205781725, 0.000000000000114 ], [ 121.467896164000194, 1.091088520781768, 0.000000000000114 ], [ 121.467897539000091, 1.091072034781829, 0.000000000000114 ], [ 121.467898901000041, 1.091055549781839, 0.000000000000114 ], [ 121.467902032000097, 1.091041867781796, 0.000000000000114 ], [ 121.467910796000254, 1.091024670781797, 0.000000000000114 ], [ 121.467920294000223, 1.091014838781867, 0.000000000000114 ], [ 121.467934372000087, 1.091006054781786, 0.000000000000114 ], [ 121.467952938000408, 1.090998343781869, 0.000000000000114 ], [ 121.467965900000209, 1.09099413978184, 0.000000000000114 ], [ 121.467979916000104, 1.090985370781817, 0.000000000000114 ], [ 121.467992183000391, 1.090973791781962, 0.000000000000114 ], [ 121.467999896000038, 1.090961156781876, 0.000000000000114 ], [ 121.468009356000337, 1.090951331781996, 0.000000000000114 ], [ 121.468005147000255, 1.090938339781908, 0.000000000000114 ], [ 121.468003725000059, 1.090923597781978, 0.000000000000114 ], [ 121.468005099000138, 1.090907100781959, 0.000000000000114 ], [ 121.468006472000042, 1.090890602781954, 0.000000000000114 ], [ 121.46800960400013, 1.090876912781951, 0.000000000000114 ], [ 121.468019054000223, 1.090867084782051, 0.000000000000114 ], [ 121.468032024000351, 1.090862874782029, 0.000000000000114 ], [ 121.468044994000053, 1.090858663781981, 0.000000000000114 ], [ 121.468052026000024, 1.090869900781991, 0.000000000000114 ], [ 121.468058015000068, 1.090885701781922, 0.000000000000114 ], [ 121.468065048000227, 1.090896937781998, 0.000000000000114 ], [ 121.468072081000059, 1.09090817378193, 0.000000000000114 ], [ 121.468078054000287, 1.09092397578197, 0.000000000000114 ], [ 121.468082275000398, 1.09093696678195, 0.000000000000114 ], [ 121.468089315000071, 1.090948199781883, 0.000000000000114 ], [ 121.468092514000318, 1.090965747781997, 0.000000000000114 ], [ 121.468094994, 1.090975924781839, 0.000000000000114 ], [ 121.468104851000035, 1.090985398781878, 0.000000000000114 ], [ 121.468133226000162, 1.09098717578193, 0.000000000000114 ], [ 121.468143047000055, 1.09099666078186, 0.000000000000114 ], [ 121.468159494000034, 1.090998085781907, 0.000000000000114 ], [ 121.46816300600014, 1.091003704781831, 0.000000000000114 ], [ 121.468173541000084, 1.091020561781772, 0.000000000000114 ], [ 121.468180565000154, 1.091031799781828, 0.000000000000114 ], [ 121.468189345000198, 1.091045846781856, 0.000000000000114 ], [ 121.4681981250001, 1.091059894781812, 0.000000000000114 ], [ 121.46819851900014, 1.091079188781742, 0.000000000000114 ], [ 121.468201000000136, 1.091089359781795, 0.000000000000114 ], [ 121.46820034700049, 1.091113210781755, 0.000000000000114 ], [ 121.468205619000216, 1.091121634781703, 0.000000000000114 ], [ 121.468214405000239, 1.091135674781624, 0.000000000000114 ], [ 121.468220390000155, 1.091151465781639, 0.000000000000114 ], [ 121.46822357300033, 1.091169004781614, 0.000000000000114 ], [ 121.46823131400032, 1.091187601781579, 0.000000000000114 ], [ 121.468234828000149, 1.091193216781612, 0.000000000000114 ], [ 121.468243613000041, 1.091207254781619, 0.000000000000114 ], [ 121.468252406000161, 1.091221284781666, 0.000000000000114 ], [ 121.468264012000134, 1.09123355678164, 0.000000000000114 ], [ 121.468275616000057, 1.09124582778163, 0.000000000000114 ], [ 121.468285437000091, 1.091255315781656, 0.000000000000114 ], [ 121.468298048000307, 1.091263063781668, 0.000000000000114 ], [ 121.468312419000156, 1.091273617781557, 0.000000000000114 ], [ 121.46832048500022, 1.091280298781508, 0.000000000000114 ], [ 121.468333098999949, 1.09128804878152, 0.000000000000114 ], [ 121.46834571500024, 1.091295799781497, 0.000000000000114 ], [ 121.4683590570002, 1.091310899781508, 0.000000000000114 ], [ 121.468370641000107, 1.091323193781552, 0.000000000000114 ], [ 121.46838326000011, 1.091330946781555, 0.000000000000114 ], [ 121.46839660300013, 1.091346047781465, 0.000000000000114 ], [ 121.468410981000233, 1.091356608781446, 0.000000000000114 ], [ 121.468420808000232, 1.091366098781445, 0.000000000000114 ], [ 121.468430636000335, 1.091375588781473, 0.000000000000114 ], [ 121.468442222000178, 1.091387885781397, 0.000000000000114 ], [ 121.468453094000211, 1.091392826781379, 0.000000000000114 ], [ 121.46846013700015, 1.091404034781414, 0.000000000000114 ], [ 121.468468939000246, 1.091418042781316, 0.000000000000114 ], [ 121.468473163000269, 1.091431015781365, 0.000000000000114 ], [ 121.468477377000269, 1.091444006781353, 0.000000000000114 ], [ 121.468487198000318, 1.091453508781383, 0.000000000000114 ], [ 121.468497019000395, 1.091463013781335, 0.000000000000114 ], [ 121.468511745000427, 1.09146166178136, 0.000000000000114 ], [ 121.468526482000286, 1.091460290781284, 0.000000000000114 ], [ 121.468537708000113, 1.091453299781403, 0.000000000000114 ], [ 121.46855069300031, 1.091449115781284, 0.000000000000114 ], [ 121.468563675000055, 1.091444931781347, 0.000000000000114 ], [ 121.468576658000046, 1.091440764781362, 0.000000000000114 ], [ 121.468592434000044, 1.091434877781494, 0.000000000000114 ], [ 121.468611031000179, 1.091427222781385, 0.000000000000114 ], [ 121.468618404000168, 1.091426539781362, 0.000000000000114 ], [ 121.468633159000163, 1.091425149781377, 0.000000000000114 ], [ 121.468659152000157, 1.091416766781396, 0.000000000000114 ], [ 121.468672151000234, 1.091412570781344, 0.000000000000114 ], [ 121.468690769000119, 1.091404889781433, 0.000000000000114 ], [ 121.468702008000093, 1.091397902781424, 0.000000000000114 ], [ 121.468716059000343, 1.091389168781417, 0.000000000000114 ], [ 121.468727301000044, 1.091382179781372, 0.000000000000114 ], [ 121.46873854500015, 1.09137519078147, 0.000000000000114 ], [ 121.468751550000292, 1.091370999781564, 0.000000000000114 ], [ 121.468762796000306, 1.09136400878149, 0.000000000000114 ], [ 121.468774751000097, 1.091364363781426, 0.000000000000114 ], [ 121.468788813000074, 1.091355623781561, 0.000000000000114 ], [ 121.468801823, 1.091351431781474, 0.000000000000114 ], [ 121.46881588800025, 1.091342688781491, 0.000000000000114 ], [ 121.468839805000187, 1.091343391781418, 0.000000000000114 ], [ 121.468845434000215, 1.091339869781423, 0.000000000000114 ], [ 121.468860205000354, 1.091338421781412, 0.000000000000114 ], [ 121.468874971000119, 1.091336973781494, 0.000000000000114 ], [ 121.468891496000111, 1.091338324781468, 0.000000000000114 ], [ 121.468907313000045, 1.091332312781526, 0.000000000000114 ], [ 121.468921374000033, 1.091323499781468, 0.000000000000114 ], [ 121.468949493000139, 1.091305894781506, 0.000000000000114 ], [ 121.468960741000018, 1.091298855781517, 0.000000000000114 ], [ 121.468971994000086, 1.091291836781584, 0.000000000000114 ], [ 121.468983238000277, 1.091284781781503, 0.000000000000114 ], [ 121.468997287000306, 1.091275955781517, 0.000000000000114 ], [ 121.469011335000147, 1.091267130781503, 0.000000000000114 ], [ 121.469025379000072, 1.091258307781544, 0.000000000000114 ], [ 121.469036614000089, 1.091251249781563, 0.000000000000114 ], [ 121.469053465000073, 1.091240669781624, 0.000000000000114 ], [ 121.469064712000176, 1.091233646781596, 0.000000000000114 ], [ 121.469072447000158, 1.091221006781596, 0.000000000000114 ], [ 121.469077371000168, 1.091210121781584, 0.000000000000114 ], [ 121.469088619000118, 1.091203098781626, 0.000000000000114 ], [ 121.469102678000127, 1.091194319781589, 0.000000000000114 ], [ 121.469119549000126, 1.091183783781635, 0.000000000000114 ], [ 121.469129735000095, 1.091181315781653, 0.000000000000114 ], [ 121.469142732000194, 1.091177094781616, 0.000000000000114 ], [ 121.469155732000203, 1.091172875781604, 0.000000000000114 ], [ 121.469168736000142, 1.091168661781731, 0.000000000000114 ], [ 121.469188067000161, 1.091168315781695, 0.000000000000114 ], [ 121.469202830000398, 1.091166917781684, 0.000000000000114 ], [ 121.469217949000068, 1.091153574781677, 0.000000000000114 ], [ 121.469226387000163, 1.091148308781685, 0.000000000000114 ], [ 121.469232365000323, 1.091132850781697, 0.000000000000114 ], [ 121.469227174000181, 1.091084313781723, 0.000000000000114 ], [ 121.46923455000001, 1.091083610781771, 0.000000000000114 ], [ 121.469249301000303, 1.091082203781693, 0.000000000000114 ], [ 121.469262290000415, 1.091077986781799, 0.000000000000114 ], [ 121.469278789000114, 1.091079387781746, 0.000000000000114 ], [ 121.469291772000062, 1.091075166781755, 0.000000000000114 ], [ 121.469301948000108, 1.091072703781772, 0.000000000000114 ], [ 121.46931844100034, 1.091074101781749, 0.000000000000114 ], [ 121.469333175000216, 1.091072688781773, 0.000000000000114 ], [ 121.469347916000075, 1.091071277781785, 0.000000000000114 ], [ 121.469360906000048, 1.091067057781836, 0.000000000000114 ], [ 121.469375641000383, 1.091065644781779, 0.000000000000114 ], [ 121.469391434000443, 1.091059661781804, 0.000000000000114 ], [ 121.469405114000153, 1.091062816781774, 0.000000000000114 ], [ 121.469418095000307, 1.091058589781769, 0.000000000000114 ], [ 121.469432133000126, 1.091049794781801, 0.000000000000114 ], [ 121.469444060000271, 1.091050134781745, 0.000000000000114 ], [ 121.469459864000228, 1.09104415278183, 0.000000000000114 ], [ 121.469475668000186, 1.091038169781803, 0.000000000000114 ], [ 121.46948586300006, 1.091035711781847, 0.000000000000114 ], [ 121.469504506000121, 1.091027981781849, 0.000000000000114 ], [ 121.469514704000503, 1.091025520781891, 0.000000000000114 ], [ 121.469531227000061, 1.09102692678181, 0.000000000000114 ], [ 121.469550559000453, 1.091026572781868, 0.000000000000114 ], [ 121.469565320000171, 1.091025164781868, 0.000000000000114 ], [ 121.469581838000053, 1.09102656778182, 0.000000000000114 ], [ 121.46960011300007, 1.091030782781843, 0.000000000000114 ], [ 121.469613820000149, 1.091033943781779, 0.000000000000114 ], [ 121.469627528000188, 1.091037105781799, 0.000000000000114 ], [ 121.469642990000196, 1.091043080781801, 0.000000000000114 ], [ 121.469654950000091, 1.091043431781777, 0.000000000000114 ], [ 121.469683456000112, 1.091045205781761, 0.000000000000114 ], [ 121.469694365000237, 1.091050132781892, 0.000000000000114 ], [ 121.469707384000387, 1.091045921781809, 0.000000000000114 ], [ 121.469720403000366, 1.091041709781783, 0.000000000000114 ], [ 121.469736236000031, 1.091035741781895, 0.000000000000114 ], [ 121.469752069000037, 1.091029774781788, 0.000000000000114 ], [ 121.469766140000118, 1.091020996781836, 0.000000000000114 ], [ 121.469773881000023, 1.09100834778186, 0.000000000000114 ], [ 121.469783380000194, 1.090998511781881, 0.000000000000114 ], [ 121.469792879000067, 1.090988676781922, 0.000000000000114 ], [ 121.469800619000054, 1.09097602878189, 0.000000000000114 ], [ 121.469810117000335, 1.090966193781826, 0.000000000000114 ], [ 121.469822431000253, 1.090954609781996, 0.000000000000114 ], [ 121.46983016900019, 1.090941961781884, 0.000000000000114 ], [ 121.469841421000183, 1.090934936781849, 0.000000000000114 ], [ 121.469852672000798, 1.090927910781916, 0.000000000000114 ], [ 121.469860404000272, 1.090915254781983, 0.000000000000114 ], [ 121.469868139999988, 1.090902608781969, 0.000000000000114 ], [ 121.469877637000167, 1.090892773781961, 0.000000000000114 ], [ 121.469891701000236, 1.090883995782004, 0.000000000000114 ], [ 121.469905765000149, 1.090875218781975, 0.000000000000114 ], [ 121.46991982900029, 1.090866441782098, 0.000000000000114 ], [ 121.469932837000329, 1.090862232781982, 0.000000000000114 ], [ 121.469947602000047, 1.090860836782088, 0.000000000000114 ], [ 121.469962366000402, 1.090859440782017, 0.000000000000114 ], [ 121.469975020000305, 1.090867180782033, 0.000000000000114 ], [ 121.469987674000379, 1.090874918781955, 0.000000000000114 ], [ 121.469996459000058, 1.090888975781938, 0.000000000000114 ], [ 121.470003486000167, 1.090900218781959, 0.000000000000114 ], [ 121.470013325000224, 1.090909698782021, 0.000000000000114 ], [ 121.470024921000231, 1.090921989781959, 0.000000000000114 ], [ 121.470036518000043, 1.090934281781893, 0.000000000000114 ], [ 121.470047416000156, 1.090939196781961, 0.000000000000114 ], [ 121.470061124000424, 1.090942357781937, 0.000000000000114 ], [ 121.470069208000027, 1.090949036781893, 0.000000000000114 ], [ 121.470083268000224, 1.090940243781996, 0.000000000000114 ], [ 121.470095572000261, 1.090928637781886, 0.000000000000114 ], [ 121.470103303000272, 1.090915984781968, 0.000000000000114 ], [ 121.470101898000266, 1.090901228781959, 0.000000000000114 ], [ 121.470105063000304, 1.090887526782064, 0.000000000000114 ], [ 121.470105415000077, 1.090875581781997, 0.000000000000114 ], [ 121.470104008000092, 1.090860816782001, 0.000000000000114 ], [ 121.470107174000177, 1.090847087782038, 0.000000000000114 ], [ 121.470118427000472, 1.090840033781984, 0.000000000000114 ], [ 121.470133898000114, 1.09084599278198, 0.000000000000114 ], [ 121.470146553000262, 1.090853710782031, 0.000000000000114 ], [ 121.470156399000217, 1.090863196781978, 0.000000000000114 ], [ 121.47016342900038, 1.090874445781942, 0.000000000000114 ], [ 121.470169402000082, 1.090890273782018, 0.000000000000114 ], [ 121.470173618000118, 1.090903285782025, 0.000000000000114 ], [ 121.470177834000125, 1.090916301781926, 0.000000000000114 ], [ 121.470182048000311, 1.090929319781945, 0.000000000000114 ], [ 121.470186261000109, 1.090942336781944, 0.000000000000114 ], [ 121.470190475000308, 1.09095535278201, 0.000000000000114 ], [ 121.470191875000054, 1.090970129781958, 0.000000000000114 ], [ 121.470195033000323, 1.090987714781949, 0.000000000000114 ], [ 121.470202060000489, 1.090998965781907, 0.000000000000114 ], [ 121.470210842000185, 1.091013027781919, 0.000000000000114 ], [ 121.470217869000095, 1.091024277781845, 0.000000000000114 ], [ 121.470227708000081, 1.091033766781853, 0.000000000000114 ], [ 121.470240365000407, 1.091041489781789, 0.000000000000114 ], [ 121.470255839000473, 1.09104745078184, 0.000000000000114 ], [ 121.47026956200024, 1.091050595781804, 0.000000000000114 ], [ 121.470280462000261, 1.091055511781785, 0.000000000000114 ], [ 121.470294179, 1.091058667781916, 0.000000000000114 ], [ 121.470309647, 1.091064642781833, 0.000000000000114 ], [ 121.470322301000422, 1.091072377781835, 0.000000000000114 ], [ 121.47033495400018, 1.091080111781733, 0.000000000000114 ], [ 121.470345858000115, 1.09108502778176, 0.000000000000114 ], [ 121.470360275000303, 1.091095569781718, 0.000000000000114 ], [ 121.470371186000278, 1.091100483781783, 0.000000000000114 ], [ 121.470384915000182, 1.091103636781732, 0.000000000000114 ], [ 121.470398647000053, 1.091106789781768, 0.000000000000114 ], [ 121.470414134000066, 1.091112758781741, 0.000000000000114 ], [ 121.470423937000163, 1.091122271781714, 0.000000000000114 ], [ 121.47043832700021, 1.091132828781672, 0.000000000000114 ], [ 121.470453788000299, 1.091138807781655, 0.000000000000114 ], [ 121.470466426000172, 1.091146547781705, 0.000000000000114 ], [ 121.470480812000304, 1.091157100781738, 0.000000000000114 ], [ 121.470491700000096, 1.091162024781676, 0.000000000000114 ], [ 121.470506111000304, 1.091172569781653, 0.000000000000114 ], [ 121.47051420200026, 1.091179245781744, 0.000000000000114 ], [ 121.470526867000302, 1.09118697578163, 0.000000000000114 ], [ 121.47054586700007, 1.091198571781647, 0.000000000000114 ], [ 121.470552201000316, 1.091202436781723, 0.000000000000114 ], [ 121.470563811, 1.091214737781589, 0.000000000000114 ], [ 121.47057825300017, 1.091225279781593, 0.000000000000114 ], [ 121.470585312000168, 1.09123652478167, 0.000000000000114 ], [ 121.470589556, 1.091249529781609, 0.000000000000114 ], [ 121.470588153000492, 1.09126605178164, 0.000000000000114 ], [ 121.470592382000291, 1.091279059781494, 0.000000000000114 ], [ 121.470593790000152, 1.091293824781593, 0.000000000000114 ], [ 121.470603651000047, 1.09130331778151, 0.000000000000114 ], [ 121.470616336000234, 1.091311053781518, 0.000000000000114 ], [ 121.47062795800008, 1.091323361781531, 0.000000000000114 ], [ 121.470634997000303, 1.091334613781461, 0.000000000000114 ], [ 121.4706437950002, 1.09134867878147, 0.000000000000114 ], [ 121.4706508390002, 1.091359931781439, 0.000000000000114 ], [ 121.470661422000063, 1.091376814781412, 0.000000000000114 ], [ 121.470671984000148, 1.091393695781447, 0.000000000000114 ], [ 121.470677255000467, 1.091402134781452, 0.000000000000114 ], [ 121.470687104000135, 1.091411630781494, 0.000000000000114 ], [ 121.470699775000099, 1.091419369781353, 0.000000000000114 ], [ 121.470709632000222, 1.091428866781352, 0.000000000000114 ], [ 121.470724069000184, 1.091439420781412, 0.000000000000114 ], [ 121.470738485000155, 1.091449970781272, 0.000000000000114 ], [ 121.470744801000393, 1.091453835781443, 0.000000000000114 ], [ 121.470760253000179, 1.091459808781344, 0.000000000000114 ], [ 121.470772889000273, 1.091467539781443, 0.000000000000114 ], [ 121.470789419000255, 1.091468947781324, 0.000000000000114 ], [ 121.470803135000111, 1.091472112781412, 0.000000000000114 ], [ 121.470817906000192, 1.09147070778127, 0.000000000000114 ], [ 121.470832678000349, 1.091469301781367, 0.000000000000114 ], [ 121.470920803958293, 1.091454309175143, 0.000000000000114 ], [ 121.470956565295793, 1.091448054345371, 0.000000000000114 ], [ 121.471009657323279, 1.09142541666575, 0.000000000000114 ], [ 121.471041429959612, 1.091402697842203, 0.000000000000114 ], [ 121.471067881484188, 1.091370645794993, 0.000000000000114 ], [ 121.471091786687794, 1.09133278865936, 0.000000000000114 ] ] ] ] } },
{ "type": "Feature", "properties": { "WADMPR": "SULAWESI TENGAH", "WADMKK": "BUOL", "WADMKC": "BUKAL", "WADMKD": "BIAU", "POKTAN": "KT KUBA BERINGIN", "LUAS_HA": 46.070216220500001, "PAKET": "Paket Sulawesi Tengah 8" }, "geometry": { "type": "MultiPolygon", "coordinates": [ [ [ [ 121.444288057841632, 1.077537501674812, 0.0 ], [ 121.444766610841882, 1.077313084675697, 0.0 ], [ 121.445009857841868, 1.077516722674865, 0.0 ], [ 121.445211662841871, 1.077420041675116, 0.0 ], [ 121.444937853841594, 1.076303924679633, 0.0 ], [ 121.445862205841578, 1.076177112680136, 0.0 ], [ 121.445751220841657, 1.075467278682848, 0.0 ], [ 121.445664121841844, 1.075147111684124, 0.0 ], [ 121.445867259841819, 1.074719967685857, 0.0 ], [ 121.446081609083805, 1.074612611513964, 0.0 ], [ 121.446142921627967, 1.074460789977314, 0.0 ], [ 121.446064784389321, 1.074253430489824, 0.0 ], [ 121.445900896015587, 1.074208219904136, 0.0 ], [ 121.445829512185426, 1.074179666372074, 0.0 ], [ 121.445651052609733, 1.074094005776277, 0.0 ], [ 121.445486869800405, 1.073940530542073, 0.0 ], [ 121.445418862199347, 1.073783906973702, 0.0 ], [ 121.445369086480483, 1.073669271988315, 0.0 ], [ 121.445347671331461, 1.073319491221984, 0.0 ], [ 121.445386932438467, 1.073091062966112, 0.0 ], [ 121.445554684439017, 1.072805527646665, 0.0 ], [ 121.44589375763239, 1.07256996100799, 0.0 ], [ 121.44633633737962, 1.07251285394408, 0.0 ], [ 121.4466789797644, 1.07248073122053, 0.0 ], [ 121.44701091457469, 1.07254140747593, 0.0 ], [ 121.447192943341705, 1.072402209007782, 0.0 ], [ 121.447167959001206, 1.072202334283937, 0.0 ], [ 121.446743225211691, 1.072020305517662, 0.0 ], [ 121.446419504435127, 1.071822206850995, 0.0 ], [ 121.446350056841695, 1.071836059697087, 0.0 ], [ 121.446238222671099, 1.07185878795222, 0.0 ], [ 121.446227030515686, 1.071898242216262, 0.0 ], [ 121.446128734291051, 1.071917297659442, 0.0 ], [ 121.44593623900208, 1.071954614281083, 0.0 ], [ 121.445208183870164, 1.072095753101015, 0.0 ], [ 121.445190256863796, 1.072099228382418, 0.0 ], [ 121.445054746794426, 1.072167950080852, 0.0 ], [ 121.445010301131759, 1.072108340604278, 0.0 ], [ 121.44463001300484, 1.07159830711827, 0.0 ], [ 121.444480823008703, 1.07141337368325, 0.0 ], [ 121.444401584748434, 1.071315151259755, 0.0 ], [ 121.444223125172897, 1.071026046748633, 0.0 ], [ 121.444020771188221, 1.070646287534395, 0.0 ], [ 121.443930502841695, 1.070391663702835, 0.0 ], [ 121.443923624384169, 1.07036525060508, 0.0 ], [ 121.443918796704565, 1.070367576910817, 0.0 ], [ 121.443664180092966, 1.070490268577429, 0.0 ], [ 121.443437092599027, 1.070599694835668, 0.0 ], [ 121.443416884001152, 1.070609432717555, 0.0 ], [ 121.443101916018378, 1.070511396380533, 0.0 ], [ 121.442987363076867, 1.070475740848971, 0.0 ], [ 121.442970014324189, 1.070470340909101, 0.0 ], [ 121.442960390540776, 1.070321371874004, 0.0 ], [ 121.442943223596032, 1.070055640288981, 0.0 ], [ 121.443043026388153, 1.069842261741777, 0.0 ], [ 121.443133396388461, 1.069649050520721, 0.0 ], [ 121.44318100954402, 1.069547253508516, 0.0 ], [ 121.443184176151959, 1.069540483294862, 0.0 ], [ 121.443161375330831, 1.069525642382221, 0.0 ], [ 121.4431318828521, 1.069504495163595, 0.0 ], [ 121.44306914587014, 1.069523578161779, 0.0 ], [ 121.441966653166944, 1.069858928470104, 0.0 ], [ 121.441961015125187, 1.069860732785545, 0.0 ], [ 121.441876086013608, 1.070068210614886, 0.0 ], [ 121.441762936890598, 1.070344628605777, 0.0 ], [ 121.441724880039558, 1.070437599704439, 0.0 ], [ 121.441709608547981, 1.070474907240068, 0.0 ], [ 121.441719694248789, 1.070578767567792, 0.0 ], [ 121.441080571022638, 1.07044837310509, 0.0 ], [ 121.44093066497912, 1.070379844628468, 0.0 ], [ 121.440869274885046, 1.070244215351509, 0.0 ], [ 121.440877085598487, 1.070207617561978, 0.0 ], [ 121.440881027312486, 1.070189148310848, 0.0 ], [ 121.440578681014614, 1.070281114383532, 0.0 ], [ 121.439982211822354, 1.070471691822951, 0.0 ], [ 121.439943330080922, 1.070526319189739, 0.0 ], [ 121.439900260727967, 1.070608735852618, 0.0 ], [ 121.43988116190468, 1.071345632109992, 0.0 ], [ 121.439739359215011, 1.071465804334437, 0.0 ], [ 121.439842339172912, 1.07164683225953, 0.0 ], [ 121.439471143255915, 1.071839092708095, 0.0 ], [ 121.439292645841604, 1.071942579696793, 0.0 ], [ 121.438917431841645, 1.072120621696084, 0.0 ], [ 121.439025880841612, 1.072293614695381, 0.0 ], [ 121.439039033137277, 1.072332117026511, 0.0 ], [ 121.440351327590562, 1.071882920543813, 0.0 ], [ 121.440437479841663, 1.072102802695999, 0.0 ], [ 121.440138762841599, 1.072279622695402, 0.0 ], [ 121.440297833841569, 1.072569851694175, 0.0 ], [ 121.440056389841629, 1.072829490693241, 0.0 ], [ 121.440251088349839, 1.07312186913233, 0.0 ], [ 121.440337893508456, 1.073107655422149, 0.0 ], [ 121.4406046860732, 1.072873435026618, 0.0 ], [ 121.440719884391825, 1.072724847063927, 0.0 ], [ 121.440873359626792, 1.072693914070971, 0.0 ], [ 121.44096853806694, 1.072689155148991, 0.0 ], [ 121.441051819202201, 1.072696293532028, 0.0 ], [ 121.441207673898049, 1.0727641081705, 0.0 ], [ 121.441265970692612, 1.072821215234349, 0.0 ], [ 121.441276491616108, 1.072885392868543, 0.0 ], [ 121.441870282404039, 1.072591109458721, 0.0 ], [ 121.441995917945079, 1.072893776897469, 0.0 ], [ 121.441877896679173, 1.072960401805453, 0.0 ], [ 121.441950232293777, 1.073116494446757, 0.0 ], [ 121.441491472211908, 1.073356344115165, 0.0 ], [ 121.441212522465861, 1.073229908518227, 0.0 ], [ 121.441207079032679, 1.073290563915881, 0.0 ], [ 121.441108926266253, 1.073570150583058, 0.0 ], [ 121.44097645046071, 1.073642410113038, 0.0 ], [ 121.441142632841576, 1.073902369689093, 0.0 ], [ 121.440976822841705, 1.074160030687974, 0.0 ], [ 121.441038051841801, 1.074820840685494, 0.0 ], [ 121.44104944184177, 1.075342018683465, 0.0 ], [ 121.441226718841577, 1.075448023683006, 0.0 ], [ 121.441371688841642, 1.075269927683678, 0.0 ], [ 121.441430027841662, 1.074962026684913, 0.0 ], [ 121.441580729841931, 1.07485366268524, 0.0 ], [ 121.441813040841595, 1.074818173685413, 0.0 ], [ 121.441892938688, 1.074829781193744, 0.0 ], [ 121.442024770841826, 1.074848933685326, 0.0 ], [ 121.442333920841918, 1.075149267684177, 0.0 ], [ 121.442705518841578, 1.075534761682517, 0.0 ], [ 121.443024414841759, 1.075711740682017, 0.0 ], [ 121.442968787841565, 1.076726121678016, 0.0 ], [ 121.443551883841693, 1.077282733675689, 0.0 ], [ 121.443824316824731, 1.07720133393396, 0.0 ], [ 121.44386390297953, 1.077018247968724, 0.0 ], [ 121.443915746636705, 1.07677847105489, 0.0 ], [ 121.444070535294244, 1.076556509961678, 0.0 ], [ 121.44454523776507, 1.077115683295861, 0.0 ], [ 121.444139737382955, 1.077414289593349, 0.0 ], [ 121.444288057841632, 1.077537501674812, 0.0 ] ], [ [ 121.443408878572214, 1.075095587336364, 0.0 ], [ 121.443111921838621, 1.074657766512943, 0.0 ], [ 121.443325121544746, 1.074389363312509, 0.0 ], [ 121.44277641783691, 1.073868023408186, 0.0 ], [ 121.442982387446406, 1.073648322492575, 0.0 ], [ 121.443194092558841, 1.073628475138119, 0.0 ], [ 121.443361606613692, 1.073645607257255, 0.0 ], [ 121.443454881485124, 1.073775049935565, 0.0 ], [ 121.443559577769335, 1.074096753062271, 0.0 ], [ 121.443603359851778, 1.074115788750233, 0.0 ], [ 121.443772777475459, 1.074075813805624, 0.0 ], [ 121.443946002236757, 1.074131017300656, 0.0 ], [ 121.443960437633493, 1.074336539278527, 0.0 ], [ 121.444060374995814, 1.074445042699934, 0.0 ], [ 121.444156029328127, 1.074540697032057, 0.0 ], [ 121.444153173974954, 1.074592093389604, 0.0 ], [ 121.444152966487167, 1.07459245649345, 0.0 ], [ 121.44413413828687, 1.074625405843442, 0.0 ], [ 121.443408878572214, 1.075095587336364, 0.0 ] ], [ [ 121.441844827251344, 1.074410850461664, 0.0 ], [ 121.441539796089046, 1.074449531949627, 0.0 ], [ 121.441169950730313, 1.073940004887717, 0.0 ], [ 121.441745381520107, 1.073670972311615, 0.0 ], [ 121.442065181078974, 1.074382907041809, 0.0 ], [ 121.441888155501204, 1.074405355937262, 0.0 ], [ 121.441857651492171, 1.074409224199246, 0.0 ], [ 121.441844827251344, 1.074410850461664, 0.0 ] ] ], [ [ [ 121.450845433501186, 1.076784080284049, 0.0 ], [ 121.450866962006927, 1.07651676800578, 0.0 ], [ 121.45078368087151, 1.076354964658107, 0.0 ], [ 121.450592683936705, 1.076233281127392, 0.0 ], [ 121.450545147542257, 1.076202995844096, 0.0 ], [ 121.450345123841558, 1.076229816679837, 0.0 ], [ 121.450214645639832, 1.076040060479094, 0.0 ], [ 121.450267577920002, 1.075840094088528, 0.0 ], [ 121.450598066841692, 1.075738309681897, 0.0 ], [ 121.45094726384167, 1.076155790680259, 0.0 ], [ 121.451506749841542, 1.075933743681103, 0.0 ], [ 121.45200116176774, 1.076306245339542, 0.0 ], [ 121.452195665287576, 1.076300879725329, 0.0 ], [ 121.452521025841676, 1.076078416680505, 0.0 ], [ 121.452473477907688, 1.075869986883133, 0.0 ], [ 121.452766151611542, 1.075789085209153, 0.0 ], [ 121.452597209880139, 1.075572554258539, 0.0 ], [ 121.452685249937431, 1.075405991988758, 0.0 ], [ 121.452977293674806, 1.075288685718233, 0.0 ], [ 121.45259406791925, 1.074317999177174, 0.0 ], [ 121.452361319062632, 1.074144535407396, 0.0 ], [ 121.451778295572083, 1.07454185503602, 0.0 ], [ 121.451358320704614, 1.074164710468086, 0.0 ], [ 121.451893909499901, 1.07380819391596, 0.0 ], [ 121.451131772944478, 1.073222128514262, 0.0 ], [ 121.451127936332639, 1.07322250141699, 0.0 ], [ 121.451000635168739, 1.073220121955948, 0.0 ], [ 121.450869764813376, 1.073257003601428, 0.0 ], [ 121.450790330473311, 1.073270209609925, 0.0 ], [ 121.450690393111046, 1.073228331096484, 0.0 ], [ 121.450401050652729, 1.073375857678122, 0.0 ], [ 121.45026970440523, 1.073658537644654, 0.0 ], [ 121.449937762090684, 1.073722309813258, 0.0 ], [ 121.449854742823646, 1.073663888848007, 0.0 ], [ 121.449706248039007, 1.073305425632596, 0.0 ], [ 121.449245584388265, 1.07348721645288, 0.0 ], [ 121.449176104126906, 1.073290197082351, 0.0 ], [ 121.448921977691626, 1.073413929054284, 0.0 ], [ 121.448815377838415, 1.073191211504971, 0.0 ], [ 121.448803956425465, 1.073099840202617, 0.0 ], [ 121.449545396475088, 1.072730547855924, 0.0 ], [ 121.449462875886354, 1.072247212981483, 0.0 ], [ 121.449335009372248, 1.072322668462131, 0.0 ], [ 121.449254623364425, 1.07214122575973, 0.0 ], [ 121.449117394841693, 1.072196642695791, 0.0 ], [ 121.448752274841738, 1.072313426695378, 0.0 ], [ 121.448586238400168, 1.072625624142694, 0.0 ], [ 121.447891888102859, 1.073329982121778, 0.0 ], [ 121.447720686841691, 1.073468594690685, 0.0 ], [ 121.447572099453652, 1.07388282135555, 0.0 ], [ 121.447604187085233, 1.074167759522209, 0.0 ], [ 121.447972959773523, 1.074227238987789, 0.0 ], [ 121.4479491678416, 1.074104888688244, 0.0 ], [ 121.448032176841593, 1.073853507689306, 0.0 ], [ 121.448352694841603, 1.073212011691856, 0.0 ], [ 121.448574584841737, 1.073109356692226, 0.0 ], [ 121.448858451841801, 1.073508152690632, 0.0 ], [ 121.449132139841723, 1.073813822689461, 0.0 ], [ 121.449884724841766, 1.073763791689517, 0.0 ], [ 121.450058097841904, 1.073900659689077, 0.0 ], [ 121.449579147841845, 1.074874284685305, 0.0 ], [ 121.44919493784181, 1.075607002682312, 0.0 ], [ 121.449130630272549, 1.07636980352895, 0.0 ], [ 121.449462404841057, 1.076213356985178, 0.0 ], [ 121.449470019116191, 1.076320908622168, 0.0 ], [ 121.449497249655323, 1.076562517767271, 0.0 ], [ 121.44981094531343, 1.07652533902253, 0.0 ], [ 121.450108377939173, 1.076537236327493, 0.0 ], [ 121.450352272692328, 1.076682978313578, 0.0 ], [ 121.450563449856546, 1.076932821718293, 0.0 ], [ 121.450590218793025, 1.077387893633853, 0.0 ], [ 121.450533706594086, 1.077765633067144, 0.0 ], [ 121.450526578495712, 1.07802937270141, 0.0 ], [ 121.450788772841804, 1.077993817672935, 0.0 ], [ 121.450817417591438, 1.077966466413877, 0.0 ], [ 121.451236972005248, 1.077565857548065, 0.0 ], [ 121.451239479669042, 1.077527128074742, 0.0 ], [ 121.451244171269366, 1.077454668914236, 0.0 ], [ 121.451242545059273, 1.077453681757902, 0.0 ], [ 121.45116789083842, 1.077408364499333, 0.0 ], [ 121.451054665137818, 1.077220526691128, 0.0 ], [ 121.4511215643344, 1.07698552182206, 0.0 ], [ 121.451016868050246, 1.076909379070387, 0.0 ], [ 121.450887654358795, 1.076876089197247, 0.0 ], [ 121.450845433501186, 1.076784080284049, 0.0 ] ] ] ] } },
{ "type": "Feature", "properties": { "WADMPR": "SULAWESI TENGAH", "WADMKK": "BUOL", "WADMKC": "BUKAL", "WADMKD": "DIAT", "POKTAN": "KT GAIRAH TANI I", "LUAS_HA": 53.801593201099998, "PAKET": "Paket Sulawesi Tengah 8" }, "geometry": { "type": "MultiPolygon", "coordinates": [ [ [ [ 121.443664180092966, 1.070490268577429, 0.0 ], [ 121.443835314227755, 1.070407804467123, 0.0 ], [ 121.444070646908557, 1.070230926951295, 0.0 ], [ 121.444074982941629, 1.0702269654373, 0.0 ], [ 121.444225845949518, 1.070589416185707, 0.0 ], [ 121.444417154614513, 1.070971081730798, 0.0 ], [ 121.444729339898444, 1.07135274727583, 0.0 ], [ 121.444764705669783, 1.071400718665889, 0.0 ], [ 121.444824669346602, 1.071482055531368, 0.0 ], [ 121.445017730572815, 1.071743930664873, 0.0 ], [ 121.445206934155735, 1.072095995367322, 0.0 ], [ 121.445208183870164, 1.072095753101015, 0.0 ], [ 121.44593623900208, 1.071954614281083, 0.0 ], [ 121.446128734291051, 1.071917297659442, 0.0 ], [ 121.446227030515686, 1.071898242216262, 0.0 ], [ 121.446238222671099, 1.07185878795222, 0.0 ], [ 121.446265260056322, 1.071853293096877, 0.0 ], [ 121.446311359160362, 1.071690785860661, 0.0 ], [ 121.446298248045551, 1.071592430276423, 0.0 ], [ 121.446295049035712, 1.071584578161438, 0.0 ], [ 121.446272983500634, 1.071573262502637, 0.0 ], [ 121.446254023845768, 1.071446864804591, 0.0 ], [ 121.446266495503494, 1.071409449831625, 0.0 ], [ 121.446279820485046, 1.071169600162359, 0.0 ], [ 121.446338831118027, 1.070990664694847, 0.0 ], [ 121.446455665909539, 1.070771987643684, 0.0 ], [ 121.446453045246315, 1.070756525731962, 0.0 ], [ 121.446605330750913, 1.070617565209353, 0.0 ], [ 121.446999369493653, 1.070522386769245, 0.0 ], [ 121.447414347493236, 1.070598529521394, 0.0 ], [ 121.447713207795758, 1.070636600897434, 0.0 ], [ 121.448006357391563, 1.070792693539357, 0.0 ], [ 121.448224636773688, 1.070791378603293, 0.0 ], [ 121.448358344491453, 1.070583210899293, 0.0 ], [ 121.448209712078096, 1.070439254350374, 0.0 ], [ 121.448104064009229, 1.070320757192451, 0.0 ], [ 121.447967007055269, 1.07023081356649, 0.0 ], [ 121.447738578798734, 1.070072341463668, 0.0 ], [ 121.447605804874698, 1.069871039062621, 0.0 ], [ 121.447575823665687, 1.069642610806152, 0.0 ], [ 121.447574395989164, 1.069434170022313, 0.0 ], [ 121.447804251922548, 1.068980168862773, 0.0 ], [ 121.448105491686036, 1.068807419993693, 0.0 ], [ 121.448146282379057, 1.068796882139712, 0.0 ], [ 121.448482569714798, 1.068677037507388, 0.0 ], [ 121.448192579958828, 1.068306305506405, 0.0 ], [ 121.448319779038272, 1.06821919340954, 0.0 ], [ 121.448661300068366, 1.067968112713739, 0.0 ], [ 121.448687645065064, 1.068034488825196, 0.0 ], [ 121.448916411996933, 1.068520456996628, 0.0 ], [ 121.448949248558918, 1.068510463260498, 0.0 ], [ 121.449541429913211, 1.068388077563132, 0.0 ], [ 121.449509492652879, 1.06772476523689, 0.0 ], [ 121.449637334649864, 1.067713238413143, 0.0 ], [ 121.449891376456407, 1.067367797176477, 0.0 ], [ 121.449616395887674, 1.066981915357264, 0.0 ], [ 121.449453397077491, 1.066619009208976, 0.0 ], [ 121.449421736606013, 1.066557813129708, 0.0 ], [ 121.449256551982074, 1.066238530098985, 0.0 ], [ 121.448923427441301, 1.066292067971491, 0.0 ], [ 121.448870786536247, 1.066164225773832, 0.0 ], [ 121.448062997693796, 1.065895006977384, 0.0 ], [ 121.447803124154291, 1.066075474713049, 0.0 ], [ 121.439764464373866, 1.064857568772767, 0.0 ], [ 121.439590963022582, 1.06483128226597, 0.0 ], [ 121.439669537558544, 1.06518285811781, 0.0 ], [ 121.439813864913702, 1.065868323259963, 0.0 ], [ 121.440100334472973, 1.065761777326599, 0.0 ], [ 121.44043726615152, 1.065636141785474, 0.0 ], [ 121.440718994334901, 1.066003054672346, 0.0 ], [ 121.440738030022771, 1.066176755325602, 0.0 ], [ 121.440580985596426, 1.06623386238969, 0.0 ], [ 121.440019432798579, 1.066431357653015, 0.0 ], [ 121.439816355862604, 1.065880153717243, 0.0 ], [ 121.439196785710848, 1.066122015825093, 0.0 ], [ 121.43925981189625, 1.066285572102095, 0.0 ], [ 121.439378254133587, 1.066580376132197, 0.0 ], [ 121.439564717800266, 1.066986652467694, 0.0 ], [ 121.439545138802217, 1.066995753905861, 0.0 ], [ 121.439321828497469, 1.067077132303002, 0.0 ], [ 121.439254402220755, 1.06710170368328, 0.0 ], [ 121.438881701872546, 1.0672375225756, 0.0 ], [ 121.438872382335489, 1.067240936947438, 0.0 ], [ 121.438618739282688, 1.067333863417226, 0.0 ], [ 121.438885238915404, 1.068120989117514, 0.0 ], [ 121.439037524419589, 1.068150494433905, 0.0 ], [ 121.439103197543432, 1.068543581391833, 0.0 ], [ 121.439451550634843, 1.068990920060569, 0.0 ], [ 121.439706628854751, 1.068891934482914, 0.0 ], [ 121.439654097066722, 1.068686283106993, 0.0 ], [ 121.440088798052969, 1.068435676800899, 0.0 ], [ 121.440503096432181, 1.068787723091813, 0.0 ], [ 121.440945877924463, 1.068407192669987, 0.0 ], [ 121.441283761387609, 1.068708194486878, 0.0 ], [ 121.44106508892115, 1.068924309032644, 0.0 ], [ 121.441309593045787, 1.069317326765726, 0.0 ], [ 121.441339653290925, 1.069365645828922, 0.0 ], [ 121.441386316156951, 1.069440652070628, 0.0 ], [ 121.441060329998905, 1.069786863646607, 0.0 ], [ 121.44058182237346, 1.069235175698394, 0.0 ], [ 121.440008372271009, 1.069470504391732, 0.0 ], [ 121.440592453765191, 1.070276925062232, 0.0 ], [ 121.440881027312486, 1.070189148310848, 0.0 ], [ 121.441052039360429, 1.070152741509157, 0.0 ], [ 121.441024882967582, 1.070253166407654, 0.0 ], [ 121.4417117295107, 1.070469725828254, 0.0 ], [ 121.441724880039558, 1.070437599704439, 0.0 ], [ 121.441762936890598, 1.070344628605777, 0.0 ], [ 121.441876086013608, 1.070068210614886, 0.0 ], [ 121.441961015125187, 1.069860732785545, 0.0 ], [ 121.441966653166944, 1.069858928470104, 0.0 ], [ 121.44306914587014, 1.069523578161779, 0.0 ], [ 121.443128745776264, 1.0695054493825, 0.0 ], [ 121.443133437702485, 1.069403403454593, 0.0 ], [ 121.443131958152833, 1.069395848802721, 0.0 ], [ 121.442882545679396, 1.069142804089331, 0.0 ], [ 121.442881348986788, 1.069141589969284, 0.0 ], [ 121.442396704701309, 1.068649887777983, 0.0 ], [ 121.441836341634257, 1.067921772710612, 0.0 ], [ 121.441904156272884, 1.06780755858249, 0.0 ], [ 121.442560887511007, 1.067582699517486, 0.0 ], [ 121.443164080876258, 1.067686206071258, 0.0 ], [ 121.443817242922421, 1.06884976250215, 0.0 ], [ 121.443434269734283, 1.069270321071291, 0.0 ], [ 121.443417388115279, 1.06928885947086, 0.0 ], [ 121.443235512738838, 1.069488584304008, 0.0 ], [ 121.442966261754307, 1.070064243389985, 0.0 ], [ 121.442988091676085, 1.070402154394499, 0.0 ], [ 121.443003337381811, 1.070447221831528, 0.0 ], [ 121.443044600179249, 1.07049312134946, 0.0 ], [ 121.44327718414776, 1.070563747318758, 0.0 ], [ 121.443421192491442, 1.070607356592898, 0.0 ], [ 121.443437092599027, 1.070599694835668, 0.0 ], [ 121.443458188895363, 1.070589529199749, 0.0 ], [ 121.443490352910189, 1.070574030381258, 0.0 ], [ 121.443664180092966, 1.070490268577429, 0.0 ] ] ] ] } },
{ "type": "Feature", "properties": { "WADMPR": "SULAWESI TENGAH", "WADMKK": "BUOL", "WADMKC": "BUKAL", "WADMKD": "UNONE", "POKTAN": "KT PERSATUAN II", "LUAS_HA": 32.9098967786, "PAKET": "Paket Sulawesi Tengah 8" }, "geometry": { "type": "MultiPolygon", "coordinates": [ [ [ [ 121.439509218470036, 1.064795618194038, 0.0 ], [ 121.440965917407993, 1.065024147842713, 0.0 ], [ 121.44327815473568, 1.065375911820274, 0.0 ], [ 121.445606729484723, 1.06572996474754, 0.0 ], [ 121.447788831232231, 1.06604662011096, 0.0 ], [ 121.447772275288202, 1.065952933013903, 0.0 ], [ 121.447722590213061, 1.065671774120897, 0.0 ], [ 121.44771991199552, 1.065656618570848, 0.0 ], [ 121.447621113380137, 1.065097535075406, 0.0 ], [ 121.447758467090253, 1.065043562490822, 0.0 ], [ 121.448025380131739, 1.064500065646011, 0.0 ], [ 121.447986387707076, 1.064436736689419, 0.0 ], [ 121.448276616510995, 1.06421615190631, 0.0 ], [ 121.448592416367589, 1.063946573771368, 0.0 ], [ 121.447993323863045, 1.062927846652895, 0.0 ], [ 121.44801213843057, 1.062768549980767, 0.0 ], [ 121.447362473182721, 1.061913022095506, 0.0 ], [ 121.446944191303402, 1.061364676932126, 0.0 ], [ 121.446525770539651, 1.061590360572218, 0.0 ], [ 121.446485959136126, 1.061611833651973, 0.0 ], [ 121.44673828417875, 1.062679812537304, 0.0 ], [ 121.446576135174695, 1.06342106512682, 0.0 ], [ 121.44633311928358, 1.063310603354226, 0.0 ], [ 121.446283758417195, 1.063288166596462, 0.0 ], [ 121.445814713186095, 1.063074964223502, 0.0 ], [ 121.445802815880938, 1.062658558547819, 0.0 ], [ 121.445582715737842, 1.062462253014981, 0.0 ], [ 121.445150693205008, 1.062314857092122, 0.0 ], [ 121.445103968183261, 1.061929729642276, 0.0 ], [ 121.444867703076838, 1.061558021541047, 0.0 ], [ 121.444858161624524, 1.061526706404617, 0.0 ], [ 121.444813313360868, 1.06143818649229, 0.0 ], [ 121.444806909915556, 1.06157997706715, 0.0 ], [ 121.444806050605351, 1.061599004650174, 0.0 ], [ 121.444802212908854, 1.061683982209852, 0.0 ], [ 121.444610276601779, 1.062131833592665, 0.0 ], [ 121.444432561851727, 1.062546501342303, 0.0 ], [ 121.443343335283004, 1.063149684848346, 0.0 ], [ 121.443199194604688, 1.063229505963633, 0.0 ], [ 121.443063455490503, 1.063250542204819, 0.0 ], [ 121.442611233821424, 1.063320625497668, 0.0 ], [ 121.442411363748818, 1.063324904061998, 0.0 ], [ 121.44218001030886, 1.06335962751438, 0.0 ], [ 121.442079806556208, 1.06337466692872, 0.0 ], [ 121.441102790893879, 1.063017973595546, 0.0 ], [ 121.440742533396772, 1.062916383201631, 0.0 ], [ 121.440129030529306, 1.062743379173657, 0.0 ], [ 121.439964185143793, 1.062953753284433, 0.0 ], [ 121.439923216282736, 1.063006037354565, 0.0 ], [ 121.439578194437019, 1.062842449410514, 0.0 ], [ 121.439542800217509, 1.062821441228857, 0.0 ], [ 121.439117173866975, 1.062568811395283, 0.0 ], [ 121.438885176418921, 1.062571785721493, 0.0 ], [ 121.438557923689586, 1.062695134827226, 0.0 ], [ 121.438534944970698, 1.062703796036546, 0.0 ], [ 121.438498514005644, 1.062717527708002, 0.0 ], [ 121.437125488163957, 1.063608206068985, 0.0 ], [ 121.437199410085782, 1.063706874385244, 0.0 ], [ 121.437994150061755, 1.064701489084585, 0.0 ], [ 121.438370049842462, 1.064525164958879, 0.0 ], [ 121.438414141412537, 1.064504482831064, 0.0 ], [ 121.438526959765099, 1.064451562883886, 0.0 ], [ 121.438761197559003, 1.064771348392903, 0.0 ], [ 121.439094322099407, 1.064852250066935, 0.0 ], [ 121.439323722514445, 1.064754443688779, 0.0 ], [ 121.439441201574041, 1.064780520495442, 0.0 ], [ 121.439509218470036, 1.064795618194038, 0.0 ] ] ] ] } },
{ "type": "Feature", "properties": { "WADMPR": "SULAWESI TENGAH", "WADMKK": "BUOL", "WADMKC": "BOKAT", "WADMKD": "KANTANAN", "POKTAN": "KT MOKOPIO", "LUAS_HA": 28.007902768899999, "PAKET": "Paket Sulawesi Tengah 8" }, "geometry": { "type": "MultiPolygon", "coordinates": [ [ [ [ 121.491132076000341, 1.09246988778005, 0.0 ], [ 121.491090532000143, 1.091779794781038, 0.0 ], [ 121.491322957000065, 1.091368033781611, 0.0 ], [ 121.491512079000145, 1.090464107782578, 0.0 ], [ 121.491205412000511, 1.090286501783032, 0.0 ], [ 121.490944700636419, 1.090918827462995, 0.0 ], [ 121.490937189095362, 1.090998950572873, 0.0 ], [ 121.49051696900041, 1.091680834780928, 0.0 ], [ 121.490296376820439, 1.091864316218047, 0.0 ], [ 121.489933685000295, 1.09175152578093, 0.0 ], [ 121.490166995000166, 1.09118336878167, 0.0 ], [ 121.489362765000166, 1.090838765782081, 0.0 ], [ 121.489111778000336, 1.091261128781677, 0.0 ], [ 121.489560766441642, 1.091595109945788, 0.0 ], [ 121.48984266000015, 1.091836352781001, 0.0 ], [ 121.48993752224591, 1.091930009791573, 0.0 ], [ 121.490117013047552, 1.09208247115404, 0.0 ], [ 121.490394220258054, 1.09235253998101, 0.0 ], [ 121.490657748222588, 1.092641085217063, 0.0 ], [ 121.490690193000233, 1.092673117780091, 0.0 ], [ 121.491877458000573, 1.094061218778613, 0.0 ], [ 121.492145187519, 1.094356286518462, 0.0 ], [ 121.492196680437132, 1.094396939600042, 0.0 ], [ 121.492239061377731, 1.094360107083761, 0.0 ], [ 121.49304766216639, 1.093608944842635, 0.0 ], [ 121.492782670000238, 1.093130711779603, 0.0 ], [ 121.493059150616773, 1.092900881617491, 0.0 ], [ 121.493033825000595, 1.092880489779616, 0.0 ], [ 121.492911272819924, 1.09278297158247, 0.0 ], [ 121.492859024627478, 1.092729391087681, 0.0 ], [ 121.492836776666479, 1.092737719201155, 0.0 ], [ 121.492619841204245, 1.092853043745788, 0.0 ], [ 121.492482470000297, 1.092937305779834, 0.0 ], [ 121.491910773808499, 1.092398230335493, 0.0 ], [ 121.491132076000341, 1.09246988778005, 0.0 ] ] ], [ [ [ 121.486931920000302, 1.092447866780265, 0.0 ], [ 121.48732962000021, 1.092942694779844, 0.0 ], [ 121.487181152000204, 1.093372126779342, 0.0 ], [ 121.486829429000039, 1.093934114778683, 0.0 ], [ 121.487178226928563, 1.094166602877945, 0.0 ], [ 121.487312222576648, 1.094241121578243, 0.0 ], [ 121.487745011000285, 1.094329968778328, 0.0 ], [ 121.487596541000102, 1.094587093777877, 0.0 ], [ 121.487946622721353, 1.094900283553532, 0.0 ], [ 121.488027259326387, 1.094964494183504, 0.0 ], [ 121.487866769828742, 1.095317964918141, 0.0 ], [ 121.487827758820558, 1.095447747863471, 0.0 ], [ 121.488045501000215, 1.095717221776682, 0.0 ], [ 121.488595203000244, 1.09550161877696, 0.0 ], [ 121.489189531175867, 1.094922052658093, 0.0 ], [ 121.48866799073042, 1.094717704536267, 0.0 ], [ 121.48830393319669, 1.094635613131697, 0.0 ], [ 121.488435993282494, 1.09410023440593, 0.0 ], [ 121.488935680093491, 1.094125218746296, 0.0 ], [ 121.489128416435022, 1.093807560702472, 0.0 ], [ 121.489538873458613, 1.09357913244611, 0.0 ], [ 121.489753024949223, 1.09347205670101, 0.0 ], [ 121.490559662230055, 1.094310816704632, 0.0 ], [ 121.490124882122601, 1.094730559475196, 0.0 ], [ 121.490551334116503, 1.095140177837223, 0.0 ], [ 121.490300159114412, 1.095444934735001, 0.0 ], [ 121.490704751000294, 1.095847094776589, 0.0 ], [ 121.492107768977903, 1.094482073211742, 0.0 ], [ 121.492063571602742, 1.094435754646961, 0.0 ], [ 121.491819755363153, 1.094183535244222, 0.0 ], [ 121.491654144875127, 1.093987943547464, 0.0 ], [ 121.491480478112891, 1.09380007058887, 0.0 ], [ 121.491088253000427, 1.093297790779293, 0.0 ], [ 121.491061967161812, 1.093271376325467, 0.0 ], [ 121.490805867016917, 1.092943122208778, 0.0 ], [ 121.490598239711659, 1.092732644269736, 0.0 ], [ 121.490406069973659, 1.092508846776034, 0.0 ], [ 121.490141473906746, 1.09222711859014, 0.0 ], [ 121.489878781408578, 1.091976799289639, 0.0 ], [ 121.489305807192238, 1.09151042492741, 0.0 ], [ 121.489289752000204, 1.091543826781126, 0.0 ], [ 121.489115657000426, 1.09191406178068, 0.0 ], [ 121.489722816000125, 1.092330248780492, 0.0 ], [ 121.489194326000074, 1.093042439779726, 0.0 ], [ 121.488744479000133, 1.092585609780302, 0.0 ], [ 121.48883290800039, 1.092428422780331, 0.0 ], [ 121.488614613000209, 1.092290576780631, 0.0 ], [ 121.489057382000126, 1.091414018781524, 0.0 ], [ 121.48907452357966, 1.091379054883826, 0.0 ], [ 121.48906560060064, 1.091372035474115, 0.0 ], [ 121.488094780499083, 1.090628215955864, 0.0 ], [ 121.488064899000406, 1.09066821778238, 0.0 ], [ 121.487866926000393, 1.091011074781681, 0.0 ], [ 121.488294693000398, 1.091300032781619, 0.0 ], [ 121.488041941000276, 1.091862902781048, 0.0 ], [ 121.488277906000292, 1.092031680780833, 0.0 ], [ 121.48807905400011, 1.092301184780575, 0.0 ], [ 121.488414004000205, 1.092528279780202, 0.0 ], [ 121.488269954000273, 1.092750064780124, 0.0 ], [ 121.48752669600016, 1.092526505780243, 0.0 ], [ 121.487301326000207, 1.092089102780705, 0.0 ], [ 121.487101054646672, 1.092030086239451, 0.0 ], [ 121.486931920000302, 1.092447866780265, 0.0 ] ] ], [ [ [ 121.492375116000176, 1.095916400776527, 0.0 ], [ 121.492217473487358, 1.095907699304669, 0.0 ], [ 121.491727376297973, 1.096428216319354, 0.0 ], [ 121.49179827200031, 1.09650099077594, 0.0 ], [ 121.491339936000173, 1.096974156775301, 0.0 ], [ 121.49126035244835, 1.096894307356255, 0.0 ], [ 121.490440891637732, 1.097752911232905, 0.0 ], [ 121.490269249000207, 1.098015768774212, 0.0 ], [ 121.490146736670297, 1.098063721131242, 0.0 ], [ 121.489391324175372, 1.098910601861171, 0.0 ], [ 121.489623345000368, 1.099142577772794, 0.0 ], [ 121.489660038758146, 1.099179751460724, 0.0 ], [ 121.489325420115961, 1.099395779204438, 0.0 ], [ 121.489623076412002, 1.099930716168412, 0.0 ], [ 121.489846884000116, 1.100122410771859, 0.0 ], [ 121.490014844000186, 1.099931727772048, 0.0 ], [ 121.489962251000193, 1.099750465772157, 0.0 ], [ 121.490173377000275, 1.099520550772494, 0.0 ], [ 121.49024909058781, 1.09951932520916, 0.0 ], [ 121.490588120195568, 1.099355968256702, 0.0 ], [ 121.490643429000215, 1.099166970772947, 0.0 ], [ 121.491026906000172, 1.098996436773082, 0.0 ], [ 121.491048783000323, 1.098983715773155, 0.0 ], [ 121.491070653000406, 1.098970984773092, 0.0 ], [ 121.49109561800023, 1.098963608772997, 0.0 ], [ 121.491112784000464, 1.098968098773057, 0.0 ], [ 121.491147186000291, 1.098977349773032, 0.0 ], [ 121.491173792000154, 1.098998456773018, 0.0 ], [ 121.491197268000178, 1.099014088773097, 0.0 ], [ 121.491226205000459, 1.099026517773131, 0.0 ], [ 121.491255111000157, 1.099038871773035, 0.0 ], [ 121.491278584, 1.099054520772995, 0.0 ], [ 121.491301281000133, 1.099056092772979, 0.0 ], [ 121.491319395000318, 1.09907522077289, 0.0 ], [ 121.491332057000378, 1.099097550772989, 0.0 ], [ 121.491351055000464, 1.099131058772887, 0.0 ], [ 121.491366894000066, 1.099158993772724, 0.0 ], [ 121.491379564000212, 1.099181324772877, 0.0 ], [ 121.491397696000504, 1.099200465772899, 0.0 ], [ 121.491426759000234, 1.099213222772828, 0.0 ], [ 121.491448070000274, 1.099237956772882, 0.0 ], [ 121.491480314000597, 1.099256307772876, 0.0 ], [ 121.49150710300043, 1.099277858772764, 0.0 ], [ 121.491538475000198, 1.099281840772701, 0.0 ], [ 121.491563499000307, 1.099274644772714, 0.0 ], [ 121.491587620000345, 1.099253062772694, 0.0 ], [ 121.491606266000204, 1.099234650772792, 0.0 ], [ 121.491627114000309, 1.099207292772844, 0.0 ], [ 121.491645528000262, 1.099188390772889, 0.0 ], [ 121.49165756300043, 1.099158245772826, 0.0 ], [ 121.491666418000307, 1.099122586772894, 0.0 ], [ 121.491678416000113, 1.099092503772813, 0.0 ], [ 121.491678659000385, 1.099054572773018, 0.0 ], [ 121.491682142000329, 1.099022387772971, 0.0 ], [ 121.491677227000068, 1.098988305772984, 0.0 ], [ 121.491655453000149, 1.098950249773116, 0.0 ], [ 121.491633770000576, 1.098912417773232, 0.0 ], [ 121.491618348000145, 1.09888548777316, 0.0 ], [ 121.491605973000162, 1.098863891773163, 0.0 ], [ 121.491461571000173, 1.098738865773425, 0.0 ], [ 121.491484346000249, 1.098638923773439, 0.0 ], [ 121.491868365000286, 1.098510182773487, 0.0 ], [ 121.492175736000277, 1.098323122773862, 0.0 ], [ 121.492849493000492, 1.097675153774561, 0.0 ], [ 121.493522113379967, 1.096882697380875, 0.0 ], [ 121.493401809428462, 1.096756664669814, 0.0 ], [ 121.493796506476031, 1.096309220982891, 0.0 ], [ 121.492764322522603, 1.095320185574372, 0.0 ], [ 121.492375116000176, 1.095916400776527, 0.0 ] ] ] ] } },
{ "type": "Feature", "properties": { "WADMPR": "SULAWESI TENGAH", "WADMKK": "BUOL", "WADMKC": "BOKAT", "WADMKD": "BOKAT", "POKTAN": "KT MAKMUR BERSAMA", "LUAS_HA": 15.0026562328, "PAKET": "Paket Sulawesi Tengah 8" }, "geometry": { "type": "MultiPolygon", "coordinates": [ [ [ [ 121.497620454660492, 1.091123784270739, 0.0 ], [ 121.498306916020027, 1.092241666894834, 0.0 ], [ 121.49840468597084, 1.092189874566514, 0.0 ], [ 121.498622894185459, 1.092561853667676, 0.0 ], [ 121.498922874986022, 1.092405232060297, 0.0 ], [ 121.499284148171981, 1.092065392137805, 0.0 ], [ 121.499531335088662, 1.091816495316888, 0.0 ], [ 121.500026953000187, 1.091259573350513, 0.0 ], [ 121.500123956896005, 1.091307918377592, 0.0 ], [ 121.500527886573309, 1.090870807242192, 0.0 ], [ 121.500995867408392, 1.090581488683467, 0.0 ], [ 121.500994293425492, 1.090387024223749, 0.0 ], [ 121.501071301657333, 1.090276456655094, 0.0 ], [ 121.50114973596736, 1.090171632859897, 0.0 ], [ 121.501332273998202, 1.090082604433871, 0.0 ], [ 121.501350813016941, 1.090084040376227, 0.0 ], [ 121.501380379042587, 1.090106482775326, 0.0 ], [ 121.501707505680926, 1.089895960039082, 0.0 ], [ 121.501692220138992, 1.089842851932413, 0.0 ], [ 121.501665481169567, 1.089774046368327, 0.0 ], [ 121.501592201565956, 1.089689420696563, 0.0 ], [ 121.501550182863312, 1.089664334145339, 0.0 ], [ 121.501386092175593, 1.08959110137391, 0.0 ], [ 121.501322331063037, 1.089585937946999, 0.0 ], [ 121.501275983515953, 1.089596707512813, 0.0 ], [ 121.500484057286144, 1.090079054710592, 0.0 ], [ 121.499532008514734, 1.090361645934943, 0.0 ], [ 121.499025750694813, 1.090493273996919, 0.0 ], [ 121.498688238407482, 1.090589369780361, 0.0 ], [ 121.498615033059338, 1.090472906725406, 0.0 ], [ 121.497791561429878, 1.090854660527803, 0.0 ], [ 121.497828346000034, 1.090916311350918, 0.0 ], [ 121.497620454660492, 1.091123784270739, 0.0 ] ] ], [ [ [ 121.495503470296924, 1.092754766752616, 0.0 ], [ 121.495561556000226, 1.092828029348716, 0.0 ], [ 121.495221782000513, 1.093138813348499, 0.0 ], [ 121.495043117929086, 1.093070887518069, 0.0 ], [ 121.494936122865923, 1.093151370530232, 0.0 ], [ 121.49465418600029, 1.093521386347808, 0.0 ], [ 121.494593487484551, 1.093480926406947, 0.0 ], [ 121.494329454872997, 1.093746570714787, 0.0 ], [ 121.494289617000192, 1.094093520347429, 0.0 ], [ 121.494255857761104, 1.094256317474662, 0.0 ], [ 121.493203974908596, 1.095464920238075, 0.0 ], [ 121.493932014061841, 1.096189164248766, 0.0 ], [ 121.493955291236233, 1.096179610184617, 0.0 ], [ 121.494057545752639, 1.09613764004748, 0.0 ], [ 121.494181277724806, 1.096057690157841, 0.0 ], [ 121.494232674082454, 1.095991065249849, 0.0 ], [ 121.494303106128186, 1.095903501084578, 0.0 ], [ 121.494362116761408, 1.095831165470357, 0.0 ], [ 121.494383056018123, 1.095766444131037, 0.0 ], [ 121.494428741669424, 1.095726469185948, 0.0 ], [ 121.494560087916938, 1.095882561827853, 0.0 ], [ 121.494628196172954, 1.095952217998475, 0.0 ], [ 121.495040410212482, 1.095537151975086, 0.0 ], [ 121.494921316000358, 1.095057765346284, 0.0 ], [ 121.495430304000237, 1.094432067347119, 0.0 ], [ 121.495723576398987, 1.094723624523273, 0.0 ], [ 121.496767916257696, 1.093671133233418, 0.0 ], [ 121.496741109000013, 1.093603224347899, 0.0 ], [ 121.497166346000313, 1.093061427348351, 0.0 ], [ 121.497334668000263, 1.093241765348359, 0.0 ], [ 121.496984706382634, 1.093690351962481, 0.0 ], [ 121.49719174070222, 1.093857679042143, 0.0 ], [ 121.497795056309769, 1.093062814776415, 0.0 ], [ 121.497689811000171, 1.092681905349, 0.0 ], [ 121.497874544376501, 1.092356405186889, 0.0 ], [ 121.497626919483295, 1.091988254904038, 0.0 ], [ 121.497655375736144, 1.091969083175555, 0.0 ], [ 121.497326174817644, 1.091489672659696, 0.0 ], [ 121.496847110000047, 1.091962783349844, 0.0 ], [ 121.496355660000404, 1.092403199349193, 0.0 ], [ 121.496227345442193, 1.092238562650476, 0.0 ], [ 121.495503470296924, 1.092754766752616, 0.0 ] ] ] ] } }
]
}
