{
"type": "FeatureCollection",
"name": "SULTENG_PAKET_11",
"crs": { "type": "name", "properties": { "name": "urn:ogc:def:crs:OGC:1.3:CRS84" } },
"features": [
{ "type": "Feature", "properties": { "WADMPR": "SULAWESI TENGAH", "WADMKK": "DONGGALA", "WADMKC": "LABUAN", "WADMKD": "LABUAN LELEA", "POKTAN": "KT TUNAS JAYA", "LUAS_HA": 37.000809383700002, "PAKET": "Paket Sulawesi Tengah 11" }, "geometry": { "type": "MultiPolygon", "coordinates": [ [ [ [ 119.846068479495898, -0.674107283176313, 0.0 ], [ 119.846017677524998, -0.6746480147906, 0.0 ], [ 119.84552205700794, -0.674629765153232, 0.0 ], [ 119.845463572224006, -0.67511790880317, 0.0 ], [ 119.84610459003548, -0.6751792758878, 0.0 ], [ 119.846074495001375, -0.675824588791439, 0.0 ], [ 119.846495923252689, -0.67583681511374, 0.0 ], [ 119.846478263287281, -0.676319666656817, 0.0 ], [ 119.846480166855969, -0.676837437371149, 0.0 ], [ 119.846508720387988, -0.677267643920493, 0.0 ], [ 119.846392290604257, -0.677298505714616, 0.0 ], [ 119.84600641859484, -0.677375931620922, 0.0 ], [ 119.845985372817339, -0.677794188894235, 0.0 ], [ 119.845996967516541, -0.678221430533665, 0.0 ], [ 119.845940572379092, -0.67823035645444, 0.0 ], [ 119.846008253944362, -0.67912370842357, 0.0 ], [ 119.846779926933891, -0.679079400935336, 0.0 ], [ 119.846794966508682, -0.679151960990953, 0.0 ], [ 119.846816179276047, -0.679392182230236, 0.0 ], [ 119.846830259811, -0.679646739521711, 0.0 ], [ 119.846417131063063, -0.67965005292047, 0.0 ], [ 119.846110130536701, -0.67964226229816, 0.0 ], [ 119.84597907136677, -0.679639785943062, 0.0 ], [ 119.845957557487978, -0.679863487051759, 0.0 ], [ 119.845951390475065, -0.679902772587278, 0.0 ], [ 119.846097637332946, -0.67991720957672, 0.0 ], [ 119.846117835854727, -0.679793833036586, 0.0 ], [ 119.84639602456518, -0.679817730778719, 0.0 ], [ 119.846380503610007, -0.679941034982054, 0.0 ], [ 119.846474178321486, -0.679950202080609, 0.0 ], [ 119.84645865616784, -0.680087623850691, 0.0 ], [ 119.846363432480175, -0.680076654241136, 0.0 ], [ 119.846167560612187, -0.680065769743721, 0.0 ], [ 119.846026324326715, -0.680075883796542, 0.0 ], [ 119.845790281794947, -0.680053040970946, 0.0 ], [ 119.845521878593502, -0.680028294576535, 0.0 ], [ 119.845512450036651, -0.679967008956677, 0.0 ], [ 119.845226176279141, -0.679960781860014, 0.0 ], [ 119.845222739629918, -0.680073193560963, 0.0 ], [ 119.845193481248614, -0.680259387829118, 0.0 ], [ 119.845043629267238, -0.680200457274748, 0.0 ], [ 119.844831041081079, -0.680160732394223, 0.0 ], [ 119.844631928451207, -0.680140414778936, 0.0 ], [ 119.844560544621046, -0.680126138012981, 0.0 ], [ 119.844081487736716, -0.680050078541952, 0.0 ], [ 119.84353897062725, -0.680021525009961, 0.0 ], [ 119.843042853007503, -0.679992971477853, 0.0 ], [ 119.842382552578513, -0.679992971477853, 0.0 ], [ 119.841895426881877, -0.68001812574783, 0.0 ], [ 119.841829045052009, -0.680021553582794, 0.0 ], [ 119.841472584303034, -0.680035734305232, 0.0 ], [ 119.841432840290068, -0.680037315401827, 0.0 ], [ 119.841432840290068, -0.679813328120685, 0.0 ], [ 119.841450381632114, -0.679679575442614, 0.0 ], [ 119.841838208486934, -0.679703444820496, 0.0 ], [ 119.841994917115258, -0.67969398763197, 0.0 ], [ 119.84207091269792, -0.679665356367056, 0.0 ], [ 119.842203890993545, -0.679636762636142, 0.0 ], [ 119.842355838684355, -0.679646423181945, 0.0 ], [ 119.842930377309713, -0.67970416434961, 0.0 ], [ 119.842921591146563, -0.678609486658767, 0.0 ], [ 119.842969517039066, -0.677930725958305, 0.0 ], [ 119.843577258666471, -0.678045850699219, 0.0 ], [ 119.843496278891124, -0.67843777630347, 0.0 ], [ 119.843952076022106, -0.678538460759656, 0.0 ], [ 119.844061599911313, -0.678065289791594, 0.0 ], [ 119.844408232910595, -0.67808463840613, 0.0 ], [ 119.844514684763411, -0.677408090620636, 0.0 ], [ 119.844826496977745, -0.677430767869584, 0.0 ], [ 119.845090617149253, -0.677416491103648, 0.0 ], [ 119.84514455159885, -0.677413318488948, 0.0 ], [ 119.845187381896963, -0.676190275533213, 0.0 ], [ 119.845258765727223, -0.675138553769811, 0.0 ], [ 119.84466865939774, -0.67497675042155, 0.0 ], [ 119.844059517380316, -0.674833982761393, 0.0 ], [ 119.843226706027963, -0.674596036661031, 0.0 ], [ 119.843036277060989, -0.674532669676819, 0.0 ], [ 119.842791215091978, -0.674347448421507, 0.0 ], [ 119.842516387345867, -0.674133296931201, 0.0 ], [ 119.842263341864609, -0.673819940092064, 0.0 ], [ 119.841894108720481, -0.673341937773518, 0.0 ], [ 119.841823492579024, -0.673282754979195, 0.0 ], [ 119.841827533384517, -0.673280260161422, 0.0 ], [ 119.842166606577848, -0.67296617130919, 0.0 ], [ 119.84250659110964, -0.67271194864155, 0.0 ], [ 119.842679079921297, -0.672608853772321, 0.0 ], [ 119.84280652081749, -0.672541924538873, 0.0 ], [ 119.843032496403552, -0.672389044940379, 0.0 ], [ 119.843407124774799, -0.672091702061712, 0.0 ], [ 119.843476094488764, -0.672035178404285, 0.0 ], [ 119.844429791271352, -0.671211668436135, 0.0 ], [ 119.844682851542331, -0.670974874551794, 0.0 ], [ 119.845125431289262, -0.670514448847676, 0.0 ], [ 119.845321736822186, -0.67065007812488, 0.0 ], [ 119.845298718746491, -0.670793289244669, 0.0 ], [ 119.845253501655492, -0.670958178068681, 0.0 ], [ 119.84521501457354, -0.671241939821083, 0.0 ], [ 119.845157706647768, -0.671748607703094, 0.0 ], [ 119.845171673011748, -0.672183618370966, 0.0 ], [ 119.845931592677985, -0.672276201774437, 0.0 ], [ 119.845841344229925, -0.672976529732065, 0.0 ], [ 119.845806828963219, -0.673195087355217, 0.0 ], [ 119.845787407384151, -0.67367110201217, 0.0 ], [ 119.846024811292921, -0.673709498783289, 0.0 ], [ 119.845996070579886, -0.674096679554817, 0.0 ], [ 119.846068479495898, -0.674107283176313, 0.0 ] ] ], [ [ [ 119.842540905708717, -0.675778644642774, 0.0 ], [ 119.842516467219767, -0.67583793802593, 0.0 ], [ 119.842424788011471, -0.676060372825414, 0.0 ], [ 119.842323898864748, -0.676336390301922, 0.0 ], [ 119.842200166892553, -0.676616214915894, 0.0 ], [ 119.841608156994283, -0.676359233127549, 0.0 ], [ 119.841718563985168, -0.676054662119068, 0.0 ], [ 119.841771863911461, -0.675881437357992, 0.0 ], [ 119.84154914636143, -0.675797680330761, 0.0 ], [ 119.841493942865924, -0.675911894458918, 0.0 ], [ 119.841010436389652, -0.675664430514568, 0.0 ], [ 119.841113229104977, -0.675357955937413, 0.0 ], [ 119.841174716587787, -0.675194431247406, 0.0 ], [ 119.841175217254701, -0.675192670002564, 0.0 ], [ 119.841351175205745, -0.674573685590737, 0.0 ], [ 119.841408495033491, -0.674386234261996, 0.0 ], [ 119.841579603462151, -0.6739093400785, 0.0 ], [ 119.841678589039944, -0.673659972565438, 0.0 ], [ 119.841764249636398, -0.673492458510842, 0.0 ], [ 119.841811838856273, -0.673423930033865, 0.0 ], [ 119.842015520718434, -0.673673297547003, 0.0 ], [ 119.84225537038779, -0.67396454357383, 0.0 ], [ 119.842445727268426, -0.67417583971091, 0.0 ], [ 119.842552327121368, -0.674265307444665, 0.0 ], [ 119.842676929429544, -0.674357404802726, 0.0 ], [ 119.842767631011952, -0.674429954195806, 0.0 ], [ 119.842904487350367, -0.674539421352213, 0.0 ], [ 119.843005376497246, -0.674617467673201, 0.0 ], [ 119.842963497983249, -0.674735488938867, 0.0 ], [ 119.842807190126791, -0.675122389573394, 0.0 ], [ 119.842771237534038, -0.67521138113953, 0.0 ], [ 119.842540905708717, -0.675778644642774, 0.0 ] ] ], [ [ [ 119.845050602546721, -0.676999014670485, 0.0 ], [ 119.845033816199035, -0.67732091757333, 0.0 ], [ 119.844060151903108, -0.677251832402103, 0.0 ], [ 119.84357831104937, -0.677183422898303, 0.0 ], [ 119.843173802678393, -0.677052552543154, 0.0 ], [ 119.84303868279018, -0.676995437451626, 0.0 ], [ 119.842719729749817, -0.676860616202791, 0.0 ], [ 119.84229901366848, -0.676682938968109, 0.0 ], [ 119.842483310669763, -0.676199959007883, 0.0 ], [ 119.842574262090451, -0.67596160616869, 0.0 ], [ 119.842595795913482, -0.675908507452346, 0.0 ], [ 119.842608867794652, -0.67587627443471, 0.0 ], [ 119.842895707243912, -0.675168977529851, 0.0 ], [ 119.843101941657793, -0.674660438822912, 0.0 ], [ 119.844229688499837, -0.674991344449005, 0.0 ], [ 119.844881065950062, -0.675137086435543, 0.0 ], [ 119.84513685800826, -0.675211444591752, 0.0 ], [ 119.845092243114507, -0.675981795091621, 0.0 ], [ 119.845050602546721, -0.676999014670485, 0.0 ] ] ] ] } },
{ "type": "Feature", "properties": { "WADMPR": "SULAWESI TENGAH", "WADMKK": "DONGGALA", "WADMKC": "DAMPELAS", "WADMKD": "TALAGA", "POKTAN": "GAPOKTAN TALAGA", "LUAS_HA": 140.00534890200001, "PAKET": "Paket Sulawesi Tengah 11" }, "geometry": { "type": "MultiPolygon", "coordinates": [ [ [ [ 119.836456781748211, 0.208594628629541, 0.0 ], [ 119.837016565755803, 0.208529202699539, 0.0 ], [ 119.837007535725533, 0.208800288940565, 0.0 ], [ 119.837377899057913, 0.208795583819972, 0.0 ], [ 119.837489371666564, 0.208625513570549, 0.0 ], [ 119.837624926458304, 0.208525934911419, 0.0 ], [ 119.837800561916154, 0.208446714372298, 0.0 ], [ 119.837924031385796, 0.208370256032247, 0.0 ], [ 119.838042763112313, 0.208241214423842, 0.0 ], [ 119.838227972100086, 0.208102625794885, 0.0 ], [ 119.838413179195598, 0.207973597533516, 0.0 ], [ 119.838527149359209, 0.207911477801265, 0.0 ], [ 119.83868384419479, 0.20789716878514, 0.0 ], [ 119.838916520456664, 0.207835072967732, 0.0 ], [ 119.839339128456714, 0.207763454981197, 0.0 ], [ 119.839252344108857, 0.207217059038196, 0.0 ], [ 119.83921678913498, 0.206930239065527, 0.0 ], [ 119.83913847718506, 0.206758135659981, 0.0 ], [ 119.838795710740641, 0.206369689877598, 0.0 ], [ 119.839117749333212, 0.206077315800484, 0.0 ], [ 119.83898722330521, 0.205820353268098, 0.0 ], [ 119.839509444207096, 0.205495803639133, 0.0 ], [ 119.838776910212431, 0.20403354779896, 0.0 ], [ 119.838761234602529, 0.203611176760614, 0.0 ], [ 119.838749401260273, 0.20341996595928, 0.0 ], [ 119.838779113830782, 0.203234738620822, 0.0 ], [ 119.838814763993724, 0.203037561911913, 0.0 ], [ 119.838874161129368, 0.202810513537592, 0.0 ], [ 119.839010720626092, 0.202565554507924, 0.0 ], [ 119.839230375487034, 0.202314636457747, 0.0 ], [ 119.839396616051559, 0.202045782020881, 0.0 ], [ 119.839509439973654, 0.201770941769365, 0.0 ], [ 119.839616308928257, 0.201597679874283, 0.0 ], [ 119.839818133551432, 0.201472238663391, 0.0 ], [ 119.840103031779194, 0.201454368528479, 0.0 ], [ 119.840364181932216, 0.201472345381662, 0.0 ], [ 119.840637195861504, 0.20152617621067, 0.0 ], [ 119.840815248312111, 0.201562062669821, 0.0 ], [ 119.841058586940875, 0.201609912458702, 0.0 ], [ 119.841367193342776, 0.201765330062663, 0.0 ], [ 119.84146213763546, 0.201872903681183, 0.0 ], [ 119.841503665229084, 0.201974491577311, 0.0 ], [ 119.841515487340459, 0.202225455674022, 0.0 ], [ 119.841509510384952, 0.20244056459918, 0.0 ], [ 119.841515985750007, 0.202805370702015, 0.0 ], [ 119.841746551053987, 0.204352701315556, 0.0 ], [ 119.841817721118389, 0.204627578399647, 0.0 ], [ 119.841918589964649, 0.204788931047151, 0.0 ], [ 119.84203134115198, 0.204890533251596, 0.0 ], [ 119.842244996329512, 0.204974229674798, 0.0 ], [ 119.842417117172289, 0.204992189731169, 0.0 ], [ 119.842612986369161, 0.20497430278963, 0.0 ], [ 119.843008107852881, 0.204924848947628, 0.0 ], [ 119.844032898909873, 0.204847789636607, 0.0 ], [ 119.844066219606134, 0.204852455411196, 0.0 ], [ 119.844144562489006, 0.204870396846522, 0.0 ], [ 119.844230020053658, 0.204927776651499, 0.0 ], [ 119.844254933704704, 0.205003070331671, 0.0 ], [ 119.844262035726842, 0.205107041899496, 0.0 ], [ 119.844237085529841, 0.205218177452226, 0.0 ], [ 119.844165834794239, 0.205354400032011, 0.0 ], [ 119.843831013719097, 0.205702095522474, 0.0 ], [ 119.843752647599871, 0.20580246483355, 0.0 ], [ 119.843677843380192, 0.205899249663822, 0.0 ], [ 119.843631532978279, 0.20597452911316, 0.0 ], [ 119.843614293183393, 0.206073760960977, 0.0 ], [ 119.843615953960636, 0.20615488270894, 0.0 ], [ 119.843670339953718, 0.206344464857392, 0.0 ], [ 119.843682498677069, 0.20637099997811, 0.0 ], [ 119.843772316217013, 0.206683876765793, 0.0 ], [ 119.843901835987154, 0.208115492171075, 0.0 ], [ 119.844006199782413, 0.208607877514421, 0.0 ], [ 119.844034663638936, 0.208736949640628, 0.0 ], [ 119.844084131676226, 0.208823311615354, 0.0 ], [ 119.844193577817975, 0.208914888558098, 0.0 ], [ 119.844238798111661, 0.208942541112537, 0.0 ], [ 119.844343251421847, 0.208985584392666, 0.0 ], [ 119.844547423171463, 0.209004746680024, 0.0 ], [ 119.844612558797877, 0.208995449321146, 0.0 ], [ 119.845441231522969, 0.208948401960255, 0.0 ], [ 119.845644296916916, 0.208890242867778, 0.0 ], [ 119.845824750440229, 0.208794674481393, 0.0 ], [ 119.845883437776152, 0.208730480287745, 0.0 ], [ 119.845961906354816, 0.208592269103929, 0.0 ], [ 119.84609149203834, 0.208207428300884, 0.0 ], [ 119.846108527505692, 0.208156836696516, 0.0 ], [ 119.846157611334789, 0.207898297028763, 0.0 ], [ 119.84616650356466, 0.207820848134312, 0.0 ], [ 119.846185538405848, 0.207610521139617, 0.0 ], [ 119.846255228826507, 0.207417405155424, 0.0 ], [ 119.846328024042435, 0.207262668547738, 0.0 ], [ 119.846431878995048, 0.207092675379155, 0.0 ], [ 119.846519016831223, 0.206934202568241, 0.0 ], [ 119.846556061104181, 0.206817074487767, 0.0 ], [ 119.84659409263034, 0.206587630202404, 0.0 ], [ 119.846575154189182, 0.206310372041195, 0.0 ], [ 119.846480256400639, 0.20596617527628, 0.0 ], [ 119.846404321564265, 0.205774950253896, 0.0 ], [ 119.846318916423115, 0.205449876468433, 0.0 ], [ 119.846299988932557, 0.205115255444883, 0.0 ], [ 119.846281106195036, 0.204551182611793, 0.0 ], [ 119.846016660502741, 0.203161273933977, 0.0 ], [ 119.845725991922052, 0.202318698766391, 0.0 ], [ 119.845500678167198, 0.20112956921022, 0.0 ], [ 119.845394076753763, 0.199904611336919, 0.0 ], [ 119.84535263196949, 0.199366826066817, 0.0 ], [ 119.845257724575802, 0.199062067330651, 0.0 ], [ 119.845087029045629, 0.198964615167317, 0.0 ], [ 119.844981778845678, 0.19892466286348, 0.0 ], [ 119.844788861440264, 0.198912594448045, 0.0 ], [ 119.844587056675749, 0.198930481460631, 0.0 ], [ 119.844474275120177, 0.19898423740654, 0.0 ], [ 119.844421682933842, 0.199045523447516, 0.0 ], [ 119.844298537097828, 0.199340383753181, 0.0 ], [ 119.844272797121931, 0.199446104644734, 0.0 ], [ 119.844177573950049, 0.200095095071845, 0.0 ], [ 119.844135458285422, 0.201610912080983, 0.0 ], [ 119.84412828610877, 0.201869043451893, 0.0 ], [ 119.84412824596302, 0.202076983732455, 0.0 ], [ 119.844135285170253, 0.202507206399655, 0.0 ], [ 119.844142357569353, 0.202765340562346, 0.0 ], [ 119.844142283842999, 0.20314536935557, 0.0 ], [ 119.844127976338896, 0.20346803250399, 0.0 ], [ 119.844085005535135, 0.203657450410358, 0.0 ], [ 119.844045819777705, 0.203721975866377, 0.0 ], [ 119.844008539632171, 0.203759492306171, 0.0 ], [ 119.843944300276746, 0.203785645586789, 0.0 ], [ 119.843709107838606, 0.203847056615753, 0.0 ], [ 119.843376446812755, 0.203882862004632, 0.0 ], [ 119.843248249547429, 0.203867530510749, 0.0 ], [ 119.84315846235927, 0.203839759014292, 0.0 ], [ 119.843077142461354, 0.203803146334459, 0.0 ], [ 119.8429741008961, 0.203711596799064, 0.0 ], [ 119.842831685198519, 0.20354665072914, 0.0 ], [ 119.842710645031275, 0.203338686847632, 0.0 ], [ 119.842618105535024, 0.203073365871278, 0.0 ], [ 119.842430253069622, 0.201961010426619, 0.0 ], [ 119.842400087860227, 0.201580673825578, 0.0 ], [ 119.842422797115233, 0.201304007486772, 0.0 ], [ 119.842460736273708, 0.201167815195363, 0.0 ], [ 119.842527230271571, 0.201072223579271, 0.0 ], [ 119.842549546777988, 0.20094131956084, 0.0 ], [ 119.842538635424603, 0.200835937200265, 0.0 ], [ 119.842517795296047, 0.200751946393454, 0.0 ], [ 119.842489325935915, 0.200646775817219, 0.0 ], [ 119.842475136162463, 0.20035995932568, 0.0 ], [ 119.842484652824041, 0.200254796137985, 0.0 ], [ 119.842522665424781, 0.200116176873011, 0.0 ], [ 119.842570166294621, 0.200020581500724, 0.0 ], [ 119.842622415415235, 0.199924987039605, 0.0 ], [ 119.842636676637142, 0.199838945670082, 0.0 ], [ 119.842625459105918, 0.199759785469922, 0.0 ], [ 119.842524144179535, 0.199621656410694, 0.0 ], [ 119.842334388954527, 0.199433583515402, 0.0 ], [ 119.842196714136136, 0.199304490754618, 0.0 ], [ 119.842078035985892, 0.199156280787082, 0.0 ], [ 119.842035322627808, 0.199046327323293, 0.0 ], [ 119.842030598028558, 0.198922040514558, 0.0 ], [ 119.842030623487474, 0.198788194168809, 0.0 ], [ 119.842040141805612, 0.198673470558622, 0.0 ], [ 119.842054419259227, 0.198501385139322, 0.0 ], [ 119.842080760185226, 0.198174603340549, 0.0 ], [ 119.842067086284132, 0.197831669497577, 0.0 ], [ 119.842048300874168, 0.197692509818665, 0.0 ], [ 119.841948332073571, 0.197113665894553, 0.0 ], [ 119.841856719783664, 0.196702636055924, 0.0 ], [ 119.841751326033346, 0.196407360388345, 0.0 ], [ 119.841652762003235, 0.196188330001226, 0.0 ], [ 119.841528849349046, 0.195972007461716, 0.0 ], [ 119.841338373377596, 0.196001029617935, 0.0 ], [ 119.840697972114583, 0.196098605257135, 0.0 ], [ 119.840229859527824, 0.195093163786593, 0.0 ], [ 119.840163559080537, 0.194945966086322, 0.0 ], [ 119.840007062163636, 0.194648122626963, 0.0 ], [ 119.839838611628977, 0.194361915051803, 0.0 ], [ 119.839608780190758, 0.19403837348962, 0.0 ], [ 119.839424074666582, 0.193822850284027, 0.0 ], [ 119.838983970771778, 0.194047022727487, 0.0 ], [ 119.838983932957547, 0.194250447946839, 0.0 ], [ 119.838965041156257, 0.194396253450139, 0.0 ], [ 119.838891267306664, 0.194653163363255, 0.0 ], [ 119.838841705074387, 0.194703040604916, 0.0 ], [ 119.838722511346134, 0.194748187677214, 0.0 ], [ 119.838109791686321, 0.194857761814487, 0.0 ], [ 119.837920779398374, 0.194860467937146, 0.0 ], [ 119.837866113841102, 0.194837317983353, 0.0 ], [ 119.837774060345552, 0.194755495139786, 0.0 ], [ 119.837397336579869, 0.194106742641126, 0.0 ], [ 119.837243320968867, 0.194179973789955, 0.0 ], [ 119.836749145690035, 0.194414943525314, 0.0 ], [ 119.836952053632373, 0.194838029820975, 0.0 ], [ 119.837167167749669, 0.194775917202184, 0.0 ], [ 119.837912805858153, 0.196007621944816, 0.0 ], [ 119.837489361645623, 0.196226133203, 0.0 ], [ 119.837024235647789, 0.195458541181921, 0.0 ], [ 119.836003374335476, 0.195416520662992, 0.0 ], [ 119.835944109808011, 0.194944464803064, 0.0 ], [ 119.835154743242143, 0.194806884710641, 0.0 ], [ 119.834955100464356, 0.195373794231045, 0.0 ], [ 119.834926311567813, 0.195455543657984, 0.0 ], [ 119.835421580040816, 0.195762813199588, 0.0 ], [ 119.835100588982328, 0.196455991625838, 0.0 ], [ 119.835049578879563, 0.19655336761439, 0.0 ], [ 119.834987674307243, 0.196654169586061, 0.0 ], [ 119.834645839936215, 0.197190700289326, 0.0 ], [ 119.834767545787244, 0.197285295120957, 0.0 ], [ 119.835082612099214, 0.197530177790694, 0.0 ], [ 119.835023132139369, 0.197633127005239, 0.0 ], [ 119.834906018625489, 0.197835829561418, 0.0 ], [ 119.834845123066302, 0.197941228849744, 0.0 ], [ 119.834763087965541, 0.197900666326312, 0.0 ], [ 119.834583995398262, 0.197812113433468, 0.0 ], [ 119.834446884540085, 0.198054146678997, 0.0 ], [ 119.833609502790608, 0.199532321417572, 0.0 ], [ 119.833554796821929, 0.199640749369637, 0.0 ], [ 119.833419487771195, 0.199561850027747, 0.0 ], [ 119.833120259542341, 0.20003503033674, 0.0 ], [ 119.832590752871937, 0.199688387157493, 0.0 ], [ 119.832276342177011, 0.200318593520003, 0.0 ], [ 119.832315378323869, 0.200343195510289, 0.0 ], [ 119.832721302146084, 0.20059423422687, 0.0 ], [ 119.832500405267851, 0.201139131954671, 0.0 ], [ 119.832108698630705, 0.201031501271523, 0.0 ], [ 119.831859317923204, 0.201547711910373, 0.0 ], [ 119.831346569706639, 0.201246460228988, 0.0 ], [ 119.830848075969811, 0.200895019782149, 0.0 ], [ 119.830591642552008, 0.201052715392526, 0.0 ], [ 119.830527493346722, 0.201303661946921, 0.0 ], [ 119.830456214841576, 0.201590458369579, 0.0 ], [ 119.83059774352121, 0.202192075723971, 0.0 ], [ 119.830684030121972, 0.202627809612062, 0.0 ], [ 119.831075769785812, 0.202562159417423, 0.0 ], [ 119.831111354598605, 0.202699596492622, 0.0 ], [ 119.831882203936971, 0.202406564122058, 0.0 ], [ 119.832081390354276, 0.203630329568797, 0.0 ], [ 119.83271768062626, 0.20347748968814, 0.0 ], [ 119.833520196575634, 0.203131084861755, 0.0 ], [ 119.833748020116388, 0.20359719821051, 0.0 ], [ 119.834203861757501, 0.203532755841791, 0.0 ], [ 119.834310667321134, 0.203683352983692, 0.0 ], [ 119.834681951104074, 0.203498583581236, 0.0 ], [ 119.834857600828613, 0.203675485473483, 0.0 ], [ 119.835061736165599, 0.203871513844036, 0.0 ], [ 119.835218392064334, 0.204053192290724, 0.0 ], [ 119.835403506421031, 0.204392622907123, 0.0 ], [ 119.834990383667119, 0.204531166499644, 0.0 ], [ 119.835327364933306, 0.205257823207479, 0.0 ], [ 119.835208640476395, 0.205353403434882, 0.0 ], [ 119.835294033190436, 0.205735836113965, 0.0 ], [ 119.835113568554419, 0.205898326661696, 0.0 ], [ 119.835251235946245, 0.206056100646818, 0.0 ], [ 119.835545638260854, 0.205994017023639, 0.0 ], [ 119.835735473824798, 0.206467294571033, 0.0 ], [ 119.833985031319969, 0.206965861936781, 0.0 ], [ 119.834272166153525, 0.207787175220615, 0.0 ], [ 119.834409433903005, 0.208144347988911, 0.0 ], [ 119.834479460411885, 0.208326558162618, 0.0 ], [ 119.834579630419512, 0.208587202392842, 0.0 ], [ 119.834749562851357, 0.208616854713617, 0.0 ], [ 119.835283326863035, 0.208709993762618, 0.0 ], [ 119.835259958332202, 0.208883617267914, 0.0 ], [ 119.835584977121499, 0.208953993187365, 0.0 ], [ 119.835548530068607, 0.209178772677967, 0.0 ], [ 119.836339530665072, 0.20932714387125, 0.0 ], [ 119.836433087385174, 0.208710599162408, 0.0 ], [ 119.836456781748211, 0.208594628629541, 0.0 ] ] ] ] } },
{ "type": "Feature", "properties": { "WADMPR": "SULAWESI TENGAH", "WADMKK": "DONGGALA", "WADMKC": "DAMPELAS", "WADMKD": "MALONAS", "POKTAN": "KT SUMBER REJEKI II", "LUAS_HA": 8.0037848871800001, "PAKET": "Paket Sulawesi Tengah 11" }, "geometry": { "type": "MultiPolygon", "coordinates": [ [ [ [ 119.934476938933642, 0.273206184695986, 0.0 ], [ 119.934040667414479, 0.273146314444698, 0.0 ], [ 119.93392478136289, 0.273684107339702, 0.0 ], [ 119.933831935933796, 0.274183780413524, 0.0 ], [ 119.933499360617262, 0.27421377163543, 0.0 ], [ 119.933488698037735, 0.274285280519315, 0.0 ], [ 119.933588404205821, 0.274349844963639, 0.0 ], [ 119.93359834613004, 0.274468885582243, 0.0 ], [ 119.933906611565476, 0.274547260249001, 0.0 ], [ 119.933882434958463, 0.274675730048424, 0.0 ], [ 119.934055276602606, 0.274711085523288, 0.0 ], [ 119.934190172746995, 0.274637159024277, 0.0 ], [ 119.934274385696, 0.274596595946785, 0.0 ], [ 119.934383834725452, 0.274541538602785, 0.0 ], [ 119.934496221550759, 0.274118109222446, 0.0 ], [ 119.93429532731183, 0.27406666372549, 0.0 ], [ 119.934476938933642, 0.273206184695986, 0.0 ] ] ], [ [ [ 119.933289665680292, 0.271124331556971, 0.0 ], [ 119.933422850253066, 0.270244727078895, 0.0 ], [ 119.932489476878317, 0.27005706057739, 0.0 ], [ 119.932287137383071, 0.270671414927779, 0.0 ], [ 119.932078014377709, 0.270615502973268, 0.0 ], [ 119.931877567329934, 0.270561910664287, 0.0 ], [ 119.931722725691913, 0.270371329405394, 0.0 ], [ 119.931556102175534, 0.270216561692519, 0.0 ], [ 119.931376201276819, 0.27010078721908, 0.0 ], [ 119.930711457647419, 0.269813780174438, 0.0 ], [ 119.930777750493263, 0.26927164188519, 0.0 ], [ 119.930796896051774, 0.268778337732763, 0.0 ], [ 119.930777858954301, 0.268692676747738, 0.0 ], [ 119.93077720228581, 0.268683815640712, 0.0 ], [ 119.930768341303875, 0.268564186175671, 0.0 ], [ 119.930694223624911, 0.268392231626758, 0.0 ], [ 119.930692348227367, 0.268387880666577, 0.0 ], [ 119.930625754186025, 0.268349092480894, 0.0 ], [ 119.930484694734034, 0.268250063838679, 0.0 ], [ 119.930389164977697, 0.268200889391208, 0.0 ], [ 119.930156874264313, 0.268139821395916, 0.0 ], [ 119.930069263976719, 0.268653544938401, 0.0 ], [ 119.929978501304916, 0.269130940313727, 0.0 ], [ 119.92992282943932, 0.269366239139729, 0.0 ], [ 119.929901089000197, 0.269458125698997, 0.0 ], [ 119.92984605843256, 0.269691085739923, 0.0 ], [ 119.930229036000028, 0.269802821698452, 0.0 ], [ 119.930626462342559, 0.269907797987122, 0.0 ], [ 119.930667900557296, 0.270190818523372, 0.0 ], [ 119.930738234013674, 0.270671192996399, 0.0 ], [ 119.930739682000223, 0.270681082697426, 0.0 ], [ 119.93073178567839, 0.27075785156709, 0.0 ], [ 119.930835683509258, 0.270772459574043, 0.0 ], [ 119.930868155751583, 0.270779829209797, 0.0 ], [ 119.931059678425299, 0.270823295639315, 0.0 ], [ 119.932177699169983, 0.271077031013748, 0.0 ], [ 119.933274540467124, 0.271244636566067, 0.0 ], [ 119.933122579018601, 0.272087660064585, 0.0 ], [ 119.93326737088104, 0.272113549247229, 0.0 ], [ 119.933357789907618, 0.272084995276456, 0.0 ], [ 119.933400620682065, 0.271956503765063, 0.0 ], [ 119.933438468278084, 0.271921266641429, 0.0 ], [ 119.933582363145163, 0.271198077633887, 0.0 ], [ 119.933289665680292, 0.271124331556971, 0.0 ] ] ], [ [ [ 119.935575147476086, 0.27196303493509, 0.0 ], [ 119.935591551981105, 0.271877943497617, 0.0 ], [ 119.935740316967127, 0.271906083287876, 0.0 ], [ 119.935961940954058, 0.270795125140534, 0.0 ], [ 119.935429612236433, 0.27066188326857, 0.0 ], [ 119.934453007283395, 0.270439453925326, 0.0 ], [ 119.934398732340611, 0.270641114348209, 0.0 ], [ 119.934306696055899, 0.270983077981291, 0.0 ], [ 119.934890196534056, 0.271099773004916, 0.0 ], [ 119.934922295366505, 0.270920506794839, 0.0 ], [ 119.934869795411473, 0.270903163061834, 0.0 ], [ 119.934900107384976, 0.270765973929916, 0.0 ], [ 119.935378027211158, 0.27087573453356, 0.0 ], [ 119.935170684851798, 0.271894569215326, 0.0 ], [ 119.935575147476086, 0.27196303493509, 0.0 ] ] ], [ [ [ 119.935310124880388, 0.27032555331069, 0.0 ], [ 119.935369337045032, 0.270144888141614, 0.0 ], [ 119.935589750183041, 0.270198202456627, 0.0 ], [ 119.935788888662785, 0.269661488190606, 0.0 ], [ 119.935879423792159, 0.269458864077535, 0.0 ], [ 119.935921012100934, 0.269376327515366, 0.0 ], [ 119.935562764706944, 0.26918057772746, 0.0 ], [ 119.935395471782599, 0.269089167303777, 0.0 ], [ 119.935504938868732, 0.268670495114743, 0.0 ], [ 119.935297061482416, 0.268587173900346, 0.0 ], [ 119.935122374863781, 0.269275543578169, 0.0 ], [ 119.934986506157486, 0.269971873666137, 0.0 ], [ 119.934632994638264, 0.269943371911573, 0.0 ], [ 119.934568352400177, 0.270182387942643, 0.0 ], [ 119.93510966633508, 0.270286863919835, 0.0 ], [ 119.935310124880388, 0.27032555331069, 0.0 ] ] ] ] } }
]
}
