{
"type": "FeatureCollection",
"name": "SULTENG_PAKET_10",
"crs": { "type": "name", "properties": { "name": "urn:ogc:def:crs:OGC:1.3:CRS84" } },
"features": [
{ "type": "Feature", "properties": { "WADMPR": "SULAWESI TENGAH", "WADMKK": "BANGGAI LAUT", "WADMKC": "BANGKURUNG", "WADMKD": "MBELEANG", "POKTAN": "KT MBELEANG JAYA", "LUAS_HA": 53.007615508999997, "PAKET": "Paket Sulawesi Tengah 10" }, "geometry": { "type": "MultiPolygon", "coordinates": [ [ [ [ 123.061147079838094, -1.835380420735948, 0.0 ], [ 123.061284868870388, -1.835361950949975, 0.0 ], [ 123.062949729949651, -1.835258789668558, 0.0 ], [ 123.066204061793954, -1.835057138600078, 0.0 ], [ 123.066528391339233, -1.835037041880227, 0.0 ], [ 123.066634480992178, -1.835029474723067, 0.0 ], [ 123.066580802062276, -1.835327378650448, 0.0 ], [ 123.066570169736337, -1.835386385264825, 0.0 ], [ 123.066525560275849, -1.835781852910478, 0.0 ], [ 123.066469393509692, -1.83598122015555, 0.0 ], [ 123.066407587754824, -1.836109641354143, 0.0 ], [ 123.066328357942638, -1.836274266608785, 0.0 ], [ 123.066301198563664, -1.836330151197059, 0.0 ], [ 123.066210489366512, -1.836478144506817, 0.0 ], [ 123.066069197410116, -1.836632125040558, 0.0 ], [ 123.065876082631348, -1.836748833160995, 0.0 ], [ 123.065611663934277, -1.836832623611066, 0.0 ], [ 123.065400651770119, -1.836880296262597, 0.0 ], [ 123.065259175314878, -1.836928869699811, 0.0 ], [ 123.065090974352756, -1.837047637862368, 0.0 ], [ 123.064982048963344, -1.837140735011914, 0.0 ], [ 123.064711451966218, -1.837517909935149, 0.0 ], [ 123.064195097781393, -1.837323009827748, 0.0 ], [ 123.064099703960522, -1.837513002206852, 0.0 ], [ 123.063964226515552, -1.837455545876566, 0.0 ], [ 123.06388816900278, -1.837611156775248, 0.0 ], [ 123.063659996464338, -1.837553700441928, 0.0 ], [ 123.063490001612067, -1.837517718118975, 0.0 ], [ 123.063417563142252, -1.837711705362987, 0.0 ], [ 123.063361638477872, -1.837713753718067, 0.0 ], [ 123.063286839291791, -1.837716493391061, 0.0 ], [ 123.063225042562848, -1.837960682841982, 0.0 ], [ 123.063292991550611, -1.83797653054528, 0.0 ], [ 123.063636995509782, -1.838056762392239, 0.0 ], [ 123.063658901646818, -1.838003319810009, 0.0 ], [ 123.06388103861093, -1.838077989550562, 0.0 ], [ 123.063750314760668, -1.83833654313876, 0.0 ], [ 123.063807357895499, -1.838389211466715, 0.0 ], [ 123.063659427996072, -1.838719155438021, 0.0 ], [ 123.06347879140344, -1.839039953526264, 0.0 ], [ 123.063681468829571, -1.839150130126279, 0.0 ], [ 123.063593478806865, -1.839282616511599, 0.0 ], [ 123.063388906109253, -1.839601505001171, 0.0 ], [ 123.063305495086084, -1.839742139335435, 0.0 ], [ 123.062953617655268, -1.840299803665598, 0.0 ], [ 123.062189173556561, -1.839904956819057, 0.0 ], [ 123.061809562051138, -1.837854411712962, 0.0 ], [ 123.06171684445566, -1.837405149096886, 0.0 ], [ 123.061477322766876, -1.836470709421123, 0.0 ], [ 123.061147079838094, -1.835380420735948, 0.0 ] ] ], [ [ [ 123.067169667562425, -1.838447426746901, 0.0 ], [ 123.066985813020523, -1.838548709516049, 0.0 ], [ 123.066946422254219, -1.838563004842742, 0.0 ], [ 123.066767658124817, -1.838603450444758, 0.0 ], [ 123.066486833095922, -1.838596204889869, 0.0 ], [ 123.066397227107259, -1.838584923001085, 0.0 ], [ 123.066265314858441, -1.838581331978259, 0.0 ], [ 123.065976533989328, -1.838599287092341, 0.0 ], [ 123.065887404091413, -1.838599287092341, 0.0 ], [ 123.065794708997686, -1.838613651183669, 0.0 ], [ 123.065744860345347, -1.838620345819089, 0.0 ], [ 123.065624402008879, -1.838666583136093, 0.0 ], [ 123.06547429691841, -1.838757966417773, 0.0 ], [ 123.065451854782964, -1.838784338582464, 0.0 ], [ 123.065357027511581, -1.83893689198385, 0.0 ], [ 123.065338819473496, -1.83903088419659, 0.0 ], [ 123.065338819473496, -1.839117068766734, 0.0 ], [ 123.065341681728086, -1.839189143511133, 0.0 ], [ 123.065420818979533, -1.839397168647672, 0.0 ], [ 123.065469693610098, -1.839539931907555, 0.0 ], [ 123.065534522946137, -1.83984552735106, 0.0 ], [ 123.065538470444849, -1.83992504930885, 0.0 ], [ 123.065527774856903, -1.840050735202924, 0.0 ], [ 123.065481427310147, -1.840201558287184, 0.0 ], [ 123.065395862608142, -1.840366745489123, 0.0 ], [ 123.065275098778329, -1.840518052272674, 0.0 ], [ 123.065088677295449, -1.840692470733417, 0.0 ], [ 123.064949618962387, -1.840784394237529, 0.0 ], [ 123.064845178486038, -1.840809562974287, 0.0 ], [ 123.06474535300039, -1.840823927082978, 0.0 ], [ 123.064597991569258, -1.840828715119261, 0.0 ], [ 123.064436369354468, -1.840819139046709, 0.0 ], [ 123.064289007923307, -1.840809562974287, 0.0 ], [ 123.064113124924759, -1.840776046721167, 0.0 ], [ 123.064027560222826, -1.84074731850465, 0.0 ], [ 123.063943077907055, -1.840713965404436, 0.0 ], [ 123.06347588628465, -1.840474879336059, 0.0 ], [ 123.063969055641337, -1.839676001347839, 0.0 ], [ 123.063997850257124, -1.839621531875074, 0.0 ], [ 123.064193936032297, -1.839274399507932, 0.0 ], [ 123.063917633348993, -1.839124773507835, 0.0 ], [ 123.064187994039131, -1.838654947946966, 0.0 ], [ 123.064645527514557, -1.838834499102548, 0.0 ], [ 123.064832700300229, -1.838448464139825, 0.0 ], [ 123.064957482157268, -1.838493351922048, 0.0 ], [ 123.065155697995024, -1.838113767177997, 0.0 ], [ 123.064731406911164, -1.837882057419525, 0.0 ], [ 123.064957763865095, -1.837486001671345, 0.0 ], [ 123.065070952185053, -1.837339967660558, 0.0 ], [ 123.065073688701446, -1.837336984478143, 0.0 ], [ 123.065207045871134, -1.837191606684574, 0.0 ], [ 123.065227816630681, -1.837167382125366, 0.0 ], [ 123.065314004546153, -1.837102711482922, 0.0 ], [ 123.065314188865742, -1.83710262733345, 0.0 ], [ 123.065370972195083, -1.837076703339503, 0.0 ], [ 123.065729038106696, -1.8370030374381, 0.0 ], [ 123.065899125626615, -1.836938792620947, 0.0 ], [ 123.066063539322641, -1.836830548142462, 0.0 ], [ 123.0661798364075, -1.83673615216887, 0.0 ], [ 123.066244921499674, -1.836683323928115, 0.0 ], [ 123.066336024577595, -1.836581133373984, 0.0 ], [ 123.066502400386838, -1.83631779200866, 0.0 ], [ 123.066609375886273, -1.83610687651093, 0.0 ], [ 123.066685382705586, -1.835883719099992, 0.0 ], [ 123.066740080114528, -1.83568337887436, 0.0 ], [ 123.066776784413719, -1.835504215930978, 0.0 ], [ 123.066848905756387, -1.835092615950593, 0.0 ], [ 123.067269598874418, -1.835229074562393, 0.0 ], [ 123.067343279589977, -1.83528413681212, 0.0 ], [ 123.067462119453822, -1.835396655327598, 0.0 ], [ 123.067707638296028, -1.835623088568547, 0.0 ], [ 123.067736243476787, -1.835646360086261, 0.0 ], [ 123.067810329751183, -1.83580778004224, 0.0 ], [ 123.067822701037244, -1.83588575099754, 0.0 ], [ 123.067822701037244, -1.836034179727587, 0.0 ], [ 123.067822701037244, -1.836086093970866, 0.0 ], [ 123.067785858032821, -1.836197131323898, 0.0 ], [ 123.067717624878213, -1.836321569119037, 0.0 ], [ 123.067624665082093, -1.8364306356232, 0.0 ], [ 123.067353880088348, -1.8366610415257, 0.0 ], [ 123.067291497082437, -1.836723876379926, 0.0 ], [ 123.067195852016894, -1.83684171792287, 0.0 ], [ 123.067137500139097, -1.83694675516208, 0.0 ], [ 123.06712236716794, -1.836992800387775, 0.0 ], [ 123.067117104695726, -1.837040185830495, 0.0 ], [ 123.067125985694915, -1.83709164644514, 0.0 ], [ 123.067152864518675, -1.837138350421335, 0.0 ], [ 123.06721425117108, -1.837184723896144, 0.0 ], [ 123.06737468498703, -1.837244574231394, 0.0 ], [ 123.067516698624303, -1.837310110350709, 0.0 ], [ 123.067570176563208, -1.837371157696934, 0.0 ], [ 123.067605828522133, -1.837457342189095, 0.0 ], [ 123.067612958914211, -1.837543526685345, 0.0 ], [ 123.06760939371803, -1.837658439353187, 0.0 ], [ 123.067602263326307, -1.837766169985877, 0.0 ], [ 123.067559480975433, -1.837909810839344, 0.0 ], [ 123.06752382901621, -1.83800676842179, 0.0 ], [ 123.06747484169658, -1.83809964781513, 0.0 ], [ 123.06734754341268, -1.838292061684192, 0.0 ], [ 123.067169667562425, -1.838447426746901, 0.0 ] ] ], [ [ [ 123.063231313328643, -1.841519289729068, 0.0 ], [ 123.064082072088027, -1.841637478333044, 0.0 ], [ 123.064115481915351, -1.841418740932502, 0.0 ], [ 123.064393576767202, -1.841438669486818, 0.0 ], [ 123.0643895593781, -1.841560064437083, 0.0 ], [ 123.064388631582801, -1.841588099974865, 0.0 ], [ 123.064987776086468, -1.841624205963028, 0.0 ], [ 123.064989351418831, -1.84168624992086, 0.0 ], [ 123.064996060654465, -1.84195049103927, 0.0 ], [ 123.064990143313238, -1.842448169349247, 0.0 ], [ 123.064980636123892, -1.842620538815161, 0.0 ], [ 123.064961621745852, -1.842807272421524, 0.0 ], [ 123.064918839394721, -1.842984429963186, 0.0 ], [ 123.064871303449195, -1.843084978845763, 0.0 ], [ 123.064780985152737, -1.843195103818678, 0.0 ], [ 123.064638464817449, -1.84330161098898, 0.0 ], [ 123.064332802709032, -1.843434246788837, 0.0 ], [ 123.064088873322461, -1.843526883607849, 0.0 ], [ 123.063975925151809, -1.843569777823149, 0.0 ], [ 123.06393358376647, -1.84358625554834, 0.0 ], [ 123.063872458388659, -1.843626700011921, 0.0 ], [ 123.063812960153214, -1.843704369630781, 0.0 ], [ 123.063785424630524, -1.843769460496725, 0.0 ], [ 123.063766122969824, -1.843950950117667, 0.0 ], [ 123.063787483891559, -1.844066527751987, 0.0 ], [ 123.06381600545852, -1.844152712559163, 0.0 ], [ 123.063854034215055, -1.844248473460808, 0.0 ], [ 123.063896816566185, -1.844420843096376, 0.0 ], [ 123.063896816566185, -1.844497198336332, 0.0 ], [ 123.063873393059666, -1.844561258813456, 0.0 ], [ 123.063833606379816, -1.844600586722076, 0.0 ], [ 123.063773773915628, -1.844633282305942, 0.0 ], [ 123.063729990642855, -1.84464385239305, 0.0 ], [ 123.063650474013116, -1.844641375480398, 0.0 ], [ 123.063592112607239, -1.844624437608181, 0.0 ], [ 123.063483501617398, -1.84455806575757, 0.0 ], [ 123.06342641518242, -1.844512027939534, 0.0 ], [ 123.063334721853707, -1.844490413596014, 0.0 ], [ 123.063363866663153, -1.844293555495191, 0.0 ], [ 123.062925912722349, -1.844172008575417, 0.0 ], [ 123.063004347032205, -1.843662081853391, 0.0 ], [ 123.062945995505061, -1.84365260981583, 0.0 ], [ 123.062814015763394, -1.84363118591976, 0.0 ], [ 123.062261845183897, -1.843541553642704, 0.0 ], [ 123.062199783310788, -1.843530266820871, 0.0 ], [ 123.062261580039959, -1.842931761503073, 0.0 ], [ 123.062318623174633, -1.842285375979697, 0.0 ], [ 123.06232575356637, -1.842234463154277, 0.0 ], [ 123.062216420891644, -1.842227281094446, 0.0 ], [ 123.062247319256457, -1.842054911665569, 0.0 ], [ 123.062173638540699, -1.842009425291237, 0.0 ], [ 123.062361405525607, -1.841724536972301, 0.0 ], [ 123.062532534929318, -1.841434860659737, 0.0 ], [ 123.06267038917133, -1.841217643355733, 0.0 ], [ 123.063240820517635, -1.841342132329212, 0.0 ], [ 123.063231313328643, -1.841519289729068, 0.0 ] ] ], [ [ [ 123.063077271958932, -1.845461893424507, 0.0 ], [ 123.063004959130438, -1.845872968425906, 0.0 ], [ 123.062998894329567, -1.845949327920629, 0.0 ], [ 123.063008101032523, -1.846145768062493, 0.0 ], [ 123.063068048710619, -1.846498575146585, 0.0 ], [ 123.063092339960349, -1.846641535248203, 0.0 ], [ 123.063215427783433, -1.847427908370753, 0.0 ], [ 123.063229006926207, -1.847706183866001, 0.0 ], [ 123.063225565431736, -1.84774782319631, 0.0 ], [ 123.063173064889142, -1.848060766064355, 0.0 ], [ 123.06314658562836, -1.848121831424984, 0.0 ], [ 123.062917832987381, -1.847992435991925, 0.0 ], [ 123.062183174401852, -1.847451108613631, 0.0 ], [ 123.061909536385969, -1.847254803081, 0.0 ], [ 123.061653538506334, -1.847267866535038, 0.0 ], [ 123.061602769222645, -1.847082991268685, 0.0 ], [ 123.061484070891993, -1.846712601372741, 0.0 ], [ 123.061446457414135, -1.846551764058777, 0.0 ], [ 123.061420312644245, -1.846348271892263, 0.0 ], [ 123.061672253155365, -1.846314755537646, 0.0 ], [ 123.061648485182587, -1.846068170947283, 0.0 ], [ 123.061622175969106, -1.845889719744074, 0.0 ], [ 123.061617802794231, -1.845769217497544, 0.0 ], [ 123.061659159000641, -1.845668233351698, 0.0 ], [ 123.06177543606384, -1.845438017682427, 0.0 ], [ 123.062261698879965, -1.845462482725962, 0.0 ], [ 123.06235439397355, -1.845187169964527, 0.0 ], [ 123.062442335472937, -1.844842430565036, 0.0 ], [ 123.062492150266849, -1.844325401410138, 0.0 ], [ 123.062798952134443, -1.844458892294577, 0.0 ], [ 123.062969743688171, -1.844504245487008, 0.0 ], [ 123.063062463900138, -1.844545912722478, 0.0 ], [ 123.063268369596358, -1.844638444019216, 0.0 ], [ 123.063113488620033, -1.845307030468868, 0.0 ], [ 123.06311312045429, -1.84530861975777, 0.0 ], [ 123.063101764921981, -1.845357171420411, 0.0 ], [ 123.063077271958932, -1.845461893424507, 0.0 ] ] ], [ [ [ 123.062390871117373, -1.849862816608495, 0.0 ], [ 123.0624426640519, -1.85005813069906, 0.0 ], [ 123.062508654437138, -1.850478502143091, 0.0 ], [ 123.062567281669416, -1.850811509599091, 0.0 ], [ 123.062623071099111, -1.85082735917585, 0.0 ], [ 123.062858374029474, -1.850830950222775, 0.0 ], [ 123.062997416670086, -1.850830950222775, 0.0 ], [ 123.063115068135403, -1.850852496503954, 0.0 ], [ 123.063200632837237, -1.850895589067276, 0.0 ], [ 123.063243415188268, -1.850971001055414, 0.0 ], [ 123.063246980384193, -1.85105000409411, 0.0 ], [ 123.06323271960035, -1.851161326563444, 0.0 ], [ 123.063168546073953, -1.851251102753474, 0.0 ], [ 123.063093676959639, -1.851312150565124, 0.0 ], [ 123.062968895102799, -1.851358834187087, 0.0 ], [ 123.062590984336126, -1.851480929819654, 0.0 ], [ 123.062476898066606, -1.851585070218764, 0.0 ], [ 123.062380637777068, -1.851735894255456, 0.0 ], [ 123.062352116209468, -1.851857989913345, 0.0 ], [ 123.062362811797456, -1.851994449775856, 0.0 ], [ 123.062394898560441, -1.852077043908252, 0.0 ], [ 123.062455506891069, -1.852159638044356, 0.0 ], [ 123.06257672355234, -1.852213503787342, 0.0 ], [ 123.06266941864601, -1.852245823233883, 0.0 ], [ 123.062797765698861, -1.852278142680876, 0.0 ], [ 123.062936808339458, -1.852285324780335, 0.0 ], [ 123.063040199020961, -1.852285324780335, 0.0 ], [ 123.063168546073953, -1.852285324780335, 0.0 ], [ 123.063261241167865, -1.852299688979298, 0.0 ], [ 123.06341454459222, -1.8523463726267, 0.0 ], [ 123.063468022530728, -1.852536698278448, 0.0 ], [ 123.063468022530728, -1.85260133718362, 0.0 ], [ 123.063468022530728, -1.852669567141317, 0.0 ], [ 123.063453761747013, -1.852755752355109, 0.0 ], [ 123.06341454459222, -1.852863483877796, 0.0 ], [ 123.063357501457389, -1.853003534866977, 0.0 ], [ 123.063314719106401, -1.853165132175565, 0.0 ], [ 123.063229154404581, -1.853269272670868, 0.0 ], [ 123.063125763722923, -1.853301592136158, 0.0 ], [ 123.062886895596762, -1.8533662310685, 0.0 ], [ 123.062851243637752, -1.853409323691163, 0.0 ], [ 123.062829852462059, -1.853491917887812, 0.0 ], [ 123.062829852462059, -1.853581694192584, 0.0 ], [ 123.062833417658084, -1.853772019973664, 0.0 ], [ 123.06280846128675, -1.853969527880524, 0.0 ], [ 123.062797765698861, -1.854102396848114, 0.0 ], [ 123.062744631505197, -1.854272088250284, 0.0 ], [ 123.062686516110944, -1.854392065032734, 0.0 ], [ 123.062683223442562, -1.854398862608294, 0.0 ], [ 123.062634917494364, -1.85441082660179, 0.0 ], [ 123.062582909881598, -1.854413107722668, 0.0 ], [ 123.062553306174522, -1.854406647065006, 0.0 ], [ 123.062490558726623, -1.854383664320063, 0.0 ], [ 123.062296612068735, -1.854289818114862, 0.0 ], [ 123.06212548266511, -1.854188311000285, 0.0 ], [ 123.061954610297676, -1.854109500322923, 0.0 ], [ 123.06190772286152, -1.854070824456507, 0.0 ], [ 123.061872591434735, -1.854029347039849, 0.0 ], [ 123.061832661240572, -1.853983381559953, 0.0 ], [ 123.061767649264539, -1.853940412043237, 0.0 ], [ 123.061698228471869, -1.853894528530252, 0.0 ], [ 123.06164717163665, -1.853874378981992, 0.0 ], [ 123.061574382603197, -1.853867191046378, 0.0 ], [ 123.061431774766575, -1.853863360589957, 0.0 ], [ 123.061340505751232, -1.853880597643594, 0.0 ], [ 123.061277758303149, -1.853895919469312, 0.0 ], [ 123.061199799352352, -1.853909326066941, 0.0 ], [ 123.061087469750731, -1.853898341184766, 0.0 ], [ 123.061125739903304, -1.853524558360344, 0.0 ], [ 123.060436942498754, -1.853449479827224, 0.0 ], [ 123.060462075967934, -1.853296375145854, 0.0 ], [ 123.060501086297336, -1.853058737304087, 0.0 ], [ 123.060655578120418, -1.852463221402383, 0.0 ], [ 123.060545651246329, -1.852406363110316, 0.0 ], [ 123.060602100181669, -1.852211847914498, 0.0 ], [ 123.060737602823352, -1.851953553240549, 0.0 ], [ 123.060898638742856, -1.851693742873098, 0.0 ], [ 123.061047749670934, -1.851756981691175, 0.0 ], [ 123.061104292782801, -1.851677742555236, 0.0 ], [ 123.061234014837979, -1.8514664663053, 0.0 ], [ 123.061344849330794, -1.85124525732587, 0.0 ], [ 123.061354865146896, -1.851220223042781, 0.0 ], [ 123.061460377459071, -1.850862281659842, 0.0 ], [ 123.061493399160327, -1.85069163756029, 0.0 ], [ 123.061501007019388, -1.850641695793698, 0.0 ], [ 123.061580200412905, -1.850246913921677, 0.0 ], [ 123.061663605210796, -1.849903417475479, 0.0 ], [ 123.061810239049564, -1.8499467419275, 0.0 ], [ 123.061873733054981, -1.84976353819316, 0.0 ], [ 123.061935440758106, -1.849508487269877, 0.0 ], [ 123.061954109, -1.849366762304326, 0.0 ], [ 123.061965765849308, -1.849278266209338, 0.0 ], [ 123.062031497325066, -1.848938866811106, 0.0 ], [ 123.062036053149072, -1.848812458427463, 0.0 ], [ 123.062019316819928, -1.848631286404695, 0.0 ], [ 123.06200728408534, -1.848579271542036, 0.0 ], [ 123.061953881862877, -1.848348425505779, 0.0 ], [ 123.061889708336366, -1.848183237582768, 0.0 ], [ 123.061808324799443, -1.847956459132327, 0.0 ], [ 123.061692317529079, -1.847409079521537, 0.0 ], [ 123.061675639184585, -1.847348345684028, 0.0 ], [ 123.061921433691168, -1.847358904499875, 0.0 ], [ 123.062575785467601, -1.84787643726809, 0.0 ], [ 123.063108365787812, -1.848209972417557, 0.0 ], [ 123.063091355835581, -1.84824920005565, 0.0 ], [ 123.062927733685882, -1.848626538592053, 0.0 ], [ 123.06264428371459, -1.849038531659251, 0.0 ], [ 123.062465824139053, -1.849514423859962, 0.0 ], [ 123.062388491656407, -1.84966314017265, 0.0 ], [ 123.062390871117373, -1.849862816608495, 0.0 ] ] ] ] } },
{ "type": "Feature", "properties": { "WADMPR": "SULAWESI TENGAH", "WADMKK": "BANGGAI LAUT", "WADMKC": "BANGKURUNG", "WADMKD": "BUNGIN LUEAN", "POKTAN": "KT SUKA MAJU", "LUAS_HA": 41.0012921159, "PAKET": "Paket Sulawesi Tengah 10" }, "geometry": { "type": "MultiPolygon", "coordinates": [ [ [ [ 123.07238171647397, -1.813382717909333, 0.0 ], [ 123.071709990637899, -1.813965789268984, 0.0 ], [ 123.071592457216141, -1.813838997516609, 0.0 ], [ 123.071619318651187, -1.813792133298518, 0.0 ], [ 123.07163566013341, -1.813763622879046, 0.0 ], [ 123.071648652967681, -1.813722629499792, 0.0 ], [ 123.071648072567726, -1.813644878198315, 0.0 ], [ 123.071633430557995, -1.813589345696821, 0.0 ], [ 123.071617472188692, -1.813528820662885, 0.0 ], [ 123.072019527913426, -1.813138146142998, 0.0 ], [ 123.072655713191239, -1.81260868211906, 0.0 ], [ 123.07271581172995, -1.812559601423166, 0.0 ], [ 123.073034723043406, -1.812260459661509, 0.0 ], [ 123.073130674696529, -1.812138906306923, 0.0 ], [ 123.073215484518926, -1.812006154825586, 0.0 ], [ 123.073311742936198, -1.811839763288918, 0.0 ], [ 123.073496510427773, -1.811520375709988, 0.0 ], [ 123.073536827674999, -1.811378945355359, 0.0 ], [ 123.073589457518025, -1.811095658920503, 0.0 ], [ 123.073597614581033, -1.81094848400808, 0.0 ], [ 123.073579698332466, -1.810098950550716, 0.0 ], [ 123.073609408298395, -1.809880500043493, 0.0 ], [ 123.073659915240555, -1.809757808673875, 0.0 ], [ 123.073808465070243, -1.809551328094618, 0.0 ], [ 123.073936217923844, -1.809431629218532, 0.0 ], [ 123.074055302818323, -1.80937832003083, 0.0 ], [ 123.074144248950034, -1.809360152500884, 0.0 ], [ 123.074395190576595, -1.809361958776498, 0.0 ], [ 123.074600910008343, -1.809372800973098, 0.0 ], [ 123.075008259465974, -1.809416972448983, 0.0 ], [ 123.075040473211047, -1.809420465588998, 0.0 ], [ 123.07500435410924, -1.810029038477004, 0.0 ], [ 123.074998961326671, -1.810119901807979, 0.0 ], [ 123.074983447902341, -1.810336427513738, 0.0 ], [ 123.074897289001129, -1.810854125459446, 0.0 ], [ 123.074775478140708, -1.811323943951042, 0.0 ], [ 123.074674464256447, -1.811485537599739, 0.0 ], [ 123.074537798413047, -1.811605236607833, 0.0 ], [ 123.074371422603775, -1.811748875427649, 0.0 ], [ 123.073619760465292, -1.812389265301091, 0.0 ], [ 123.072757627431884, -1.813075799010571, 0.0 ], [ 123.07238171647397, -1.813382717909333, 0.0 ] ] ], [ [ [ 123.074012266748227, -1.814897842137076, 0.0 ], [ 123.074023675375273, -1.814955297765453, 0.0 ], [ 123.074025576812971, -1.814991686330957, 0.0 ], [ 123.074023675375273, -1.815026159709512, 0.0 ], [ 123.073998956683525, -1.815064463464185, 0.0 ], [ 123.073970435116195, -1.81510468240747, 0.0 ], [ 123.073945716424475, -1.815137240600264, 0.0 ], [ 123.073873461787272, -1.815190865860217, 0.0 ], [ 123.073835433030894, -1.81524066074587, 0.0 ], [ 123.073816418652697, -1.815290455632857, 0.0 ], [ 123.073812615777058, -1.815349826461411, 0.0 ], [ 123.073816418652697, -1.815399621351324, 0.0 ], [ 123.07383923590649, -1.815462822559669, 0.0 ], [ 123.073929325333353, -1.815621709029516, 0.0 ], [ 123.073982370599865, -1.81574661356778, 0.0 ], [ 123.07397048661349, -1.81579209929421, 0.0 ], [ 123.073941965046174, -1.815835191036073, 0.0 ], [ 123.07389205230335, -1.815871100821703, 0.0 ], [ 123.073823125182344, -1.815899828650723, 0.0 ], [ 123.073728053291276, -1.815909404593801, 0.0 ], [ 123.073666256562234, -1.815904616622256, 0.0 ], [ 123.073599706238284, -1.815871100821703, 0.0 ], [ 123.073471359185376, -1.815808857193698, 0.0 ], [ 123.073421446442694, -1.815782523351737, 0.0 ], [ 123.073319244159649, -1.815765765452487, 0.0 ], [ 123.073228925863276, -1.815780129366126, 0.0 ], [ 123.073162375539525, -1.815816039150691, 0.0 ], [ 123.073067303648443, -1.815863918864538, 0.0 ], [ 123.072993622932756, -1.815873494807431, 0.0 ], [ 123.07294133339272, -1.815863918864538, 0.0 ], [ 123.07289142064981, -1.815825615093337, 0.0 ], [ 123.072841507907043, -1.815782523351737, 0.0 ], [ 123.072777334380618, -1.815739431611096, 0.0 ], [ 123.07269890007052, -1.815713097770119, 0.0 ], [ 123.072599074584815, -1.815703521828012, 0.0 ], [ 123.072506379491102, -1.815720279726701, 0.0 ], [ 123.072374467242156, -1.815832797050354, 0.0 ], [ 123.072303163323923, -1.815919579033436, 0.0 ], [ 123.072252656381735, -1.81600336853814, 0.0 ], [ 123.07216055548723, -1.816114090389438, 0.0 ], [ 123.072080338579312, -1.816144015215255, 0.0 ], [ 123.071949614728979, -1.816155985145726, 0.0 ], [ 123.07180700689247, -1.816155985145726, 0.0 ], [ 123.071728810261916, -1.816172653274, 0.0 ], [ 123.071631361573765, -1.816196593135387, 0.0 ], [ 123.071551025825656, -1.816238966690704, 0.0 ], [ 123.071446446745568, -1.816294028374339, 0.0 ], [ 123.071388153090226, -1.816335018255962, 0.0 ], [ 123.07129740419964, -1.816403163578596, 0.0 ], [ 123.071215536707712, -1.816464639667282, 0.0 ], [ 123.071134255765202, -1.816558614980252, 0.0 ], [ 123.071087149802977, -1.81662962451805, 0.0 ], [ 123.070958713795605, -1.816775245505473, 0.0 ], [ 123.070902264860393, -1.816817140276683, 0.0 ], [ 123.070827989945471, -1.816844072630086, 0.0 ], [ 123.070724005064577, -1.81685604256507, 0.0 ], [ 123.07067646911905, -1.816847065113835, 0.0 ], [ 123.070575455234788, -1.816835095178908, 0.0 ], [ 123.070118292427239, -1.816660308310896, 0.0 ], [ 123.070044611711651, -1.816633974456897, 0.0 ], [ 123.069760286774965, -1.816599623387804, 0.0 ], [ 123.069925638106398, -1.816247098557182, 0.0 ], [ 123.070200158191668, -1.815737179563086, 0.0 ], [ 123.07039802656486, -1.815354740409423, 0.0 ], [ 123.070543605398086, -1.815106364475345, 0.0 ], [ 123.07062085130957, -1.814998635164936, 0.0 ], [ 123.070754546156437, -1.814887913380097, 0.0 ], [ 123.070885270006485, -1.814795146484478, 0.0 ], [ 123.071097576733152, -1.81497522393018, 0.0 ], [ 123.071226092832518, -1.814866656793287, 0.0 ], [ 123.07131238275619, -1.814904814118043, 0.0 ], [ 123.071546960465, -1.814660175647093, 0.0 ], [ 123.071840921524654, -1.814339185886086, 0.0 ], [ 123.071658875750387, -1.814120010845045, 0.0 ], [ 123.071827943394965, -1.813978292125406, 0.0 ], [ 123.072120531736672, -1.813739577728024, 0.0 ], [ 123.072779351731057, -1.813202065590009, 0.0 ], [ 123.072895792919198, -1.813104685082774, 0.0 ], [ 123.073475137255286, -1.8126199037569, 0.0 ], [ 123.074084191557375, -1.812117167700627, 0.0 ], [ 123.074594376984919, -1.811731067865507, 0.0 ], [ 123.074709563610796, -1.811614868387168, 0.0 ], [ 123.07476344537865, -1.811561532795859, 0.0 ], [ 123.074816992980871, -1.811491126220115, 0.0 ], [ 123.074850953261574, -1.811443135192071, 0.0 ], [ 123.074913999370096, -1.811354041480864, 0.0 ], [ 123.075026506565607, -1.811437542613574, 0.0 ], [ 123.075125784103435, -1.811511224898333, 0.0 ], [ 123.074976925605952, -1.811692826587149, 0.0 ], [ 123.07480465847344, -1.811860464851658, 0.0 ], [ 123.074699146650318, -1.811989290839859, 0.0 ], [ 123.074663219740472, -1.812050808145187, 0.0 ], [ 123.074563394254696, -1.812235144676851, 0.0 ], [ 123.074318584135227, -1.812618181684091, 0.0 ], [ 123.074301385417954, -1.812641109269122, 0.0 ], [ 123.074219304799243, -1.812765594601321, 0.0 ], [ 123.074202492145957, -1.812801720916892, 0.0 ], [ 123.074152700077093, -1.812930637577093, 0.0 ], [ 123.074133193947773, -1.813003612752232, 0.0 ], [ 123.074110025011166, -1.813102343902009, 0.0 ], [ 123.074088669008461, -1.81328574969421, 0.0 ], [ 123.074092788394083, -1.813349543188905, 0.0 ], [ 123.074089817397351, -1.813412385230151, 0.0 ], [ 123.074080904407751, -1.813496174621755, 0.0 ], [ 123.074051194441651, -1.8135679941033, 0.0 ], [ 123.073757949439639, -1.814009674108209, 0.0 ], [ 123.073741311858711, -1.81405276580873, 0.0 ], [ 123.073741311858711, -1.814098251493651, 0.0 ], [ 123.073743688656037, -1.814155707097266, 0.0 ], [ 123.073757949439639, -1.814215556686248, 0.0 ], [ 123.073774587020722, -1.814282588228263, 0.0 ], [ 123.073858325358898, -1.81454092796285, 0.0 ], [ 123.073972336554093, -1.814788676448134, 0.0 ], [ 123.073989449494363, -1.814848047260613, 0.0 ], [ 123.074012266748227, -1.814897842137076, 0.0 ] ] ], [ [ [ 123.071077171675313, -1.819548855072622, 0.0 ], [ 123.071151398795095, -1.819559267185484, 0.0 ], [ 123.071259711186684, -1.819556641460921, 0.0 ], [ 123.071372698687796, -1.819553902401783, 0.0 ], [ 123.071448756200667, -1.819571139133362, 0.0 ], [ 123.071541926653879, -1.819597951827221, 0.0 ], [ 123.07161608272888, -1.819619018944091, 0.0 ], [ 123.071718842457585, -1.819678812117714, 0.0 ], [ 123.071801631369624, -1.819758827998603, 0.0 ], [ 123.071877688882495, -1.81981149579584, 0.0 ], [ 123.071956123192706, -1.819876133549053, 0.0 ], [ 123.071989398354461, -1.81994077130448, 0.0 ], [ 123.071994151949013, -1.820014985026519, 0.0 ], [ 123.071989398354461, -1.820050894893072, 0.0 ], [ 123.07193710881441, -1.820082016777951, 0.0 ], [ 123.071877688882495, -1.82008680476028, 0.0 ], [ 123.071808761761574, -1.820055682875361, 0.0 ], [ 123.071711313073138, -1.820007803053308, 0.0 ], [ 123.071630501965785, -1.819976681169635, 0.0 ], [ 123.071598601173363, -1.819968858427131, 0.0 ], [ 123.071520962645494, -1.8199685876392, 0.0 ], [ 123.071481011880522, -1.819977775782367, 0.0 ], [ 123.071386975096047, -1.820014248181588, 0.0 ], [ 123.071324595925233, -1.820050129387654, 0.0 ], [ 123.071249407895351, -1.82009337839559, 0.0 ], [ 123.071031381654478, -1.820186637105657, 0.0 ], [ 123.070988599303433, -1.820215365001481, 0.0 ], [ 123.070953663245277, -1.820258955610251, 0.0 ], [ 123.070942330861953, -1.82031377967313, 0.0 ], [ 123.070947775516942, -1.820478862440264, 0.0 ], [ 123.070929004095376, -1.820591133338296, 0.0 ], [ 123.070886221744402, -1.82066534708639, 0.0 ], [ 123.070848192987995, -1.820749136805489, 0.0 ], [ 123.070817294623509, -1.820854472457773, 0.0 ], [ 123.07080065704254, -1.820976566062239, 0.0 ], [ 123.07078973944698, -1.821291987171939, 0.0 ], [ 123.070674686786816, -1.821661247993263, 0.0 ], [ 123.070593875679407, -1.821836009505708, 0.0 ], [ 123.070356605967504, -1.822173867492499, 0.0 ], [ 123.070301939630326, -1.822283991213947, 0.0 ], [ 123.070265812311661, -1.822393157344191, 0.0 ], [ 123.070212083222373, -1.822523153303716, 0.0 ], [ 123.070176405120748, -1.822790720016436, 0.0 ], [ 123.070200173093454, -1.822865532351394, 0.0 ], [ 123.070235825052535, -1.822961292144564, 0.0 ], [ 123.070298215981097, -1.823045081967645, 0.0 ], [ 123.070339809933358, -1.823092961868218, 0.0 ], [ 123.070417055844871, -1.823155804239636, 0.0 ], [ 123.070506185742758, -1.823197699155169, 0.0 ], [ 123.07063690959302, -1.823227624095381, 0.0 ], [ 123.070702271518101, -1.823230616589401, 0.0 ], [ 123.070824082378564, -1.82327550400072, 0.0 ], [ 123.070868647327458, -1.823308421436297, 0.0 ], [ 123.070901328290063, -1.823356301343728, 0.0 ], [ 123.070922125266264, -1.823440091184705, 0.0 ], [ 123.070911612843005, -1.823885366714851, 0.0 ], [ 123.070847850351285, -1.824266019820489, 0.0 ], [ 123.070780596021478, -1.82442785129096, 0.0 ], [ 123.070628070051782, -1.824580274925268, 0.0 ], [ 123.070476982907877, -1.824666524812285, 0.0 ], [ 123.070326688031827, -1.824717886730306, 0.0 ], [ 123.070180430887248, -1.8247828921615, 0.0 ], [ 123.070068282168094, -1.824860394400299, 0.0 ], [ 123.070020272640278, -1.824902967662006, 0.0 ], [ 123.069993150796023, -1.824935731232275, 0.0 ], [ 123.069960582273893, -1.824997608096056, 0.0 ], [ 123.06993232231585, -1.825074088777197, 0.0 ], [ 123.069915346500409, -1.825161841727044, 0.0 ], [ 123.069914891296889, -1.825200186010412, 0.0 ], [ 123.069925222421361, -1.825316867446213, 0.0 ], [ 123.069935638595084, -1.825368304904234, 0.0 ], [ 123.069963666706869, -1.825458593332847, 0.0 ], [ 123.070000368120247, -1.825537647061592, 0.0 ], [ 123.070035274390506, -1.825585218837281, 0.0 ], [ 123.070093227119202, -1.825647954863282, 0.0 ], [ 123.070157400645783, -1.825676682843965, 0.0 ], [ 123.070432026698469, -1.825700593505063, 0.0 ], [ 123.070510887299605, -1.825723614163879, 0.0 ], [ 123.070602345488311, -1.825793250872049, 0.0 ], [ 123.070627863954996, -1.825819293566358, 0.0 ], [ 123.070685618464623, -1.825906033999503, 0.0 ], [ 123.070708794258167, -1.825955777373932, 0.0 ], [ 123.070745464556822, -1.826067634050361, 0.0 ], [ 123.070751485117711, -1.826108931376228, 0.0 ], [ 123.070759615246786, -1.826235363325392, 0.0 ], [ 123.070748293071631, -1.826382906476353, 0.0 ], [ 123.070733918010092, -1.826436956390975, 0.0 ], [ 123.070714247477227, -1.826470299197133, 0.0 ], [ 123.070698553843812, -1.826496715599147, 0.0 ], [ 123.070638080299261, -1.826570026055372, 0.0 ], [ 123.070596880591651, -1.826595983459631, 0.0 ], [ 123.070537231741824, -1.826619692708407, 0.0 ], [ 123.070296253668147, -1.826696353774294, 0.0 ], [ 123.070165523522633, -1.826724442337352, 0.0 ], [ 123.070069309843049, -1.82675140265439, 0.0 ], [ 123.069793512982812, -1.82682101443765, 0.0 ], [ 123.069446500580256, -1.826222514561677, 0.0 ], [ 123.069308646338143, -1.825963962675266, 0.0 ], [ 123.069265863987198, -1.825815534756839, 0.0 ], [ 123.069199313663447, -1.825691046834435, 0.0 ], [ 123.06916542814254, -1.825647934303208, 0.0 ], [ 123.069118579440712, -1.825608459935691, 0.0 ], [ 123.069080549400311, -1.825591436713367, 0.0 ], [ 123.068996810535452, -1.825561834763869, 0.0 ], [ 123.068925222974414, -1.825528672569792, 0.0 ], [ 123.068835463035938, -1.825461388870592, 0.0 ], [ 123.068745820743004, -1.825377975706723, 0.0 ], [ 123.06865645316546, -1.825266894201863, 0.0 ], [ 123.068536567768035, -1.825128814624709, 0.0 ], [ 123.068441115332178, -1.825018876038471, 0.0 ], [ 123.068291377103705, -1.824887206177604, 0.0 ], [ 123.068159242500428, -1.824803571829037, 0.0 ], [ 123.068058450970554, -1.824755536326118, 0.0 ], [ 123.067880191174865, -1.824700474390939, 0.0 ], [ 123.067758974513708, -1.824643018460418, 0.0 ], [ 123.067639784674327, -1.824543385996906, 0.0 ], [ 123.067509737011136, -1.824466699078918, 0.0 ], [ 123.067465823348797, -1.824420103300153, 0.0 ], [ 123.067278861463805, -1.824135491151541, 0.0 ], [ 123.067236331984716, -1.824058741108998, 0.0 ], [ 123.067220626990917, -1.823960669523242, 0.0 ], [ 123.067219866796165, -1.823914802946192, 0.0 ], [ 123.067218763108414, -1.823848211604489, 0.0 ], [ 123.067218763108414, -1.823815214650813, 0.0 ], [ 123.067413544227236, -1.823626304268062, 0.0 ], [ 123.067296925123188, -1.823506827800814, 0.0 ], [ 123.067374210899729, -1.823404954178038, 0.0 ], [ 123.067463416486888, -1.823287368559876, 0.0 ], [ 123.067479475246913, -1.823267358302564, 0.0 ], [ 123.067528900537411, -1.823093145407898, 0.0 ], [ 123.067530801975195, -1.822901625812822, 0.0 ], [ 123.06757052910524, -1.82290392550133, 0.0 ], [ 123.067766580264973, -1.822926523359049, 0.0 ], [ 123.067771251126587, -1.822895005458491, 0.0 ], [ 123.067795470987306, -1.822731575409684, 0.0 ], [ 123.06783997470292, -1.822431274613229, 0.0 ], [ 123.067840729661697, -1.822426180326407, 0.0 ], [ 123.06797385805379, -1.821712558531896, 0.0 ], [ 123.068017971216563, -1.82153469426156, 0.0 ], [ 123.068019477188528, -1.821528622182873, 0.0 ], [ 123.06808532136165, -1.82130717769999, 0.0 ], [ 123.068219608701085, -1.820941008401147, 0.0 ], [ 123.068585972233308, -1.820061227154614, 0.0 ], [ 123.06863605796633, -1.819949610835069, 0.0 ], [ 123.068888151286558, -1.819673526121006, 0.0 ], [ 123.069041924493021, -1.819432593017326, 0.0 ], [ 123.069193036736493, -1.819143104575707, 0.0 ], [ 123.069281767251226, -1.818940509497726, 0.0 ], [ 123.069478836859858, -1.818490547883148, 0.0 ], [ 123.069549888632324, -1.818304540643508, 0.0 ], [ 123.069755672389391, -1.817621693739011, 0.0 ], [ 123.069948192968866, -1.817674361475577, 0.0 ], [ 123.070017120089858, -1.817710271296751, 0.0 ], [ 123.070043236549367, -1.817738330341151, 0.0 ], [ 123.070061696331265, -1.817780535390609, 0.0 ], [ 123.070074163224604, -1.817825182729372, 0.0 ], [ 123.070093177602729, -1.81790179035506, 0.0 ], [ 123.070112191980911, -1.817954458099539, 0.0 ], [ 123.070143090345624, -1.818014307810973, 0.0 ], [ 123.070168552079039, -1.818070563326645, 0.0 ], [ 123.07021820804222, -1.818224862405745, 0.0 ], [ 123.070219147858367, -1.818256100664943, 0.0 ], [ 123.070223901452877, -1.818325526341739, 0.0 ], [ 123.070252423020392, -1.818402133988096, 0.0 ], [ 123.07028569818209, -1.818442831801482, 0.0 ], [ 123.070337987722183, -1.818478741637536, 0.0 ], [ 123.070390277262305, -1.818488317594003, 0.0 ], [ 123.070463957977907, -1.818502681528718, 0.0 ], [ 123.070537638693409, -1.818517045463544, 0.0 ], [ 123.070585174638964, -1.818529015409283, 0.0 ], [ 123.070639840976355, -1.818552955301074, 0.0 ], [ 123.070691367168976, -1.818601083219124, 0.0 ], [ 123.070700340830911, -1.818654623605699, 0.0 ], [ 123.07069570346124, -1.818685763027017, 0.0 ], [ 123.070725405678317, -1.818993449364807, 0.0 ], [ 123.070737289664677, -1.819086814967857, 0.0 ], [ 123.070763373141986, -1.819181394719509, 0.0 ], [ 123.070818100772144, -1.819302274069733, 0.0 ], [ 123.07085137593397, -1.819345365893131, 0.0 ], [ 123.070889404690504, -1.819393245698067, 0.0 ], [ 123.070944071027895, -1.819457883436651, 0.0 ], [ 123.071010621351533, -1.819517733196658, 0.0 ], [ 123.071077171675313, -1.819548855072622, 0.0 ] ] ] ] } },
{ "type": "Feature", "properties": { "WADMPR": "SULAWESI TENGAH", "WADMKK": "BANGGAI LAUT", "WADMKC": "BANGKURUNG", "WADMKD": "TABULANG", "POKTAN": "KT MANSAKAI", "LUAS_HA": 56.004850185199999, "PAKET": "Paket Sulawesi Tengah 10" }, "geometry": { "type": "MultiPolygon", "coordinates": [ [ [ [ 123.067153226870971, -1.824334607639719, 0.0 ], [ 123.067201092639593, -1.824341564731115, 0.0 ], [ 123.067215919947543, -1.824301739121002, 0.0 ], [ 123.067305347857271, -1.824299505510647, 0.0 ], [ 123.067333852614311, -1.824340457339959, 0.0 ], [ 123.067463015699374, -1.824541702864183, 0.0 ], [ 123.06750579805032, -1.824594849596958, 0.0 ], [ 123.067548580401279, -1.82463650514533, 0.0 ], [ 123.067601345300929, -1.824672415101576, 0.0 ], [ 123.067658388435575, -1.824714070651657, 0.0 ], [ 123.067724897821435, -1.824743591971352, 0.0 ], [ 123.06775263518692, -1.824751100479754, 0.0 ], [ 123.067819283759661, -1.824749013432856, 0.0 ], [ 123.067868731731309, -1.824759499153879, 0.0 ], [ 123.067930442604734, -1.824782025857188, 0.0 ], [ 123.067979321960763, -1.824806537356688, 0.0 ], [ 123.068021049063887, -1.824835634403188, 0.0 ], [ 123.068132094862989, -1.824891219832217, 0.0 ], [ 123.068201173668143, -1.824908922080837, 0.0 ], [ 123.068262970397313, -1.824947226039832, 0.0 ], [ 123.068312883140209, -1.825014257969962, 0.0 ], [ 123.068474505354928, -1.825155503830767, 0.0 ], [ 123.068571214546708, -1.825265539993071, 0.0 ], [ 123.068634181019206, -1.825347323868863, 0.0 ], [ 123.068658687397217, -1.825383139475772, 0.0 ], [ 123.068694308029905, -1.825435198356364, 0.0 ], [ 123.068775741170683, -1.825520268448087, 0.0 ], [ 123.068855431336573, -1.825584386420329, 0.0 ], [ 123.068927182241438, -1.825646812080709, 0.0 ], [ 123.069074543672571, -1.825737784020966, 0.0 ], [ 123.069028909164913, -1.825849344353798, 0.0 ], [ 123.069224994940143, -1.825949892299071, 0.0 ], [ 123.069353341993121, -1.826265900162646, 0.0 ], [ 123.069269092844166, -1.826382361474857, 0.0 ], [ 123.069186785575198, -1.826448416500678, 0.0 ], [ 123.069115602845727, -1.826486766549371, 0.0 ], [ 123.069041327930833, -1.82654063153796, 0.0 ], [ 123.068812561192857, -1.826771054006916, 0.0 ], [ 123.068993791985136, -1.826947611502518, 0.0 ], [ 123.069320601610684, -1.826669309017076, 0.0 ], [ 123.06957363451076, -1.826976903842597, 0.0 ], [ 123.069449542862884, -1.827243968783264, 0.0 ], [ 123.069430596469871, -1.827302412083337, 0.0 ], [ 123.069414103621398, -1.82741320337838, 0.0 ], [ 123.069355611834524, -1.82813675161334, 0.0 ], [ 123.069202275305003, -1.828771481447098, 0.0 ], [ 123.069128807580555, -1.828953858760508, 0.0 ], [ 123.069060605118139, -1.829045908283318, 0.0 ], [ 123.068306224046111, -1.829855806343456, 0.0 ], [ 123.067863493369202, -1.830286483892789, 0.0 ], [ 123.067674036661614, -1.830136430874821, 0.0 ], [ 123.067407835366794, -1.829935334533305, 0.0 ], [ 123.067108358909962, -1.829710298177295, 0.0 ], [ 123.066804128858536, -1.829494837862126, 0.0 ], [ 123.066940747166029, -1.829326571353494, 0.0 ], [ 123.066710197830275, -1.829075201040578, 0.0 ], [ 123.066384576603554, -1.828696948634309, 0.0 ], [ 123.066250387528711, -1.828516274998437, 0.0 ], [ 123.065980839262167, -1.828212561151942, 0.0 ], [ 123.065830782838177, -1.82806253812712, 0.0 ], [ 123.065246691656299, -1.827488979838208, 0.0 ], [ 123.065329777165417, -1.826892011900183, 0.0 ], [ 123.065333123204965, -1.826867970667355, 0.0 ], [ 123.065338499648689, -1.826829341019784, 0.0 ], [ 123.065439258819936, -1.826293654369457, 0.0 ], [ 123.065518073568583, -1.8255168591203, 0.0 ], [ 123.065571675981985, -1.825178310838147, 0.0 ], [ 123.065596863275402, -1.825019230056337, 0.0 ], [ 123.065613714784149, -1.824912797382394, 0.0 ], [ 123.065613903630663, -1.824911604644236, 0.0 ], [ 123.065792754081627, -1.824775576991486, 0.0 ], [ 123.06598447707789, -1.824612584716324, 0.0 ], [ 123.066210395999164, -1.824833590963682, 0.0 ], [ 123.066273970227243, -1.824772564994846, 0.0 ], [ 123.066623599721794, -1.824436949809913, 0.0 ], [ 123.066467764508076, -1.824244109680671, 0.0 ], [ 123.066584227574694, -1.824145955824686, 0.0 ], [ 123.066853446493269, -1.823944517448517, 0.0 ], [ 123.066938879189649, -1.823874921745746, 0.0 ], [ 123.067062472648047, -1.823750433954121, 0.0 ], [ 123.067128514150809, -1.82382755432766, 0.0 ], [ 123.067026934589961, -1.824107816084728, 0.0 ], [ 123.067019505327792, -1.824132329433297, 0.0 ], [ 123.067009473879708, -1.824186572165897, 0.0 ], [ 123.066986576275255, -1.824310385665514, 0.0 ], [ 123.067153226870971, -1.824334607639719, 0.0 ] ] ], [ [ [ 123.066634480992178, -1.835029474723067, 0.0 ], [ 123.066528391339233, -1.835037041880227, 0.0 ], [ 123.066204061793954, -1.835057138600078, 0.0 ], [ 123.062949729949651, -1.835258789668558, 0.0 ], [ 123.061284868870388, -1.835361950949975, 0.0 ], [ 123.061147079838094, -1.835380420735948, 0.0 ], [ 123.060405890069916, -1.832985850961119, 0.0 ], [ 123.06116816530367, -1.832868311818879, 0.0 ], [ 123.061865312477821, -1.832780861590714, 0.0 ], [ 123.062140431168586, -1.832726274877527, 0.0 ], [ 123.062230950809976, -1.832694811057678, 0.0 ], [ 123.062339621782073, -1.832635586218459, 0.0 ], [ 123.062406717184757, -1.832584900293474, 0.0 ], [ 123.062471600230595, -1.832514706486335, 0.0 ], [ 123.062648557033327, -1.832173192190673, 0.0 ], [ 123.062752739718235, -1.831807035485274, 0.0 ], [ 123.06275185367484, -1.831563884528638, 0.0 ], [ 123.062716789568682, -1.831464994183002, 0.0 ], [ 123.062600968176469, -1.831272120044362, 0.0 ], [ 123.062388327468284, -1.831066781619165, 0.0 ], [ 123.061555398322255, -1.830486071831479, 0.0 ], [ 123.063895107252407, -1.828387252539529, 0.0 ], [ 123.064109453776041, -1.828320291745059, 0.0 ], [ 123.064273452788015, -1.828334655756143, 0.0 ], [ 123.064437451800103, -1.828377747790028, 0.0 ], [ 123.064562233657085, -1.828438794839763, 0.0 ], [ 123.064723143810099, -1.828554114481157, 0.0 ], [ 123.064808708512075, -1.828651071570373, 0.0 ], [ 123.064869316842575, -1.828773165690001, 0.0 ], [ 123.064912099193577, -1.828895259817672, 0.0 ], [ 123.065083505890485, -1.829172485337752, 0.0 ], [ 123.065146925787047, -1.829250361693218, 0.0 ], [ 123.064832146560519, -1.829576026441405, 0.0 ], [ 123.064572929244861, -1.829810558490733, 0.0 ], [ 123.064818928740308, -1.830045698118114, 0.0 ], [ 123.064669189534541, -1.830406665526396, 0.0 ], [ 123.064932176922341, -1.830473956911076, 0.0 ], [ 123.064836753742526, -1.830733447175989, 0.0 ], [ 123.06500217214338, -1.830766023195665, 0.0 ], [ 123.064975796383109, -1.830934543604552, 0.0 ], [ 123.065049894739587, -1.830958295615094, 0.0 ], [ 123.065389573633126, -1.831067178690791, 0.0 ], [ 123.06558223090137, -1.830558474096596, 0.0 ], [ 123.065949094867719, -1.83063289896988, 0.0 ], [ 123.066063181136997, -1.830392301499165, 0.0 ], [ 123.065820453254986, -1.830299435047517, 0.0 ], [ 123.065956815594973, -1.829988365893763, 0.0 ], [ 123.066565732612517, -1.830145376407313, 0.0 ], [ 123.066569056557213, -1.830173143407967, 0.0 ], [ 123.066608494675137, -1.830446027513527, 0.0 ], [ 123.066690494181088, -1.831085226852022, 0.0 ], [ 123.066713073755423, -1.831757343998784, 0.0 ], [ 123.06670118976885, -1.832885519814685, 0.0 ], [ 123.066689305782489, -1.833944868558087, 0.0 ], [ 123.066668508806316, -1.834291999917481, 0.0 ], [ 123.066634480992178, -1.835029474723067, 0.0 ] ] ] ] } }
]
}
