{
"type": "FeatureCollection",
"name": "SULTENG_PAKET_7",
"crs": { "type": "name", "properties": { "name": "urn:ogc:def:crs:ESRI::54034" } },
"features": [
{ "type": "Feature", "properties": { "WADMPR": "SULAWESI TENGAH", "WADMKK": "BUOL", "WADMKC": "MOMUNU", "WADMKD": "TONGON", "POKTAN": "KT HARAPAN TOGO", "LUAS_HA": 36.3004349068, "PAKET": "Paket Sulawesi Tengah 7" }, "geometry": { "type": "MultiPolygon", "coordinates": [ [ [ [ 13514707.401067353785038, 120279.540712965652347, 0.0 ], [ 13514856.607014887034893, 120362.403851089067757, 0.0 ], [ 13514891.23805857822299, 120350.101369847543538, 0.0 ], [ 13514744.773746963590384, 119652.042879619635642, 0.0 ], [ 13514610.62981291860342, 119718.756884841248393, 0.0 ], [ 13514577.614443119615316, 119735.176471931859851, 0.0 ], [ 13514490.551105424761772, 119778.475820099003613, 0.0 ], [ 13514358.679775197058916, 119844.059593264013529, 0.0 ], [ 13514264.475692089647055, 119890.910252172499895, 0.0 ], [ 13514200.912627689540386, 119922.522165174596012, 0.0 ], [ 13514079.721625126898289, 119982.794262018054724, 0.0 ], [ 13514070.053491339087486, 119987.602528769522905, 0.0 ], [ 13514064.432163413614035, 119990.39819179661572, 0.0 ], [ 13514057.674070689827204, 119993.759203636087477, 0.0 ], [ 13514043.830333855003119, 120000.644128898158669, 0.0 ], [ 13514021.005574055016041, 120011.995598853565753, 0.0 ], [ 13514015.488133478909731, 120014.739595333114266, 0.0 ], [ 13514006.729774072766304, 120019.095401179045439, 0.0 ], [ 13514004.563156556338072, 120020.172927023842931, 0.0 ], [ 13514102.08679760992527, 120096.502419725991786, 0.0 ], [ 13514103.890445977449417, 120168.874266494065523, 0.0 ], [ 13514153.092735566198826, 120260.346680075861514, 0.0 ], [ 13514294.434076301753521, 120289.062872301787138, 0.0 ], [ 13514334.65093657374382, 120239.293087446130812, 0.0 ], [ 13514377.661439280956984, 120232.953234733082354, 0.0 ], [ 13514408.612519528716803, 120353.635146571323276, 0.0 ], [ 13514547.982461642473936, 120360.536554298363626, 0.0 ], [ 13514540.656568802893162, 120309.787544079124928, 0.0 ], [ 13514707.401067353785038, 120279.540712965652347, 0.0 ] ] ] ] } },
{ "type": "Feature", "properties": { "WADMPR": "SULAWESI TENGAH", "WADMKK": "BUOL", "WADMKC": "MOMUNU", "WADMKD": "POTUGU", "POKTAN": "KT PALUSAN", "LUAS_HA": 115.00368127599999, "PAKET": "Paket Sulawesi Tengah 7" }, "geometry": { "type": "MultiPolygon", "coordinates": [ [ [ [ 13514358.679775215685368, 119844.059593264013529, 0.0 ], [ 13514490.551105424761772, 119778.475820099003613, 0.0 ], [ 13514577.614443119615316, 119735.176471931859851, 0.0 ], [ 13514610.62981291860342, 119718.756884841248393, 0.0 ], [ 13514654.723974160850048, 119696.714558367617428, 0.0 ], [ 13514691.065563347190619, 119678.54768056422472, 0.0 ], [ 13514698.323285963386297, 119674.91960135102272, 0.0 ], [ 13514700.972089845687151, 119673.595484816469252, 0.0 ], [ 13514703.25006115436554, 119672.456744646653533, 0.0 ], [ 13514714.280554760247469, 119666.942686329595745, 0.0 ], [ 13514743.817477714270353, 119652.177407056093216, 0.0 ], [ 13514689.693941287696362, 119393.363883282989264, 0.0 ], [ 13514642.783351253718138, 119286.213690366595984, 0.0 ], [ 13514602.974562790244818, 119195.187349184416234, 0.0 ], [ 13514602.047148630023003, 119193.104994721710682, 0.0 ], [ 13514601.355908539146185, 119191.55292977578938, 0.0 ], [ 13514598.614379893988371, 119185.397282248362899, 0.0 ], [ 13514593.131217561662197, 119173.085751054808497, 0.0 ], [ 13514592.065172575414181, 119170.692123839631677, 0.0 ], [ 13514589.651690095663071, 119165.273049233481288, 0.0 ], [ 13514588.280925758183002, 119162.195225232280791, 0.0 ], [ 13514582.251368548721075, 119148.656854035332799, 0.0 ], [ 13514578.123210649937391, 119139.387759520672262, 0.0 ], [ 13514574.46835545450449, 119131.181387561373413, 0.0 ], [ 13514565.329410310834646, 119110.661399176344275, 0.0 ], [ 13514557.787418246269226, 119093.727103594690561, 0.0 ], [ 13514556.577607374638319, 119091.010673273354769, 0.0 ], [ 13514542.091836515814066, 119058.485268606804311, 0.0 ], [ 13514539.460627228021622, 119052.577322621829808, 0.0 ], [ 13514525.554490938782692, 119021.353388149291277, 0.0 ], [ 13514524.698549918830395, 119019.431513693183661, 0.0 ], [ 13514512.759005352854729, 118992.623234082013369, 0.0 ], [ 13514510.569133054465055, 118987.706236468628049, 0.0 ], [ 13514499.797944787889719, 118963.521306226961315, 0.0 ], [ 13514496.580307379364967, 118956.296630796045065, 0.0 ], [ 13514482.454428441822529, 118924.579291515052319, 0.0 ], [ 13514481.115274053066969, 118921.572440282441676, 0.0 ], [ 13514468.508530732244253, 118893.266067774966359, 0.0 ], [ 13514466.001718677580357, 118887.637432570569217, 0.0 ], [ 13514455.685365773737431, 118864.473753559403121, 0.0 ], [ 13514452.01289302110672, 118856.227817821316421, 0.0 ], [ 13514443.244830194860697, 118836.540568633936346, 0.0 ], [ 13514440.062639959156513, 118829.3954813554883, 0.0 ], [ 13514432.278600260615349, 118811.917693626135588, 0.0 ], [ 13514427.022805012762547, 118800.116664793342352, 0.0 ], [ 13514419.021940119564533, 118782.152030076831579, 0.0 ], [ 13514413.736935447901487, 118770.285415172576904, 0.0 ], [ 13514404.017747070640326, 118748.462563901208341, 0.0 ], [ 13514399.045153733342886, 118737.297416612505913, 0.0 ], [ 13514386.782793879508972, 118709.764285998418927, 0.0 ], [ 13514383.861302755773067, 118703.204553528688848, 0.0 ], [ 13514371.726591028273106, 118675.958033208735287, 0.0 ], [ 13514367.271539695560932, 118665.954940050840378, 0.0 ], [ 13514355.110666058957577, 118638.649674596264958, 0.0 ], [ 13514352.123769946396351, 118631.943084402941167, 0.0 ], [ 13514351.149693485349417, 118632.509466876275837, 0.0 ], [ 13514352.350499164313078, 118622.337938299402595, 0.0 ], [ 13514035.413073785603046, 118799.778328356333077, 0.0 ], [ 13514043.759171977639198, 118809.714473946020007, 0.0 ], [ 13514079.487580917775631, 118854.516152946278453, 0.0 ], [ 13514031.099558603018522, 118881.735539158806205, 0.0 ], [ 13514060.104131408035755, 118925.465510278008878, 0.0 ], [ 13513976.466150891035795, 118977.692479227669537, 0.0 ], [ 13514032.091032296419144, 119058.189447931945324, 0.0 ], [ 13514040.69218161329627, 119052.850634367205203, 0.0 ], [ 13514065.742061473429203, 119091.683827206492424, 0.0 ], [ 13514015.006247274577618, 119120.929719395004213, 0.0 ], [ 13514041.192839242517948, 119167.166746617294848, 0.0 ], [ 13513978.917211458086967, 119206.813932217657566, 0.0 ], [ 13514002.201241441071033, 119263.845498424954712, 0.0 ], [ 13513963.797686886042356, 119291.231790816411376, 0.0 ], [ 13513842.475418642163277, 119357.862375436350703, 0.0 ], [ 13513784.957630708813667, 119260.733943739905953, 0.0 ], [ 13513706.207460217177868, 119302.427925634197891, 0.0 ], [ 13513693.223837837576866, 119288.040980717167258, 0.0 ], [ 13513655.928829647600651, 119308.44302353169769, 0.0 ], [ 13513678.83938267454505, 119349.286641815677285, 0.0 ], [ 13513709.842306148260832, 119330.916461134329438, 0.0 ], [ 13513733.516288287937641, 119375.359642547555268, 0.0 ], [ 13513689.964986547827721, 119396.901427425444126, 0.0 ], [ 13513673.869969308376312, 119384.625492379069328, 0.0 ], [ 13513645.562536016106606, 119401.087045871652663, 0.0 ], [ 13513593.477370761334896, 119343.733676236122847, 0.0 ], [ 13513483.44662568718195, 119416.138688706792891, 0.0 ], [ 13513464.469769492745399, 119394.087024608626962, 0.0 ], [ 13513456.311609290540218, 119464.707998229190707, 0.0 ], [ 13513471.146935191005468, 119466.927171565592289, 0.0 ], [ 13513465.173086039721966, 119500.493369151838124, 0.0 ], [ 13513502.478919051587582, 119497.762325749732554, 0.0 ], [ 13513513.569457273930311, 119574.633842784911394, 0.0 ], [ 13513446.443804316222668, 119581.000490201637149, 0.0 ], [ 13513453.373999230563641, 119634.59373137447983, 0.0 ], [ 13513425.801051907241344, 119636.021992555819452, 0.0 ], [ 13513412.455292128026485, 119697.556285192258656, 0.0 ], [ 13513538.151583850383759, 119697.291505807079375, 0.0 ], [ 13513546.96753091365099, 119628.027090782299638, 0.0 ], [ 13513564.834865789860487, 119622.070493057370186, 0.0 ], [ 13513536.548026561737061, 119569.616741457022727, 0.0 ], [ 13513626.421372171491385, 119515.809234354645014, 0.0 ], [ 13513599.304055541753769, 119476.831806529313326, 0.0 ], [ 13513684.509886223822832, 119418.800746322609484, 0.0 ], [ 13513708.176025114953518, 119450.6200196063146, 0.0 ], [ 13513672.571089588105679, 119477.157014831900597, 0.0 ], [ 13513674.798151217401028, 119485.282751736231148, 0.0 ], [ 13513699.676053643226624, 119519.531846524216235, 0.0 ], [ 13513718.863081105053425, 119501.934123610146344, 0.0 ], [ 13513780.556676845997572, 119486.256742479279637, 0.0 ], [ 13513784.461653288453817, 119512.007243574596941, 0.0 ], [ 13513776.010388858616352, 119515.501338339410722, 0.0 ], [ 13513769.47638001665473, 119505.861705138348043, 0.0 ], [ 13513711.500187329947948, 119534.615213477052748, 0.0 ], [ 13513717.748105086386204, 119573.312598684802651, 0.0 ], [ 13513743.930381804704666, 119560.594637398608029, 0.0 ], [ 13513753.089231412857771, 119557.005019125528634, 0.0 ], [ 13513794.534508720040321, 119540.761414756067097, 0.0 ], [ 13513839.182752709835768, 119526.510417600162327, 0.0 ], [ 13513852.424872741103172, 119521.08830588683486, 0.0 ], [ 13513845.802863050252199, 119504.515424283221364, 0.0 ], [ 13513866.993294052779675, 119491.888466353528202, 0.0 ], [ 13513858.785291194915771, 119482.291596280410886, 0.0 ], [ 13513852.720872592180967, 119470.821144725196064, 0.0 ], [ 13513891.484434362500906, 119444.345067111775279, 0.0 ], [ 13513900.616528790444136, 119461.208375166170299, 0.0 ], [ 13513921.170114301145077, 119456.241132522001863, 0.0 ], [ 13513954.753534860908985, 119513.450540760532022, 0.0 ], [ 13513909.20482749864459, 119533.977531534619629, 0.0 ], [ 13513923.220174040645361, 119577.913128363899887, 0.0 ], [ 13513884.451380234211683, 119620.413603893481195, 0.0 ], [ 13513886.798774357885122, 119646.095661394298077, 0.0 ], [ 13513874.33099140971899, 119656.31459929049015, 0.0 ], [ 13513886.935474675148726, 119694.624475338496268, 0.0 ], [ 13513861.323976811021566, 119712.301456402987242, 0.0 ], [ 13513846.396589707583189, 119682.651913987472653, 0.0 ], [ 13513859.506129506975412, 119670.922794551588595, 0.0 ], [ 13513843.79683431610465, 119626.253897692076862, 0.0 ], [ 13513825.144140403717756, 119635.575239441357553, 0.0 ], [ 13513778.960578002035618, 119649.243164603598416, 0.0 ], [ 13513759.922050755470991, 119616.548155648633838, 0.0 ], [ 13513711.528796445578337, 119640.353540849871933, 0.0 ], [ 13513772.586089991033077, 119775.870832598768175, 0.0 ], [ 13513718.415688090026379, 119809.023192640393972, 0.0 ], [ 13513707.890096232295036, 119789.935313150286674, 0.0 ], [ 13513675.475196376442909, 119797.969237051904202, 0.0 ], [ 13513690.242951344698668, 119845.412379306741059, 0.0 ], [ 13513709.129750099033117, 119870.183999509550631, 0.0 ], [ 13513710.844098269939423, 119876.784681111574173, 0.0 ], [ 13513800.565247692167759, 119842.496845930814743, 0.0 ], [ 13513863.137705251574516, 119839.449152063578367, 0.0 ], [ 13513878.78265779837966, 119828.76854177005589, 0.0 ], [ 13513945.298502624034882, 119912.386382699012756, 0.0 ], [ 13514006.729774072766304, 120019.095401179045439, 0.0 ], [ 13514015.488133497536182, 120014.739595333114266, 0.0 ], [ 13514021.005574062466621, 120011.995598853565753, 0.0 ], [ 13514043.830333866178989, 120000.644128894433379, 0.0 ], [ 13514057.674070697277784, 119993.759203636087477, 0.0 ], [ 13514064.432163413614035, 119990.39819179661572, 0.0 ], [ 13514070.053491339087486, 119987.602528769522905, 0.0 ], [ 13514079.721625126898289, 119982.794262018054724, 0.0 ], [ 13514200.912627689540386, 119922.522165178321302, 0.0 ], [ 13514264.475692089647055, 119890.910252167843282, 0.0 ], [ 13514358.679775215685368, 119844.059593264013529, 0.0 ] ], [ [ 13514024.813383039087057, 119732.313102512620389, 0.0 ], [ 13514124.938169531524181, 119711.794309172779322, 0.0 ], [ 13514126.52745184674859, 119716.924007643945515, 0.0 ], [ 13514132.884581129997969, 119778.874975133687258, 0.0 ], [ 13514122.951566591858864, 119780.05875148344785, 0.0 ], [ 13514031.567832928150892, 119788.73977786488831, 0.0 ], [ 13514024.813383039087057, 119789.923554169945419, 0.0 ], [ 13514016.072330232709646, 119732.707694676704705, 0.0 ], [ 13514024.813383039087057, 119732.313102512620389, 0.0 ] ] ], [ [ [ 13513930.941872950643301, 120608.335752849467099, 0.0 ], [ 13513970.887586873024702, 120608.414109979756176, 0.0 ], [ 13514011.857855882495642, 120571.483985610306263, 0.0 ], [ 13514019.916323900222778, 120563.854339989833534, 0.0 ], [ 13514034.73375441879034, 120555.916430786252022, 0.0 ], [ 13514040.290015544742346, 120555.122679186984897, 0.0 ], [ 13514043.089793875813484, 120555.122679186984897, 0.0 ], [ 13514051.532720260322094, 120559.125790842808783, 0.0 ], [ 13514055.37129570171237, 120562.266443480737507, 0.0 ], [ 13514066.483817927539349, 120570.997710946016014, 0.0 ], [ 13514073.837307419627905, 120577.918642213568091, 0.0 ], [ 13514091.86579617485404, 120590.527282923460007, 0.0 ], [ 13514108.907928358763456, 120593.422500078566372, 0.0 ], [ 13514125.215650018304586, 120593.079751552082598, 0.0 ], [ 13514169.850822847336531, 120573.744957816787064, 0.0 ], [ 13514205.344794765114784, 120568.483741769567132, 0.0 ], [ 13514288.517236456274986, 120537.968687154352665, 0.0 ], [ 13514331.072478048503399, 120552.621394116431475, 0.0 ], [ 13514385.286463633179665, 120592.386685889214277, 0.0 ], [ 13514507.14134119078517, 120366.395051376894116, 0.0 ], [ 13514509.39463821798563, 120361.101836499758065, 0.0 ], [ 13514406.918769672513008, 120356.070845271460712, 0.0 ], [ 13514375.371515538543463, 120236.141329254955053, 0.0 ], [ 13514337.149275612086058, 120241.981284728273749, 0.0 ], [ 13514296.543112218379974, 120292.094412041828036, 0.0 ], [ 13514295.112758107483387, 120293.120349988341331, 0.0 ], [ 13514146.958535343408585, 120262.769683982245624, 0.0 ], [ 13514098.617864593863487, 120167.738870467059314, 0.0 ], [ 13514094.644658781588078, 120098.356495210900903, 0.0 ], [ 13514046.76312305778265, 120060.556996304541826, 0.0 ], [ 13514032.024727836251259, 120146.797013157978654, 0.0 ], [ 13514035.600613065063953, 120164.948230502195656, 0.0 ], [ 13514017.63558366522193, 120215.080129399895668, 0.0 ], [ 13514008.614378474652767, 120211.506915666162968, 0.0 ], [ 13513610.287251748144627, 120221.213869302533567, 0.0 ], [ 13513587.807736180722713, 120230.556921568699181, 0.0 ], [ 13513589.794339075684547, 120267.056642197072506, 0.0 ], [ 13513611.978071551769972, 120294.349223554134369, 0.0 ], [ 13513594.098645385354757, 120358.634752991609275, 0.0 ], [ 13513580.85462599247694, 120371.130148611031473, 0.0 ], [ 13513572.908214367926121, 120452.021382943727076, 0.0 ], [ 13513554.366587251424789, 120503.975905489176512, 0.0 ], [ 13513525.891945596784353, 120563.822244473733008, 0.0 ], [ 13513915.266906511038542, 120611.14670099504292, 0.0 ], [ 13513926.03946278616786, 120570.248441318981349, 0.0 ], [ 13513953.851903449743986, 120510.007512195035815, 0.0 ], [ 13513959.149511199444532, 120491.593252276070416, 0.0 ], [ 13513961.798315092921257, 120481.070817596279085, 0.0 ], [ 13513969.21496595069766, 120399.784998721443117, 0.0 ], [ 13513972.658410981297493, 120360.062795393168926, 0.0 ], [ 13513982.19410490244627, 120324.286502395756543, 0.0 ], [ 13513986.167310751974583, 120286.405717507004738, 0.0 ], [ 13513983.783387273550034, 120266.676140373572707, 0.0 ], [ 13513993.319081224501133, 120251.155538899824023, 0.0 ], [ 13514004.708937875926495, 120212.432950471527874, 0.0 ], [ 13514008.576191525906324, 120212.432950471527874, 0.0 ], [ 13514017.317244302481413, 120215.852744453586638, 0.0 ], [ 13513998.969862814992666, 120269.289213310927153, 0.0 ], [ 13513995.791298147290945, 120279.022471430711448, 0.0 ], [ 13513998.969862814992666, 120296.910620768554509, 0.0 ], [ 13513995.261537410318851, 120324.005904011428356, 0.0 ], [ 13513989.434168867766857, 120347.944453439675272, 0.0 ], [ 13513985.990723803639412, 120363.201989559456706, 0.0 ], [ 13513982.017517991364002, 120420.549274439923465, 0.0 ], [ 13513980.935852278023958, 120475.764986370690167, 0.0 ], [ 13513976.832370758056641, 120490.59902264829725, 0.0 ], [ 13513969.513830691576004, 120507.332955290563405, 0.0 ], [ 13513952.181516975164413, 120546.963505550287664, 0.0 ], [ 13513940.96105795353651, 120574.176815954968333, 0.0 ], [ 13513937.517612889409065, 120585.488430161960423, 0.0 ], [ 13513930.941872950643301, 120608.335752849467099, 0.0 ] ] ] ] } },
{ "type": "Feature", "properties": { "WADMPR": "SULAWESI TENGAH", "WADMKK": "BUOL", "WADMKC": "MOMUNU", "WADMKD": "PANIMBUL", "POKTAN": "KT CAHAYA TANI", "LUAS_HA": 450.00027267299998, "PAKET": "Paket Sulawesi Tengah 7" }, "geometry": { "type": "MultiPolygon", "coordinates": [ [ [ [ 13516774.460955679416656, 118801.281941000372171, 0.0 ], [ 13516721.302508696913719, 118736.970639886334538, 0.0 ], [ 13516680.3106649518013, 118668.388849123381078, 0.0 ], [ 13516620.631848216056824, 118545.759751184843481, 0.0 ], [ 13516431.904572084546089, 118141.301157576031983, 0.0 ], [ 13516186.890213649719954, 117937.427542369812727, 0.0 ], [ 13515862.411738898605108, 117848.643834037706256, 0.0 ], [ 13515451.847138222306967, 117743.418669081293046, 0.0 ], [ 13515395.560055878013372, 117572.427708578296006, 0.0 ], [ 13515226.698808819055557, 117542.833110794425011, 0.0 ], [ 13515298.899900566786528, 116866.519135862588882, 0.0 ], [ 13515211.67938257008791, 116853.878264023922384, 0.0 ], [ 13515098.039993576705456, 116873.252423220314085, 0.0 ], [ 13514805.835013158619404, 116940.696529299020767, 0.0 ], [ 13514623.406746711581945, 116998.488095470704138, 0.0 ], [ 13514506.136895190924406, 117096.425926481373608, 0.0 ], [ 13514522.340671580284834, 117229.378428435884416, 0.0 ], [ 13514579.534622218459845, 117527.948971607722342, 0.0 ], [ 13514511.442604757845402, 117626.077805905602872, 0.0 ], [ 13515062.93033866211772, 118191.232946493662894, 0.0 ], [ 13515105.311200674623251, 118272.256222494877875, 0.0 ], [ 13515192.191967781633139, 118458.504460738971829, 0.0 ], [ 13515239.870437532663345, 118592.140140922740102, 0.0 ], [ 13515291.197566505521536, 118791.250192260369658, 0.0 ], [ 13515375.191155187785625, 119109.235505295917392, 0.0 ], [ 13515531.663359090685844, 119048.586018537171185, 0.0 ], [ 13515504.729202970862389, 118950.478159320540726, 0.0 ], [ 13515521.847546201199293, 118934.866372012533247, 0.0 ], [ 13515590.966670695692301, 118871.830250317230821, 0.0 ], [ 13515608.514910846948624, 118855.826373872347176, 0.0 ], [ 13515736.618852641433477, 118815.153532604686916, 0.0 ], [ 13515795.806813254952431, 118807.333207336254418, 0.0 ], [ 13515848.302065681666136, 118800.397158469073474, 0.0 ], [ 13515893.633601017296314, 118881.722573316656053, 0.0 ], [ 13515904.352293118834496, 118900.952058927156031, 0.0 ], [ 13515940.31038748845458, 118962.873462363146245, 0.0 ], [ 13516063.546687584370375, 119123.249685298651457, 0.0 ], [ 13516076.593420799821615, 119174.730804590508342, 0.0 ], [ 13516064.339371256530285, 119289.038707349449396, 0.0 ], [ 13516070.936609547585249, 119380.710070535540581, 0.0 ], [ 13516052.870346747338772, 119501.063170283101499, 0.0 ], [ 13516097.512356862425804, 119807.809298382140696, 0.0 ], [ 13516119.791617136448622, 119942.537824955768883, 0.0 ], [ 13516144.49463663995266, 120096.830543462187052, 0.0 ], [ 13516213.692167948931456, 120105.769352396950126, 0.0 ], [ 13516524.361712299287319, 119891.993628232739866, 0.0 ], [ 13516822.362692095339298, 119883.464947675354779, 0.0 ], [ 13516905.682677201926708, 119877.464149661362171, 0.0 ], [ 13516911.703743144869804, 119766.139164284802973, 0.0 ], [ 13516910.13780202716589, 119724.076153161004186, 0.0 ], [ 13516902.217291682958603, 119688.358848428353667, 0.0 ], [ 13516882.516908243298531, 119642.538731666281819, 0.0 ], [ 13516869.829235307872295, 119613.961588498204947, 0.0 ], [ 13516861.369686760008335, 119597.026496743783355, 0.0 ], [ 13516833.482310585677624, 119562.776884275488555, 0.0 ], [ 13516823.170091323554516, 119536.470597392879426, 0.0 ], [ 13516819.880005590617657, 119502.078404507599771, 0.0 ], [ 13516818.582235366106033, 119453.137419507838786, 0.0 ], [ 13516820.598232969641685, 119392.955098819918931, 0.0 ], [ 13516816.278286956250668, 119149.97068040817976, 0.0 ], [ 13516816.28896939009428, 119129.336372040212154, 0.0 ], [ 13516817.885202869772911, 119113.067833883687854, 0.0 ], [ 13516824.976760923862457, 119058.321347944438457, 0.0 ], [ 13516826.753943681716919, 119004.080885725095868, 0.0 ], [ 13516828.106864497065544, 118946.543563364073634, 0.0 ], [ 13516828.123952478170395, 118913.475739376619458, 0.0 ], [ 13516774.460955679416656, 118801.281941000372171, 0.0 ] ] ], [ [ [ 13514879.172021418809891, 118097.563946330919862, 0.0 ], [ 13514713.236575420945883, 117991.269788477569818, 0.0 ], [ 13514418.917181648313999, 118749.409320001490414, 0.0 ], [ 13514591.909048721194267, 119134.807971648871899, 0.0 ], [ 13514704.218333050608635, 119386.821180452592671, 0.0 ], [ 13514781.033645406365395, 119739.323689957149327, 0.0 ], [ 13514840.631732612848282, 120026.060539791360497, 0.0 ], [ 13514925.486592900007963, 120395.302373613230884, 0.0 ], [ 13515162.296809371560812, 120455.900626653805375, 0.0 ], [ 13515112.978153515607119, 120085.26163452770561, 0.0 ], [ 13515131.254900254309177, 119716.712730666622519, 0.0 ], [ 13515139.995953053236008, 119512.313917938619852, 0.0 ], [ 13515096.290689088404179, 119316.596022383309901, 0.0 ], [ 13515093.726047098636627, 119306.370827279984951, 0.0 ], [ 13515360.602855361998081, 119261.120516365393996, 0.0 ], [ 13515333.373214341700077, 119156.408341536298394, 0.0 ], [ 13515313.244782187044621, 119038.596061747521162, 0.0 ], [ 13515264.23943317681551, 118860.463595557026565, 0.0 ], [ 13515227.140419956296682, 118700.990759497508407, 0.0 ], [ 13515162.677128359675407, 118518.692816283553839, 0.0 ], [ 13515148.449848890304565, 118489.12699509691447, 0.0 ], [ 13515095.141118168830872, 118352.560003693215549, 0.0 ], [ 13515020.444848902523518, 118207.349477241747081, 0.0 ], [ 13514879.172021418809891, 118097.563946330919862, 0.0 ] ] ], [ [ [ 13516621.55717383697629, 120758.371455427259207, 0.0 ], [ 13516644.454101748764515, 120674.262885988689959, 0.0 ], [ 13516585.76253504306078, 120645.352183308452368, 0.0 ], [ 13516566.270703073590994, 120681.399696951732039, 0.0 ], [ 13516433.926743146032095, 120636.699822426773608, 0.0 ], [ 13516404.57948262244463, 120696.128786318935454, 0.0 ], [ 13516373.851492013782263, 120675.43721180036664, 0.0 ], [ 13516369.562203586101532, 120642.360945092514157, 0.0 ], [ 13516379.175531771034002, 120616.446498526260257, 0.0 ], [ 13516365.961249642074108, 120582.279650254175067, 0.0 ], [ 13516226.948913775384426, 120365.918260392732918, 0.0 ], [ 13516234.265781834721565, 120340.959317191503942, 0.0 ], [ 13516245.532539647072554, 120302.52667202334851, 0.0 ], [ 13516274.092031113803387, 120296.161065724678338, 0.0 ], [ 13516297.52940234541893, 120242.659971280023456, 0.0 ], [ 13516367.356273289769888, 120246.468435973860323, 0.0 ], [ 13516521.22974194213748, 120238.460646446794271, 0.0 ], [ 13516548.622086971998215, 120236.307719417847693, 0.0 ], [ 13516580.494691591709852, 120289.581258935853839, 0.0 ], [ 13516605.741827290505171, 120293.34455206617713, 0.0 ], [ 13516648.101454347372055, 120207.107042613439262, 0.0 ], [ 13516705.311185255646706, 120134.21529540233314, 0.0 ], [ 13516650.223727665841579, 120059.521568399854004, 0.0 ], [ 13516529.398301523178816, 120067.844061714597046, 0.0 ], [ 13516536.289681080728769, 119977.4630864597857, 0.0 ], [ 13516453.024585075676441, 119980.543389523401856, 0.0 ], [ 13516455.811553414911032, 120094.049430451355875, 0.0 ], [ 13516389.364763330668211, 120089.854739227332175, 0.0 ], [ 13516399.464648902416229, 120176.122974690981209, 0.0 ], [ 13516239.209015376865864, 120204.258550303056836, 0.0 ], [ 13516214.984228309243917, 120190.855216757394373, 0.0 ], [ 13516147.383447252213955, 120207.547577419318259, 0.0 ], [ 13516078.612444411963224, 120247.226979125291109, 0.0 ], [ 13516034.025127094238997, 120252.767907525412738, 0.0 ], [ 13515998.8917101547122, 120308.336805789731443, 0.0 ], [ 13516096.531135715544224, 120382.885042659938335, 0.0 ], [ 13516138.647117357701063, 120505.997543602250516, 0.0 ], [ 13516099.952956818044186, 120716.57221981883049, 0.0 ], [ 13516139.4417584836483, 120830.351420349441469, 0.0 ], [ 13516198.801961418241262, 120855.093094207346439, 0.0 ], [ 13516225.07389111071825, 120774.530060268007219, 0.0 ], [ 13516214.478675611317158, 120749.802358697168529, 0.0 ], [ 13516202.294177792966366, 120721.391805762425065, 0.0 ], [ 13516203.883460108190775, 120667.201300070621073, 0.0 ], [ 13516225.603651892393827, 120627.742188598029315, 0.0 ], [ 13516288.115423362702131, 120619.850365743041039, 0.0 ], [ 13516316.326833583414555, 120636.004662486724555, 0.0 ], [ 13516368.63906118273735, 120714.552227852866054, 0.0 ], [ 13516376.055712014436722, 120771.899453803896904, 0.0 ], [ 13516373.531445365399122, 120831.346014090813696, 0.0 ], [ 13516393.233008578419685, 120869.335323231294751, 0.0 ], [ 13516394.298542320728302, 120893.127430052496493, 0.0 ], [ 13516563.548368982970715, 120939.094079492613673, 0.0 ], [ 13516575.671301178634167, 120938.873973491601646, 0.0 ], [ 13516590.566168501973152, 120891.743182886391878, 0.0 ], [ 13516600.896503612399101, 120848.338188543915749, 0.0 ], [ 13516595.334015484899282, 120795.463006165809929, 0.0 ], [ 13516621.55717383697629, 120758.371455427259207, 0.0 ] ] ], [ [ [ 13516731.460150621831417, 121128.556885126978159, 0.0 ], [ 13516772.017477549612522, 121141.84293407946825, 0.0 ], [ 13516776.246084332466125, 121075.350727662444115, 0.0 ], [ 13516810.486047178506851, 121081.790951543487608, 0.0 ], [ 13516824.609945669770241, 121154.981124499812722, 0.0 ], [ 13516846.829345442354679, 121163.075781418010592, 0.0 ], [ 13516876.567603513598442, 121089.673619042150676, 0.0 ], [ 13516864.442984014749527, 121036.673457640223205, 0.0 ], [ 13516813.488094620406628, 120992.944549169391394, 0.0 ], [ 13516827.271852314472198, 120955.223290898837149, 0.0 ], [ 13516806.309318855404854, 120834.321656118147075, 0.0 ], [ 13516743.948044031858444, 120783.913737937808037, 0.0 ], [ 13516778.208969600498676, 120693.387797567993402, 0.0 ], [ 13516685.072439350187778, 120666.374101678840816, 0.0 ], [ 13516656.521385, 120769.420002873986959, 0.0 ], [ 13516640.628561776131392, 120791.517096693627536, 0.0 ], [ 13516627.914303176105022, 120818.349280145019293, 0.0 ], [ 13516631.88750895857811, 120853.862460874021053, 0.0 ], [ 13516620.762532692402601, 120893.321546216495335, 0.0 ], [ 13516614.405403401702642, 120924.888811227865517, 0.0 ], [ 13516593.801206365227699, 120973.131292866542935, 0.0 ], [ 13516580.962160520255566, 121003.192488871514797, 0.0 ], [ 13516584.714899174869061, 121021.378837659955025, 0.0 ], [ 13516599.740016378462315, 121050.401206728070974, 0.0 ], [ 13516608.98252846300602, 121060.062385503202677, 0.0 ], [ 13516650.28312735632062, 121088.358741687610745, 0.0 ], [ 13516709.936227291822433, 121119.351457179524004, 0.0 ], [ 13516731.460150621831417, 121128.556885126978159, 0.0 ] ] ] ] } },
{ "type": "Feature", "properties": { "WADMPR": "SULAWESI TENGAH", "WADMKK": "BUOL", "WADMKC": "BUKAL", "WADMKD": "BIAU", "POKTAN": "KT IBUNG (BIAU)", "LUAS_HA": 33.200600441100001, "PAKET": "Paket Sulawesi Tengah 7" }, "geometry": { "type": "MultiPolygon", "coordinates": [ [ [ [ 13518175.006899133324623, 120438.742858780547976, 0.0 ], [ 13518126.313635565340519, 120374.278696245513856, 0.0 ], [ 13518103.145275294780731, 120338.951705763116479, 0.0 ], [ 13518090.304963611066341, 120311.654746420681477, 0.0 ], [ 13517990.15253571420908, 120037.01976353675127, 0.0 ], [ 13517922.701384589076042, 119895.367877497337759, 0.0 ], [ 13517872.43785148859024, 119753.805924939922988, 0.0 ], [ 13517847.701773822307587, 119663.937736867927015, 0.0 ], [ 13517826.847475677728653, 119629.465083281509578, 0.0 ], [ 13517826.408181697130203, 119628.738919811323285, 0.0 ], [ 13517824.677536427974701, 119625.878121911548078, 0.0 ], [ 13517809.326112233102322, 119596.12776408623904, 0.0 ], [ 13517808.382287934422493, 119594.298675649799407, 0.0 ], [ 13517828.126505479216576, 119579.959905895404518, 0.0 ], [ 13517822.135051988065243, 119544.186769671738148, 0.0 ], [ 13517821.477323211729527, 119543.068180029280484, 0.0 ], [ 13517795.501138798892498, 119530.166733482852578, 0.0 ], [ 13517783.494202353060246, 119472.251817145384848, 0.0 ], [ 13517783.361774824559689, 119471.704786808229983, 0.0 ], [ 13517779.603221274912357, 119456.178991575725377, 0.0 ], [ 13517779.415542125701904, 119455.403728578239679, 0.0 ], [ 13517773.728592194616795, 119458.684482948854566, 0.0 ], [ 13517771.392168059945107, 119460.099767369218171, 0.0 ], [ 13517769.475655570626259, 119461.260691146366298, 0.0 ], [ 13517767.338772118091583, 119462.555104178376496, 0.0 ], [ 13517765.98869301378727, 119463.372911995276809, 0.0 ], [ 13517765.912217058241367, 119463.419237180612981, 0.0 ], [ 13517745.664591543376446, 119475.684197030030191, 0.0 ], [ 13517745.071494922041893, 119476.043464166112244, 0.0 ], [ 13517739.997293993830681, 119479.117151452228427, 0.0 ], [ 13517726.317610338330269, 119487.403592970222235, 0.0 ], [ 13517724.843222796916962, 119488.296700309030712, 0.0 ], [ 13517720.811986483633518, 119490.738613757304847, 0.0 ], [ 13517612.42157718539238, 119556.395883366465569, 0.0 ], [ 13517535.077079832553864, 119603.24714748095721, 0.0 ], [ 13517497.496857076883316, 119626.01128488406539, 0.0 ], [ 13517865.657715275883675, 120562.207815838046372, 0.0 ], [ 13518228.878055706620216, 120513.521161390468478, 0.0 ], [ 13518211.533348023891449, 120488.854025486856699, 0.0 ], [ 13518187.741864271461964, 120455.980674193240702, 0.0 ], [ 13518175.006899133324623, 120438.742858780547976, 0.0 ] ] ] ] } },
{ "type": "Feature", "properties": { "WADMPR": "SULAWESI TENGAH", "WADMKK": "BUOL", "WADMKC": "BUKAL", "WADMKD": "DIAT", "POKTAN": "KT GAIRA TANI II", "LUAS_HA": 178.80038263599999, "PAKET": "Paket Sulawesi Tengah 7" }, "geometry": { "type": "MultiPolygon", "coordinates": [ [ [ [ 13515404.017463874071836, 116886.035247532650828, 0.0 ], [ 13515371.901451289653778, 116885.172735058702528, 0.0 ], [ 13515370.501390736550093, 116896.872624264098704, 0.0 ], [ 13515363.251524724066257, 116957.457595638930798, 0.0 ], [ 13515361.459014803171158, 116974.257599109783769, 0.0 ], [ 13515310.018233604729176, 117456.377843010239303, 0.0 ], [ 13515475.779835894703865, 117507.126442037522793, 0.0 ], [ 13515496.614113565534353, 117568.459051496349275, 0.0 ], [ 13515520.334240198135376, 117601.777538214810193, 0.0 ], [ 13515564.703233417123556, 117627.086290491744876, 0.0 ], [ 13515731.901239067316055, 117654.670041508041322, 0.0 ], [ 13515811.515727084130049, 117645.234557751566172, 0.0 ], [ 13515892.460757821798325, 117681.176263329572976, 0.0 ], [ 13515910.546561501920223, 117688.186380526982248, 0.0 ], [ 13515984.032924514263868, 117701.690837014466524, 0.0 ], [ 13516020.986161418259144, 117700.793303309008479, 0.0 ], [ 13516055.477547012269497, 117697.316302030347288, 0.0 ], [ 13516187.07490972802043, 117674.65674776211381, 0.0 ], [ 13516195.519910573959351, 117679.322049014270306, 0.0 ], [ 13516235.354788031429052, 117717.944062987342477, 0.0 ], [ 13516264.562194090336561, 117779.763402491807938, 0.0 ], [ 13516362.353425186127424, 117917.313716848380864, 0.0 ], [ 13516394.832654099911451, 117968.337770466692746, 0.0 ], [ 13516427.425707083195448, 118009.561067318543792, 0.0 ], [ 13516463.309665895998478, 118075.913413403555751, 0.0 ], [ 13516494.492065738886595, 118124.900158986449242, 0.0 ], [ 13516653.012684013694525, 118359.814802379347384, 0.0 ], [ 13516673.694543100893497, 118395.697240447625518, 0.0 ], [ 13516677.447300039231777, 118423.164204151369631, 0.0 ], [ 13516690.716812260448933, 118446.069587057456374, 0.0 ], [ 13516700.785743843764067, 118593.981558569706976, 0.0 ], [ 13516701.580212190747261, 118599.796382833272219, 0.0 ], [ 13516714.026286371052265, 118651.784340626560152, 0.0 ], [ 13516755.089361697435379, 118710.559641974978149, 0.0 ], [ 13516757.667797774076462, 118715.896971002221107, 0.0 ], [ 13516788.722555674612522, 118737.016504644416273, 0.0 ], [ 13516859.710499547421932, 118836.454002884216607, 0.0 ], [ 13516901.031839966773987, 118906.954645732417703, 0.0 ], [ 13516868.716432683169842, 119022.17581476457417, 0.0 ], [ 13516897.323514550924301, 119191.061568601988256, 0.0 ], [ 13516895.204471476376057, 119249.987419690936804, 0.0 ], [ 13516872.266271144151688, 119303.69019238371402, 0.0 ], [ 13516857.061695657670498, 119332.588819051161408, 0.0 ], [ 13516871.365236580371857, 119391.514646020717919, 0.0 ], [ 13516885.668777488172054, 119492.004202727228403, 0.0 ], [ 13516908.974343456327915, 119577.656735492870212, 0.0 ], [ 13516910.467492081224918, 119588.800676619634032, 0.0 ], [ 13516948.551381498575211, 119625.648252842947841, 0.0 ], [ 13516963.384683199226856, 119663.318661401048303, 0.0 ], [ 13516961.351539954543114, 119681.869895793497562, 0.0 ], [ 13516968.408924102783203, 119685.66221468988806, 0.0 ], [ 13516972.019783869385719, 119683.988717974163592, 0.0 ], [ 13516991.554712414741516, 119676.425700269639492, 0.0 ], [ 13517004.798731811344624, 119664.259106248617172, 0.0 ], [ 13517027.644665218889713, 119658.669049385935068, 0.0 ], [ 13517072.34323064237833, 119657.682568751275539, 0.0 ], [ 13517108.102082937955856, 119669.849163012579083, 0.0 ], [ 13517127.305911041796207, 119688.263467011041939, 0.0 ], [ 13517135.914523631334305, 119705.033635884523392, 0.0 ], [ 13517141.874332368373871, 119720.488496661186218, 0.0 ], [ 13517158.098256073892117, 119723.119111192412674, 0.0 ], [ 13517193.194907441735268, 119720.488496661186218, 0.0 ], [ 13517301.79586635529995, 119679.7139688488096, 0.0 ], [ 13517435.560462035238743, 119628.745802314952016, 0.0 ], [ 13517526.944195725023746, 119595.863110206089914, 0.0 ], [ 13517558.067641273140907, 119579.750589965842664, 0.0 ], [ 13517626.605441518127918, 119520.890560525469482, 0.0 ], [ 13517682.892523892223835, 119473.210641048848629, 0.0 ], [ 13517765.998745493590832, 119439.341452875174582, 0.0 ], [ 13517772.594066604971886, 119443.026745893061161, 0.0 ], [ 13517770.549882881343365, 119432.448606277815998, 0.0 ], [ 13517742.061593368649483, 119411.117711251601577, 0.0 ], [ 13517708.827408723533154, 119388.265363162383437, 0.0 ], [ 13517665.657249383628368, 119358.580880326218903, 0.0 ], [ 13517621.793057233095169, 119296.235244674608111, 0.0 ], [ 13517573.478874526917934, 119227.576113890856504, 0.0 ], [ 13517569.34674047678709, 119229.943670337088406, 0.0 ], [ 13517558.539620704948902, 119206.899453427642584, 0.0 ], [ 13517576.180654495954514, 119191.273579458706081, 0.0 ], [ 13517538.117342799901962, 119149.052148750983179, 0.0 ], [ 13517494.014758266508579, 119160.495340760797262, 0.0 ], [ 13517489.246911287307739, 119155.76022688113153, 0.0 ], [ 13517463.023752920329571, 119167.992604268714786, 0.0 ], [ 13517432.827388748526573, 119122.614427839405835, 0.0 ], [ 13517471.367485135793686, 119084.733510754071176, 0.0 ], [ 13517414.087101332843304, 118989.110482912510633, 0.0 ], [ 13517352.833511717617512, 118881.912696805782616, 0.0 ], [ 13517359.124420933425426, 118804.309370840899646, 0.0 ], [ 13517282.309108540415764, 118851.002899565733969, 0.0 ], [ 13517142.253603607416153, 118867.773109053261578, 0.0 ], [ 13517132.32058909535408, 118766.823012256063521, 0.0 ], [ 13517114.033886089920998, 118600.578534407541156, 0.0 ], [ 13517073.053602382540703, 118494.553549536503851, 0.0 ], [ 13517025.706233106553555, 118344.607957294210792, 0.0 ], [ 13516983.656471587717533, 118280.815295426174998, 0.0 ], [ 13516899.888049013912678, 118154.874078174121678, 0.0 ], [ 13516878.366517551243305, 118114.099366220645607, 0.0 ], [ 13516805.524410955607891, 118001.311226961202919, 0.0 ], [ 13516713.809576787054539, 117862.545594569295645, 0.0 ], [ 13516643.285173609852791, 117761.92403522785753, 0.0 ], [ 13516616.797134857624769, 117736.93305522762239, 0.0 ], [ 13516532.670622915029526, 117651.521028281189501, 0.0 ], [ 13516565.515196658670902, 117595.060015638358891, 0.0 ], [ 13516573.069868590682745, 117585.069567326456308, 0.0 ], [ 13516516.342556066811085, 117534.545841770246625, 0.0 ], [ 13516607.493282821029425, 117507.99411693494767, 0.0 ], [ 13516692.073575254529715, 117495.998358095064759, 0.0 ], [ 13516897.649320095777512, 117455.874623487703502, 0.0 ], [ 13516984.72252431511879, 117433.037017653696239, 0.0 ], [ 13516941.187348090112209, 117351.297856799326837, 0.0 ], [ 13516958.09485912322998, 117297.872919151559472, 0.0 ], [ 13516801.625270016491413, 117136.520255610346794, 0.0 ], [ 13516864.225533530116081, 117066.070543633773923, 0.0 ], [ 13516913.881527811288834, 117057.329264734871686, 0.0 ], [ 13516968.476566046476364, 116990.724566586315632, 0.0 ], [ 13516887.584496013820171, 116932.2742291521281, 0.0 ], [ 13516858.144271366298199, 116997.713797096163034, 0.0 ], [ 13516816.410453788936138, 116970.51384808216244, 0.0 ], [ 13516796.057156637310982, 116997.625119467265904, 0.0 ], [ 13516769.280635751783848, 117002.238536419346929, 0.0 ], [ 13516737.448815785348415, 116970.633473961614072, 0.0 ], [ 13516802.270982593297958, 116935.66738161817193, 0.0 ], [ 13516824.084628373384476, 116883.969644902274013, 0.0 ], [ 13516778.168695338070393, 116850.002674587070942, 0.0 ], [ 13516731.710015591233969, 116876.498054906725883, 0.0 ], [ 13516689.934731930494308, 116865.980286449193954, 0.0 ], [ 13516640.917707704007626, 116912.788387122564018, 0.0 ], [ 13516584.457220435142517, 116875.066379236057401, 0.0 ], [ 13516506.009190566837788, 116958.336782234720886, 0.0 ], [ 13516476.250937800854445, 116940.251465605571866, 0.0 ], [ 13516446.422905959188938, 116989.890277830883861, 0.0 ], [ 13516488.110637944191694, 117037.795773330144584, 0.0 ], [ 13516527.436250004917383, 116975.287321078591049, 0.0 ], [ 13516611.465191688388586, 117001.867221408523619, 0.0 ], [ 13516649.009234547615051, 116927.823273467831314, 0.0 ], [ 13516694.129732765257359, 116959.598583804443479, 0.0 ], [ 13516652.734388895332813, 117031.607271403074265, 0.0 ], [ 13516738.132359459996223, 117082.132810678333044, 0.0 ], [ 13516789.77362435311079, 117122.660763987340033, 0.0 ], [ 13516687.099994316697121, 117222.747384955175221, 0.0 ], [ 13516658.06103777512908, 117183.618760448880494, 0.0 ], [ 13516631.320889677852392, 117201.310804982669652, 0.0 ], [ 13516540.362855531275272, 117086.717216406017542, 0.0 ], [ 13516467.71515479683876, 117156.714524771086872, 0.0 ], [ 13516520.61698841303587, 117222.38565687276423, 0.0 ], [ 13516567.738720402121544, 117201.857160215266049, 0.0 ], [ 13516608.280440419912338, 117247.193965401500463, 0.0 ], [ 13516571.861626353114843, 117290.249025858007371, 0.0 ], [ 13516597.713118970394135, 117317.9213493084535, 0.0 ], [ 13516638.945722818374634, 117311.636090193875134, 0.0 ], [ 13516693.918722417205572, 117324.780511993914843, 0.0 ], [ 13516730.935226257890463, 117449.388175293803215, 0.0 ], [ 13516691.15594969689846, 117456.216864815913141, 0.0 ], [ 13516669.015706446021795, 117378.274071744643152, 0.0 ], [ 13516616.906547792255878, 117383.45511654112488, 0.0 ], [ 13516555.018564116209745, 117422.641140569001436, 0.0 ], [ 13516428.338303036987782, 117409.406215786002576, 0.0 ], [ 13516388.346940971910954, 117295.209764422848821, 0.0 ], [ 13516341.743564561009407, 117253.00262286234647, 0.0 ], [ 13516317.923545207828283, 117265.830650674179196, 0.0 ], [ 13516267.75822925567627, 117233.281303673051298, 0.0 ], [ 13516227.126706223934889, 117260.141100559383631, 0.0 ], [ 13516185.034431219100952, 117220.762980906292796, 0.0 ], [ 13516197.68209695070982, 117168.501173357479274, 0.0 ], [ 13516137.990445852279663, 117118.72111174557358, 0.0 ], [ 13516080.719621729105711, 117075.923746129497886, 0.0 ], [ 13516102.87185350805521, 117038.140969076193869, 0.0 ], [ 13516008.181983634829521, 117000.331885161809623, 0.0 ], [ 13515960.814769323915243, 117134.720223844051361, 0.0 ], [ 13516029.608232215046883, 117169.656416475772858, 0.0 ], [ 13515971.294523365795612, 117271.678373208269477, 0.0 ], [ 13515891.478277754038572, 117264.684310540556908, 0.0 ], [ 13515854.175207987427711, 117205.700378348119557, 0.0 ], [ 13515808.507603820413351, 117145.489681655541062, 0.0 ], [ 13515805.806513752788305, 117090.412873359397054, 0.0 ], [ 13515730.055141061544418, 116948.65341205149889, 0.0 ], [ 13515700.430497080087662, 116934.077781989239156, 0.0 ], [ 13515616.483926650136709, 116904.620480773970485, 0.0 ], [ 13515562.614636402577162, 116891.579118160530925, 0.0 ], [ 13515508.792899526655674, 116886.612615957856178, 0.0 ], [ 13515484.589717637747526, 116885.690761146135628, 0.0 ], [ 13515434.96117090433836, 116885.139282908290625, 0.0 ], [ 13515404.017463874071836, 116886.035247532650828, 0.0 ] ] ] ] } }
]
}
